# 2008  01  22   15    7    7.39    -26.9617    -68.0109    8.05     0.0     0.0     0.0    0.31   73
X6BB24 16.75 1 P
X6BB24 28.79 1 S
X6BB01 10.03 1 P
X6BB01 16.35 1 S
X6BB02  3.51 1 P
X6BB02  6.13 1 S
X6EW16  6.07 1 P
X6EW16 10.21 1 S
X6EW15  5.87 1 P
X6EW15  9.57 1 S
X6BB09  9.05 1 P
X6BB09 15.71 1 S
X6EW11  9.05 1 P
X6EW11 15.11 1 S
2BNS04 15.49 1 P
2BNS04 26.34 1 S
X6NS07 10.11 1 P
X6NS07 17.27 1 S
X6NS08  7.63 1 P
X6NS08 13.07 1 S
X6NS09  6.75 1 P
X6NS09 11.63 1 S
2BEW01 18.05 1 P
X6NS10  5.95 1 P
X6NS10 10.35 1 S
X6NS11  6.21 1 P
X6NS11 10.75 1 S
# 2008  01  22   17    51    0.1    -26.5242    -67.2333    2.2     0.0     0.0     0.0    0.21   74
X6EW10  1.40 1 P
X6EW10  2.50 1 S
X6NS07 11.62 1 S
X6NS06  6.76 1 S
X6NS06  4.34 1 P
X6NS05  5.18 1 S
X6NS05  3.00 1 P
2BNS04  4.71 1 S
2BNS04  2.84 1 P
2BNS03  8.06 1 S
2BNS03  4.89 1 P
2BEW01 10.43 1 S
2BEW01  5.98 1 P
X6EW09  5.88 1 S
X6EW09  3.40 1 P
# 2008  01  22   22    1    43.56    -27.294    -66.0235    16.400000000000002     0.0     0.0     0.0    0.26   75
X6BB13 12.42 1 P
X6BB13 21.00 1 S
X6NS18 49.68 1 S
X6BB24 61.80 1 S
X6NS16 47.96 1 S
X6BB15 11.30 1 S
X6BB15  6.78 1 P
X6NS10 28.74 1 P
X6NS10 48.06 1 S
X6BB11 28.14 1 S
X6BB11 16.72 1 P
X6NS09 48.66 1 S
X6NS06 46.66 1 S
X6EW09 23.46 1 P
X6EW09 39.64 1 S
2BEW01 33.70 1 S
2BEW01 20.03 1 P
X6NS05 47.06 1 S
2BEW03 15.43 1 P
2BEW03 25.78 1 S
2BNS04 46.58 1 S
2BEW02 29.32 1 S
2BEW02 17.47 1 P
2BNS03 49.45 1 S
2BNS02 53.61 1 S
2BEW04 22.16 1 S
2BEW04 13.20 1 P
2BNS23 62.57 1 S
2BGALA 53.62 1 S
2BEW05 18.66 1 S
2BEW05 11.52 1 P
2BEW06 15.34 1 S
2BEW06  9.47 1 P
2BEW07 14.18 1 S
2BEW07  9.04 1 P
2BEW08 14.12 1 S
2BEW08  8.46 1 P
2BEW22 15.49 1 S
X6BB14 10.66 1 S
X6BB14  6.42 1 P
# 2008  01  23   00    58    57.17    -26.4868    -67.8818    6.29     0.0     0.0     0.0    0.8   77
X6EW15  7.41 1 P
X6EW15 12.65 1 S
X6BB09  4.77 1 P
X6BB09  8.69 1 S
2BNS02 10.44 1 P
2BNS02 16.69 1 S
2BNS03  9.26 1 P
2BNS03 15.76 1 S
2BNS04  9.68 1 P
2BNS04 15.98 1 S
X6NS05  8.17 1 P
X6NS05 14.05 1 S
X6NS06  7.85 1 P
X6NS06 13.37 1 S
X6NS07  9.11 1 P
X6NS07 11.31 1 S
X6EW11  5.83 1 P
X6EW11  8.69 1 S
X6NS08  8.57 1 P
X6NS09  8.77 1 P
X6NS09 15.17 1 S
# 2008  01  23   02    41    55.05    -25.9501    -66.7844    5.390000000000001     0.0     0.0     0.0    0.29   78
2BEW02 15.29 1 P
2BEW02 25.56 1 S
X6BB11 22.61 1 P
X6BB11 38.45 1 S
2BEW01 15.71 1 P
X6EW09 16.05 1 P
X6EW09 27.33 1 S
X6NS09 40.25 1 S
X6NS06 29.15 1 S
X6NS06 16.77 1 P
X6NS08 21.57 1 P
X6NS07 18.83 1 P
X6NS05 26.17 1 S
X6NS05 15.05 1 P
2BNS04 21.86 1 S
2BNS04 13.03 1 P
2BNS03 21.25 1 S
2BNS03 12.61 1 P
X6BB09 26.21 1 P
2BNS02 12.80 1 P
2BNS01 19.82 1 S
2BNS01 11.98 1 P
2BNS19 11.37 1 P
2BNS19 18.84 1 S
2BNS20 10.42 1 P
2BNS20 17.27 1 S
2BNS21  9.23 1 P
2BNS21 15.50 1 S
2BNS22  9.38 1 P
2BNS22 15.88 1 S
2BNS23  9.53 1 P
2BNS23 16.44 1 S
2BNS24 10.55 1 P
2BNS24 17.79 1 S
2BGALA  3.59 1 P
2BNS25 18.72 1 S
2BNS25 11.11 1 P
2BNS26 21.64 1 S
2BNS26 12.78 1 P
2BEW07 38.45 1 S
2BEW06 34.95 1 S
2BEW06 20.80 1 P
2BEW04 29.80 1 S
2BEW04 17.51 1 P
X6BB15 28.11 1 P
X6BB15 47.91 1 S
2BEW03 17.45 1 P
# 2008  01  23   03    29    1.51    -25.7027    -67.1953    8.31     0.0     0.0     0.0    0.15   79
2BNS21  3.80 1 P
2BNS21  6.10 1 S
2BNS22  2.41 1 P
2BNS22  3.88 1 S
2BNS19  7.54 1 P
2BNS20  5.57 1 P
2BNS20  9.17 1 S
2BNS24  2.91 1 P
2BNS24  4.63 1 S
2BNS25  3.96 1 P
2BNS25  6.76 1 S
2BNS23  1.85 1 P
2BNS23  2.98 1 S
2BGALA  5.59 1 P
2BGALA  9.31 1 S
# 2008  01  23   05    0    41.78    -25.8384    -67.328    9.74     0.0     0.0     0.0    0.19   81
2BNS04 11.05 1 P
2BNS03 15.86 1 S
2BNS03  9.41 1 P
2BNS02  7.66 1 P
2BNS01  5.73 1 P
2BNS01  9.81 1 S
2BNS19  4.65 1 P
2BNS20  2.83 1 P
2BNS20  4.52 1 S
2BNS21  1.96 1 P
2BNS21  2.96 1 S
2BNS24  5.53 1 P
2BNS24  8.94 1 S
2BNS22  2.74 1 P
2BNS22  4.30 1 S
2BNS25  6.82 1 P
2BNS25 11.83 1 S
2BNS23  4.30 1 P
2BNS23  6.87 1 S
2BGALA  7.28 1 P
2BGALA 11.90 1 S
# 2008  01  23   05    7    55.44    -25.7124    -67.1965    8.15     0.0     0.0     0.0    0.31   82
2BNS02 10.44 1 P
2BNS02 17.68 1 S
2BNS19  7.48 1 P
2BNS21  3.73 1 P
2BNS21  6.05 1 S
2BNS20  5.54 1 P
2BNS20  9.12 1 S
2BNS22  2.37 1 P
2BNS22  3.85 1 S
2BNS23  1.80 1 P
2BNS23  2.94 1 S
2BNS24  2.87 1 P
2BNS24  4.62 1 S
2BNS25  3.92 1 P
2BNS25  7.05 1 S
2BNS26  6.60 1 P
2BGALA  5.58 1 P
2BGALA  9.18 1 S
# 2008  01  23   14    10    43.55    -25.7077    -67.1974    8.52     0.0     0.0     0.0    0.17   85
2BNS01  8.64 1 P
2BNS19  7.49 1 P
2BNS19 12.53 1 S
2BNS21  3.58 1 P
2BNS21  6.13 1 S
2BNS20  5.60 1 P
2BNS20  9.20 1 S
2BNS22  2.44 1 P
2BNS22  3.90 1 S
2BNS23  1.88 1 P
2BNS23  3.03 1 S
2BNS24  2.94 1 P
2BNS24  4.74 1 S
2BNS25  3.98 1 P
2BNS25  6.73 1 S
2BNS26  6.28 1 P
2BGALA  5.64 1 P
2BGALA  9.23 1 S
# 2008  01  23   14    54    11.12    -27.1164    -68.5503    6.75     0.0     0.0     0.0    0.53   86
X6EW20  6.26 1 P
X6EW20 10.68 1 S
X6BB04 14.42 1 P
X6BB04 24.50 1 S
X6EW19  5.96 1 P
X6EW19 10.14 1 S
X6EW18  4.92 1 P
X6EW18  9.36 1 S
X6EW17  5.86 1 P
X6EW17  9.94 1 S
X6BB09 14.44 1 P
X6BB09 24.62 1 S
X6EW15 10.42 1 P
X6EW15 17.44 1 S
X6EW16  7.72 1 P
X6EW16 13.04 1 S
2BNS03 26.01 1 P
2BNS04 24.61 1 P
X6EW11 18.00 1 P
X6EW11 30.24 1 S
X6NS06 21.24 1 P
X6NS06 35.46 1 S
X6NS07 19.34 1 P
X6NS07 33.20 1 S
X6EW10 24.38 1 P
X6NS08 17.02 1 P
X6NS08 28.68 1 S
X6NS09 16.22 1 P
X6NS09 27.68 1 S
2BEW03 52.45 1 S
X6NS10 14.98 1 P
X6NS10 25.58 1 S
X6BB11 46.98 1 S
X6BB11 27.82 1 P
X6BB02 13.10 1 S
X6BB02  7.82 1 P
X6BB15 62.62 1 S
X6BB13 34.54 1 P
X6BB13 58.02 1 S
X6BB12 26.18 1 P
X6BB12 44.56 1 S
X6NS13 15.50 1 P
X6NS13 26.26 1 S
X6NS15 30.80 1 S
X6NS14 28.50 1 S
X6NS14 16.80 1 P
X6NS16 16.78 1 P
X6NS16 33.68 1 S
X6BB01 15.92 1 S
X6BB01  9.26 1 P
X6NS18 38.08 1 S
X6BB24 26.78 1 S
X6BB24 15.90 1 P
# 2008  01  24   06    30    49.78    -26.7298    -67.0393    7.23     0.0     0.0     0.0    0.24   88
X6NS08 10.84 1 P
X6NS08 19.84 1 S
X6NS07  9.06 1 P
X6NS07 15.76 1 S
X6EW09  3.20 1 P
X6EW09  5.54 1 S
X6NS06  7.32 1 P
X6NS06 12.28 1 S
X6NS05  7.80 1 P
X6NS05 13.20 1 S
X6EW10  5.04 1 P
X6EW10  8.36 1 S
2BNS04  8.08 1 P
2BNS04 13.47 1 S
2BNS03 10.13 1 P
2BNS03 16.83 1 S
2BNS02 12.62 1 P
2BNS02 20.99 1 S
2BNS19 15.12 1 P
2BNS19 24.76 1 S
2BNS20 16.39 1 P
2BNS20 27.07 1 S
2BNS22 18.97 1 P
2BNS23 20.61 1 P
2BGALA 17.77 1 P
2BEW06 27.31 1 S
2BEW06 16.23 1 P
2BEW04 16.52 1 S
2BEW04  9.85 1 P
2BEW02  6.66 1 S
2BEW02  3.96 1 P
2BEW03  9.60 1 S
2BEW03  5.76 1 P
2BEW01  2.64 1 S
2BEW01  1.53 1 P
X6BB11 13.38 1 S
X6BB11  7.86 1 P
# 2008  01  24   17    23    5.32    -25.7073    -67.1975    8.71     0.0     0.0     0.0    0.18   89
2BNS01  8.71 1 P
2BNS19  7.56 1 P
2BNS19 12.38 1 S
2BNS21  3.68 1 P
2BNS21  6.16 1 S
2BNS20  5.63 1 P
2BNS20  9.21 1 S
2BNS22  2.45 1 P
2BNS22  3.92 1 S
2BNS23  1.90 1 P
2BNS23  3.01 1 S
2BNS24  2.95 1 P
2BNS24  4.66 1 S
2BNS25  3.99 1 P
2BNS25  7.19 1 S
2BNS26  6.04 1 P
2BGALA  5.66 1 P
2BGALA  9.24 1 S
# 2008  01  25   06    18    8.25    -25.9592    -66.939    6.53     0.0     0.0     0.0    0.19   92
2BEW01 15.19 1 P
2BEW01 26.76 1 S
2BNS04 11.15 1 P
2BNS04 18.49 1 S
X6NS05 13.39 1 P
X6NS05 22.41 1 S
2BNS03 17.21 1 S
2BNS02 10.26 1 P
2BNS19  8.62 1 P
2BNS19 14.43 1 S
2BNS20  7.73 1 P
2BNS20 12.76 1 S
2BNS21  6.81 1 P
2BNS21 11.26 1 S
2BNS22  7.25 1 P
2BNS22 11.93 1 S
2BNS23  7.75 1 P
2BNS23 13.12 1 S
2BNS24  8.91 1 P
2BNS24 14.98 1 S
2BNS25  9.69 1 P
2BNS25 16.62 1 S
2BGALA  2.70 1 P
2BGALA  4.67 1 S
2BEW02 15.19 1 P
# 2008  01  25   10    46    0.07    -25.968    -66.9272    5.470000000000001     0.0     0.0     0.0    0.42   94
2BEW01 15.48 1 P
X6EW09 14.61 1 P
X6EW09 24.47 1 S
X6EW10 13.43 1 P
X6EW10 22.35 1 S
X6NS09 22.07 1 P
X6NS09 38.03 1 S
X6NS06 15.25 1 P
X6NS06 25.79 1 S
X6NS05 11.89 1 P
X6NS05 22.49 1 S
2BNS04 18.65 1 S
X6NS07 17.15 1 P
X6NS08 20.61 1 P
X6EW11 19.91 1 P
2BNS03 10.92 1 P
2BNS03 17.50 1 S
2BNS02 10.56 1 P
2BNS01  9.52 1 P
2BNS19 14.67 1 S
2BNS19  8.88 1 P
2BNS20 13.06 1 S
2BNS20  8.01 1 P
2BNS21 11.53 1 S
2BNS21  7.05 1 P
2BNS22 12.19 1 S
2BNS22  7.49 1 P
2BNS23 13.45 1 S
2BNS23  8.03 1 P
2BNS24 15.25 1 S
2BNS24  9.15 1 P
2BNS25 16.46 1 S
2BNS25  9.93 1 P
2BNS26 11.80 1 P
2BGALA  2.96 1 P
2BGALA  4.89 1 S
2BEW06 37.66 1 S
2BEW04 18.25 1 P
2BEW04 30.58 1 S
2BEW03 17.58 1 P
# 2008  01  25   11    39    26.69    -25.6757    -67.0483    12.68     0.0     0.0     0.0    0.47   97
X6EW09 19.29 1 P
X6EW09 34.13 1 S
X6EW10 17.57 1 P
X6EW10 30.89 1 S
2BNS04 14.82 1 P
X6NS06 18.87 1 P
X6NS06 33.91 1 S
X6NS05 16.89 1 P
X6NS09 25.61 1 P
X6NS09 45.01 1 S
X6NS07 20.65 1 P
X6NS07 37.55 1 S
2BNS03 13.50 1 P
2BNS03 23.88 1 S
X6NS08 23.27 1 P
2BNS02 20.75 1 S
2BNS02 12.38 1 P
2BNS01 17.54 1 S
2BNS01 10.66 1 P
2BNS19  9.60 1 P
2BNS19 15.85 1 S
X6EW15 28.55 1 P
X6BB09 41.53 1 S
X6BB09 25.13 1 P
2BNS20 12.64 1 S
2BNS20  7.86 1 P
2BNS21  9.49 1 S
2BNS21  5.89 1 P
2BNS22  8.08 1 S
2BNS22  5.03 1 P
2BNS23  6.60 1 S
2BNS23  4.12 1 P
2BNS24  7.16 1 S
2BNS24  4.61 1 P
2BNS25  7.96 1 S
2BNS25  5.03 1 P
2BNS26 10.80 1 S
2BNS26  6.71 1 P
2BGALA  4.25 1 P
2BEW04 40.04 1 S
X6BB15 34.33 1 P
X6BB15 58.01 1 S
2BEW03 23.03 1 P
2BEW02 35.00 1 S
2BEW02 20.70 1 P
X6BB11 27.75 1 P
X6BB11 47.61 1 S
2BEW01 35.39 1 S
# 2008  01  25   11    55    38.18    -25.9628    -66.9349    5.890000000000001     0.0     0.0     0.0    0.13   99
2BEW01 15.33 1 P
X6NS06 26.30 1 S
X6NS05 22.36 1 S
X6NS05 13.48 1 P
2BNS04 18.46 1 S
2BNS04 11.17 1 P
2BNS03 17.31 1 S
2BNS19 14.38 1 S
2BNS19  8.65 1 P
2BNS20 12.87 1 S
2BNS20  7.82 1 P
2BNS21 11.34 1 S
2BNS21  6.85 1 P
2BNS22 12.02 1 S
2BNS22  7.32 1 P
2BNS23 13.23 1 S
2BNS23  7.85 1 P
2BNS24 15.06 1 S
2BNS24  9.08 1 P
2BNS26 11.62 1 P
2BGALA  2.76 1 P
2BGALA  4.82 1 S
2BEW02 15.21 1 P
# 2008  01  25   12    6    18.67    -25.9642    -66.9331    5.27     0.0     0.0     0.0    0.14   100
2BEW01 15.28 1 P
X6EW10 22.23 1 S
X6NS06 15.45 1 P
X6NS06 25.87 1 S
X6NS05 13.55 1 P
X6NS05 22.35 1 S
2BNS04 18.45 1 S
2BNS03 17.34 1 S
2BNS02 16.96 1 S
2BNS02 10.40 1 P
2BNS01  9.41 1 P
2BNS19 14.51 1 S
2BNS19  8.73 1 P
2BNS20 12.90 1 S
2BNS20  7.85 1 P
2BNS21 11.37 1 S
2BNS21  6.93 1 P
2BNS22 12.05 1 S
2BNS22  7.37 1 P
2BNS23 13.26 1 S
2BNS23  7.90 1 P
2BNS24 15.14 1 S
2BNS24  9.01 1 P
2BNS25 16.30 1 S
2BNS25  9.79 1 P
2BNS26 11.69 1 P
2BGALA  2.79 1 P
2BGALA  4.82 1 S
2BEW02 15.27 1 P
# 2008  01  25   12    14    38.18    -25.965    -66.9386    6.02     0.0     0.0     0.0    0.3   101
2BEW01 15.32 1 P
2BEW01 26.85 1 S
X6EW09 14.48 1 P
X6EW09 24.40 1 S
X6EW10 13.24 1 P
X6EW10 22.16 1 S
X6NS11 26.10 1 P
X6NS11 43.98 1 S
X6NS10 23.86 1 P
X6NS10 41.12 1 S
X6NS09 21.80 1 P
X6NS09 37.82 1 S
X6NS06 15.08 1 P
X6NS06 25.60 1 S
X6NS05 13.16 1 P
X6NS05 22.30 1 S
2BNS04 11.08 1 P
2BNS04 18.55 1 S
X6NS07 17.00 1 P
X6NS08 19.78 1 P
X6EW11 18.82 1 P
2BNS03 17.34 1 S
2BNS03 10.54 1 P
X6EW15 26.84 1 P
X6EW15 44.64 1 S
2BNS02 10.41 1 P
X6BB09 39.18 1 S
X6BB09 23.88 1 P
2BNS01  9.34 1 P
2BNS19 14.52 1 S
2BNS19  8.71 1 P
2BNS20 12.88 1 S
2BNS20  7.85 1 P
2BNS21 11.39 1 S
2BNS21  6.86 1 P
2BNS22 12.07 1 S
2BNS22  7.30 1 P
2BNS23 13.26 1 S
2BNS23  7.88 1 P
2BNS24 15.11 1 S
2BNS24  9.01 1 P
2BNS25  9.78 1 P
2BNS26 11.65 1 P
2BGALA  2.76 1 P
2BGALA  4.72 1 S
2BEW07 40.35 1 S
2BEW06 21.95 1 P
2BEW06 37.51 1 S
X6BB14 35.38 1 P
2BEW04 30.47 1 S
2BEW04 18.08 1 P
X6BB15 48.36 1 S
X6BB15 28.20 1 P
2BEW03 17.42 1 P
X6BB13 32.42 1 P
2BEW02 15.21 1 P
X6BB11 38.72 1 S
X6BB11 22.24 1 P
# 2008  01  25   12    17    12.09    -25.9645    -66.9395    4.45     0.0     0.0     0.0    0.43   103
2BEW01 15.26 1 P
X6EW09 14.45 1 P
X6EW09 24.35 1 S
X6NS16 34.85 1 P
X6NS16 56.91 1 S
X6EW10 13.17 1 P
X6EW10 22.09 1 S
X6NS11 43.95 1 S
X6NS10 41.05 1 S
X6NS10 23.87 1 P
X6NS09 37.75 1 S
X6NS09 21.77 1 P
X6NS06 25.65 1 S
X6NS06 15.05 1 P
X6NS05 22.25 1 S
X6NS05 13.13 1 P
2BNS04 18.41 1 S
2BNS04 11.03 1 P
X6NS07 16.93 1 P
X6NS08 19.65 1 P
X6EW11 18.75 1 P
2BNS03 10.49 1 P
2BNS03 17.28 1 S
X6EW15 26.69 1 P
2BNS02 10.40 1 P
X6BB09 39.49 1 S
X6BB09 23.97 1 P
2BNS01  9.31 1 P
2BNS19 14.48 1 S
2BNS19  8.70 1 P
2BNS20 12.85 1 S
2BNS20  7.83 1 P
2BNS21 11.36 1 S
2BNS21  6.87 1 P
2BNS22 12.01 1 S
2BNS22  7.23 1 P
2BNS23  7.84 1 P
2BNS24 15.03 1 S
2BNS24  8.96 1 P
2BNS25 16.61 1 S
2BNS25  9.74 1 P
2BNS26 19.44 1 S
2BNS26 11.61 1 P
2BGALA  2.77 1 P
2BGALA  4.68 1 S
2BEW06 22.13 1 P
X6BB14 59.83 1 S
X6BB14 35.29 1 P
2BEW04 18.04 1 P
X6BB15 48.45 1 S
X6BB15 28.13 1 P
2BEW03 17.39 1 P
X6BB13 32.29 1 P
2BEW02 15.15 1 P
X6BB11 22.19 1 P
X6BB11 38.85 1 S
# 2008  01  25   12    31    14.35    -25.9632    -66.9372    6.04     0.0     0.0     0.0    0.3   106
2BEW01 15.32 1 P
X6EW09 14.51 1 P
X6EW09 25.01 1 S
X6EW10 13.27 1 P
X6EW10 22.15 1 S
X6NS09 21.86 1 P
X6NS09 37.79 1 S
X6NS06 15.10 1 P
X6NS06 25.67 1 S
X6NS05 13.22 1 P
X6NS05 22.42 1 S
2BNS04 11.15 1 P
2BNS04 18.40 1 S
X6NS07 16.99 1 P
X6NS07 29.90 1 S
X6NS08 19.68 1 P
2BNS03 17.33 1 S
2BNS03 10.52 1 P
2BNS02 16.92 1 S
2BNS02 10.44 1 P
2BNS01 15.52 1 S
2BNS19 14.57 1 S
2BNS20 12.94 1 S
2BNS20  8.23 1 P
2BNS21 11.38 1 S
2BNS21  6.90 1 P
2BNS22 12.07 1 S
2BNS22  7.28 1 P
2BNS23  7.90 1 P
2BNS24 15.04 1 S
2BNS24  9.02 1 P
2BNS25 16.63 1 S
2BNS25  9.80 1 P
2BNS26 19.33 1 S
2BNS26 11.68 1 P
2BGALA  2.81 1 P
2BGALA  4.72 1 S
2BEW06 37.50 1 S
2BEW04 18.10 1 P
X6BB15 48.58 1 S
X6BB15 28.35 1 P
2BEW03 17.47 1 P
2BEW02 25.04 1 S
2BEW02 15.21 1 P
X6BB11 38.79 1 S
X6BB11 22.26 1 P
# 2008  01  25   12    37    15.05    -25.9659    -66.9402    5.890000000000001     0.0     0.0     0.0    0.29   107
2BEW01 15.29 1 P
X6EW09 14.45 1 P
X6EW09 24.31 1 S
X6EW10 13.25 1 P
X6EW10 22.17 1 S
X6NS10 41.31 1 S
X6NS09 37.85 1 S
X6NS09 21.81 1 P
X6NS06 25.65 1 S
X6NS06 15.07 1 P
X6NS05 22.29 1 S
X6NS05 13.17 1 P
2BNS04 18.44 1 S
2BNS04 11.07 1 P
X6NS07 16.97 1 P
X6NS08 34.77 1 S
X6NS08 19.87 1 P
X6EW11 19.05 1 P
2BNS03 17.32 1 S
2BNS03 10.47 1 P
X6EW15 26.91 1 P
X6EW15 43.79 1 S
2BNS02 10.09 1 P
X6BB09 39.37 1 S
X6BB09 23.73 1 P
2BNS01  9.33 1 P
2BNS01 15.46 1 S
2BNS19 14.52 1 S
2BNS19  8.71 1 P
2BNS20 12.89 1 S
2BNS20  7.84 1 P
2BNS21 11.36 1 S
2BNS21  6.85 1 P
2BNS22 12.03 1 S
2BNS22  7.33 1 P
2BNS23 13.25 1 S
2BNS23  7.86 1 P
2BNS24 15.12 1 S
2BNS24  8.99 1 P
2BNS25 16.28 1 S
2BNS25  9.77 1 P
2BNS26 11.64 1 P
2BGALA  2.78 1 P
2BGALA  4.72 1 S
2BEW08 46.36 1 S
2BEW06 22.15 1 P
2BEW06 37.48 1 S
2BEW04 18.05 1 P
2BEW04 30.39 1 S
X6BB15 48.31 1 S
X6BB15 28.19 1 P
2BEW03 17.41 1 P
X6BB13 32.37 1 P
2BEW02 15.18 1 P
X6BB11 22.25 1 P
X6BB11 38.73 1 S
# 2008  01  25   13    13    3.13    -25.966    -66.9411    6.1899999999999995     0.0     0.0     0.0    0.3   108
2BEW01 15.30 1 P
2BEW01 26.96 1 S
X6EW09 14.53 1 P
X6EW09 24.37 1 S
X6NS16 33.31 1 P
X6EW10 22.15 1 S
X6EW10 13.23 1 P
X6NS13 50.85 1 S
X6NS11 26.03 1 P
X6NS11 43.99 1 S
X6NS10 23.93 1 P
X6NS10 41.13 1 S
X6NS09 21.53 1 P
X6NS09 36.65 1 S
X6NS06 15.09 1 P
X6NS06 25.59 1 S
X6NS05 13.17 1 P
X6NS05 22.37 1 S
2BNS04 11.11 1 P
2BNS04 18.52 1 S
X6NS07 17.01 1 P
X6NS08 19.73 1 P
X6BB02 29.65 1 P
X6EW11 18.75 1 P
X6EW16 49.27 1 S
X6EW15 44.77 1 S
X6EW15 26.29 1 P
2BNS02 16.96 1 S
2BNS02 10.06 1 P
X6BB09 23.71 1 P
X6BB09 39.31 1 S
2BNS01 15.39 1 S
2BNS01  9.27 1 P
2BNS19 14.55 1 S
2BNS19  8.63 1 P
2BNS20 12.92 1 S
2BNS20  7.79 1 P
2BNS21 11.44 1 S
2BNS21  6.81 1 P
2BNS22 12.12 1 S
2BNS22  7.29 1 P
2BNS23 13.27 1 S
2BNS23  7.86 1 P
2BNS24 15.12 1 S
2BNS24  8.95 1 P
2BNS25  9.78 1 P
2BNS26 11.59 1 P
2BGALA  2.72 1 P
2BGALA  4.77 1 S
2BEW07 40.28 1 S
2BEW07 23.91 1 P
2BEW06 21.97 1 P
2BEW05 19.66 1 P
2BEW05 32.82 1 S
X6BB14 35.31 1 P
X6BB14 59.69 1 S
2BEW04 18.13 1 P
2BEW04 30.39 1 S
X6BB15 28.17 1 P
2BEW03 29.81 1 S
2BEW03 17.46 1 P
X6BB13 32.43 1 P
2BEW02 15.19 1 P
X6BB11 22.25 1 P
X6BB11 38.93 1 S
# 2008  01  25   16    34    5.29    -25.9695    -66.9379    3.89     0.0     0.0     0.0    0.42   111
2BEW01 15.33 1 P
X6BB12 30.35 1 P
X6EW09 14.53 1 P
X6EW09 24.31 1 S
X6NS18 38.59 1 P
X6NS18 65.33 1 S
X6NS17 36.17 1 P
X6NS17 62.05 1 S
X6NS16 32.69 1 P
X6NS15 53.17 1 S
X6EW10 13.21 1 P
X6EW10 22.17 1 S
X6NS14 30.93 1 P
X6NS14 54.31 1 S
X6NS13 29.73 1 P
X6NS13 50.89 1 S
X6BB24 39.65 1 P
X6BB24 68.37 1 S
X6NS11 26.05 1 P
X6NS11 43.99 1 S
X6NS10 23.79 1 P
X6NS10 40.77 1 S
X6NS09 21.53 1 P
X6NS06 25.67 1 S
X6NS06 15.05 1 P
X6NS05 22.31 1 S
X6NS05 13.17 1 P
X6BB01 59.29 1 S
2BNS04 18.48 1 S
2BNS04 11.11 1 P
X6NS07 28.71 1 S
X6NS07 17.01 1 P
X6NS08 19.73 1 P
X6BB02 50.93 1 S
X6BB02 29.55 1 P
X6EW11 18.77 1 P
2BNS03 17.36 1 S
2BNS03 10.51 1 P
X6EW16 48.55 1 S
X6EW15 44.63 1 S
X6EW15 26.51 1 P
X6EW18 34.37 1 P
X6EW18 56.73 1 S
2BNS02 10.13 1 P
X6BB09 39.35 1 S
X6BB09 23.53 1 P
2BNS01 15.52 1 S
2BNS01  9.37 1 P
X6BB04 38.83 1 P
2BNS19 14.52 1 S
2BNS19  8.75 1 P
2BNS20 12.89 1 S
2BNS20  7.87 1 P
2BNS21 11.40 1 S
2BNS21  6.89 1 P
2BNS22 12.08 1 S
2BNS22  7.34 1 P
2BNS23 13.28 1 S
2BNS23  7.90 1 P
2BNS24 15.15 1 S
2BNS24  9.02 1 P
2BNS25 16.32 1 S
2BNS25  9.81 1 P
2BNS26 11.67 1 P
2BGALA  2.82 1 P
2BGALA  4.73 1 S
2BEW08 46.36 1 S
2BEW08 27.42 1 P
2BEW07 40.27 1 S
2BEW07 23.88 1 P
2BEW06 21.90 1 P
2BEW05 19.40 1 P
X6BB14 35.33 1 P
X6BB14 59.53 1 S
2BEW04 30.39 1 S
2BEW04 18.12 1 P
X6BB15 28.05 1 P
2BEW03 17.46 1 P
X6BB13 55.63 1 S
X6BB13 32.39 1 P
2BEW02 15.21 1 P
X6BB11 22.25 1 P
X6BB11 38.77 1 S
# 2008  01  25   20    27    38.24    -25.9575    -66.9758    2.2     0.0     0.0     0.0    0.33   117
X6NS05 13.08 1 P
X6NS05 21.86 1 S
2BNS03 16.60 1 S
2BNS21  6.33 1 P
2BNS21 10.78 1 S
2BNS22  6.67 1 P
2BNS22 11.46 1 S
2BNS23  7.23 1 P
2BNS23 12.69 1 S
2BNS24  8.38 1 P
2BNS24 14.50 1 S
2BNS25  9.12 1 P
2BNS25 16.06 1 S
2BGALA  2.18 1 P
2BGALA  4.13 1 S
2BEW07 42.21 1 S
# 2008  01  26   00    20    51.69    -25.961    -66.9329    5.42     0.0     0.0     0.0    0.29   121
2BEW01 15.41 1 P
2BEW01 26.02 1 S
X6EW10 13.43 1 P
X6EW10 22.33 1 S
X6NS06 16.29 1 P
X6NS06 25.73 1 S
X6NS05 13.45 1 P
X6NS05 22.33 1 S
2BNS04 11.27 1 P
2BNS04 18.65 1 S
2BNS03 10.56 1 P
2BNS02 16.96 1 S
2BNS02 10.40 1 P
2BNS19  8.73 1 P
2BNS19 14.50 1 S
2BNS21  6.88 1 P
2BNS21 11.32 1 S
2BNS22  7.36 1 P
2BNS22 12.00 1 S
2BNS23  7.86 1 P
2BNS23 13.20 1 S
2BNS24  8.98 1 P
2BNS24 15.05 1 S
2BNS25  9.76 1 P
2BNS26 11.64 1 P
2BNS26 19.35 1 S
2BGALA  2.82 1 P
2BGALA  4.80 1 S
2BEW06 37.72 1 S
2BEW04 30.64 1 S
2BEW04 18.22 1 P
2BEW03 17.59 1 P
# 2008  01  26   05    3    38.68    -25.889    -67.1007    10.96     0.0     0.0     0.0    0.24   124
2BNS04 10.87 1 P
2BNS04 17.56 1 S
X6NS06 26.06 1 S
X6NS05 23.12 1 S
X6NS05 13.36 1 P
2BNS03 16.57 1 S
2BNS03  9.68 1 P
2BNS02  8.76 1 P
2BNS19 10.66 1 S
2BNS19  6.70 1 P
2BNS21  6.65 1 S
2BNS21  4.19 1 P
2BNS22  7.25 1 S
2BNS22  4.56 1 P
2BNS23  9.02 1 S
2BNS23  5.52 1 P
2BNS24  6.70 1 P
2BNS25 12.41 1 S
2BNS25  7.60 1 P
2BGALA  3.68 1 P
2BGALA  6.22 1 S
2BEW02 17.19 1 P
2BEW01 16.53 1 P
# 2008  01  26   14    29    11.49    -26.609    -67.6754    9.1     0.0     0.0     0.0    0.43   125
X6EW11  2.41 1 P
X6NS14 17.19 1 P
X6NS14 29.43 1 S
X6NS10  8.25 1 P
X6NS10 14.01 1 S
X6NS11 10.49 1 P
X6NS11 16.83 1 S
X6NS13 24.59 1 S
X6BB24 24.49 1 P
X6BB01 31.31 1 S
X6BB01 18.35 1 P
X6BB02 21.25 1 S
X6BB02 12.39 1 P
X6EW16 20.01 1 S
X6EW16 11.97 1 P
X6EW17 24.79 1 S
X6EW17 15.61 1 P
X6EW18 29.41 1 S
X6EW18 16.81 1 P
X6EW15 15.91 1 S
X6EW15  9.51 1 P
X6EW19 31.77 1 S
X6EW19 18.65 1 P
X6EW20 34.45 1 S
X6EW20 20.73 1 P
X6BB04 39.97 1 S
X6BB09 14.27 1 S
X6BB09  8.49 1 P
2BNS26 24.24 1 P
2BNS25 38.38 1 S
2BNS25 21.92 1 P
2BNS24 20.72 1 P
2BNS23 19.04 1 P
2BNS22 17.18 1 P
2BNS19 19.51 1 S
2BNS21 15.63 1 P
2BNS02  9.51 1 P
2BNS02 16.19 1 S
2BGALA 19.60 1 P
2BGALA 34.42 1 S
2BNS03  7.95 1 P
2BNS03 14.21 1 S
X6NS05  9.13 1 S
X6NS05  5.63 1 P
X6EW10  7.67 1 P
X6EW10 12.65 1 S
2BEW06 27.26 1 P
2BEW06 45.29 1 S
2BEW04 21.00 1 P
2BEW04 34.62 1 S
X6NS06  7.75 1 S
X6NS06  4.73 1 P
2BEW02 15.04 1 P
2BEW02 24.76 1 S
2BEW01 12.51 1 P
2BEW01 20.81 1 S
2BEW03 16.71 1 P
2BEW03 27.71 1 S
X6BB11 27.21 1 S
X6BB11 16.33 1 P
X6NS07  5.45 1 S
X6NS07  3.27 1 P
X6BB13 44.97 1 S
X6BB13 27.11 1 P
X6BB12 33.37 1 S
X6BB12 20.33 1 P
X6NS08  6.61 1 S
X6NS08  3.97 1 P
X6NS15 28.73 1 S
X6NS09  6.13 1 P
X6NS09 10.51 1 S
X6NS16 31.61 1 S
