# 2008  02  24   22    55    31.59    -26.5123    -67.3155    11.24     0.0     0.0     0.0    0.19   235
X6NS10 12.07 1 P
X6NS09 16.99 1 S
X6NS09  9.83 1 P
X6NS08  8.29 1 P
X6NS06  3.51 1 P
X6NS06  5.87 1 S
X6NS07  5.57 1 P
X6EW11 12.91 1 S
X6NS05  4.37 1 S
X6NS05  2.51 1 P
X6BB10  7.81 1 P
X6BB10 12.95 1 S
2BNS04  2.71 1 P
2BNS04  4.37 1 S
2BNS03  4.44 1 P
2BNS02 11.59 1 S
2BNS02  6.92 1 P
2BEW02 15.94 1 S
2BEW02  9.66 1 P
2BEW01 12.81 1 S
X6EW10  2.71 1 P
X6EW10  4.37 1 S
# 2008  02  25   08    3    18.43    -26.03    -67.8314    6.970000000000001     0.0     0.0     0.0    0.19   236
X6BB08  2.44 1 P
X6BB08  4.12 1 S
2BNS23 12.72 1 P
2BNS21 16.94 1 S
2BGALA 26.84 1 S
2BNS20 13.99 1 S
2BNS20  8.33 1 P
2BNS19 12.95 1 S
2BNS19  7.74 1 P
2BNS02 14.07 1 S
2BNS02  8.45 1 P
2BNS03 16.15 1 S
2BNS03  9.78 1 P
2BNS04 19.07 1 S
2BNS04 11.56 1 P
# 2008  02  25   22    10    31.0    -26.5018    -67.2938    6.0600000000000005     0.0     0.0     0.0    0.25   237
X6NS06  3.41 1 P
X6NS06  5.90 1 S
X6NS07  5.58 1 P
X6NS07 10.18 1 S
X6NS05  2.21 1 P
X6NS05  3.68 1 S
X6BB10  7.75 1 P
X6BB10 13.65 1 S
2BNS03  4.08 1 P
2BNS03  7.08 1 S
2BNS02  6.73 1 P
2BNS02 10.87 1 S
2BNS04  2.15 1 P
2BNS04  3.62 1 S
2BEW02  9.35 1 P
2BEW02 15.56 1 S
2BEW03 11.47 1 P
2BEW01 12.29 1 S
2BEW01  7.24 1 P
X6EW10  2.17 1 P
X6EW10  3.54 1 S
# 2008  02  25   23    59    31.6    -26.5015    -67.2957    8.540000000000001     0.0     0.0     0.0    0.3   238
X6EW10  2.36 1 P
X6EW10  3.82 1 S
X6NS09 10.06 1 P
X6NS09 17.86 1 S
X6NS08  8.46 1 P
X6NS06  6.14 1 S
X6NS06  3.70 1 P
X6NS07 10.44 1 S
X6NS07  5.82 1 P
X6EW12 15.82 1 S
X6EW12  9.56 1 P
X6EW14 22.26 1 S
X6EW14 13.34 1 P
X6NS05  3.92 1 S
X6NS05  2.50 1 P
X6BB09 24.50 1 S
X6BB09 14.58 1 P
X6BB10 13.92 1 S
X6BB10  7.98 1 P
X6BB08 15.10 1 P
2BNS04  2.40 1 P
2BNS04  3.89 1 S
2BNS03  4.34 1 P
2BNS03  7.37 1 S
2BNS02  6.98 1 P
2BNS02 11.13 1 S
2BNS01  8.76 1 P
2BNS01 14.37 1 S
2BNS19  9.81 1 P
2BNS19 15.41 1 S
2BNS20 11.12 1 P
2BNS20 17.76 1 S
2BNS21 12.45 1 P
2BNS21 21.37 1 S
2BNS22 13.79 1 P
2BNS22 25.25 1 S
2BNS24 17.47 1 P
2BNS23 15.92 1 P
2BGALA 14.36 1 P
2BGALA 24.45 1 S
2BEW06 21.26 1 P
2BEW02 15.57 1 S
2BEW02  9.52 1 P
2BEW03 19.66 1 S
2BEW03 11.74 1 P
2BEW01  7.38 1 P
X6BB11 22.98 1 S
X6BB11 13.80 1 P
# 2008  02  26   03    20    49.94    -26.4196    -67.8764    8.91     0.0     0.0     0.0    0.24   239
X6EW13  5.04 1 P
X6EW13  8.66 1 S
X6EW14  6.76 1 P
X6EW14 11.66 1 S
X6EW15  8.68 1 P
X6BB09 10.44 1 S
X6BB09  5.32 1 P
X6BB08 13.92 1 S
X6BB08  8.44 1 P
2BNS20 21.32 1 S
2BNS20 12.78 1 P
2BNS19 11.30 1 P
2BNS01 10.25 1 P
2BNS02  9.68 1 P
2BNS02 15.99 1 S
X6BB10  6.36 1 S
X6BB10  3.84 1 P
2BNS03  9.17 1 P
2BNS03 15.23 1 S
2BNS04  9.63 1 P
2BNS04 16.47 1 S
X6NS05  8.68 1 P
X6NS05 14.72 1 S
2BEW01 27.29 1 S
2BEW01 16.38 1 P
X6NS06  8.66 1 P
X6NS06 14.52 1 S
X6NS07  7.88 1 P
X6NS07 13.00 1 S
X6EW11 11.18 1 S
X6NS08 14.88 1 S
X6EW12  5.76 1 P
X6EW12  9.72 1 S
# 2008  02  26   05    50    34.78    -26.5007    -67.2961    9.09     0.0     0.0     0.0    0.27   240
X6EW10  2.40 1 P
X6EW10  3.90 1 S
X6NS11 14.68 1 P
X6NS11 24.56 1 S
X6NS10 12.48 1 P
X6NS10 21.20 1 S
X6NS09 10.12 1 P
X6NS09 17.92 1 S
X6NS08  8.46 1 P
X6NS06  6.20 1 S
X6NS06  3.74 1 P
X6NS07 10.46 1 S
X6NS07  5.84 1 P
X6EW11 13.20 1 S
X6EW11  7.98 1 P
X6EW12 15.88 1 S
X6EW12  9.56 1 P
X6EW14 13.40 1 P
X6EW15 27.12 1 S
X6EW15 16.32 1 P
X6EW13 11.00 1 P
X6EW13 18.24 1 S
X6NS05  3.98 1 S
X6NS05  2.52 1 P
X6BB09 14.60 1 P
X6BB09 24.56 1 S
X6BB10  8.02 1 P
X6BB10 13.88 1 S
X6BB08 15.12 1 P
X6BB08 25.26 1 S
2BNS04  2.45 1 P
2BNS04  3.92 1 S
2BNS03  4.36 1 P
2BNS03  7.39 1 S
2BNS02  7.00 1 P
2BNS02 11.16 1 S
2BNS01  8.74 1 P
2BNS01 14.39 1 S
2BNS19  9.62 1 P
2BNS19 15.43 1 S
2BNS20 11.14 1 P
2BNS20 17.78 1 S
2BNS22 14.18 1 P
2BNS24 17.44 1 P
2BNS23 16.00 1 P
2BNS25 18.54 1 P
2BGALA 14.34 1 P
2BGALA 24.47 1 S
2BEW06 21.31 1 P
2BEW06 35.03 1 S
2BEW02  9.57 1 P
2BEW02 15.60 1 S
2BEW03 11.78 1 P
2BEW03 19.68 1 S
2BEW01  7.41 1 P
2BEW01 12.60 1 S
X6BB11 22.92 1 S
# 2008  02  26   06    0    21.86    -26.5007    -67.2922    8.19     0.0     0.0     0.0    0.22   241
X6EW10  2.32 1 P
X6EW10  3.92 1 S
X6NS06  3.72 1 P
X6NS06  6.24 1 S
X6NS05  2.64 1 P
X6NS05  4.00 1 S
2BNS04  2.38 1 P
2BNS04  3.88 1 S
2BNS03  4.34 1 P
2BNS02 11.43 1 S
2BNS02  7.02 1 P
2BNS20 11.11 1 P
2BNS20 17.87 1 S
2BEW02 15.69 1 S
2BEW02  9.70 1 P
2BEW01 11.37 1 S
# 2008  02  26   08    44    32.67    -26.498    -67.2914    6.82     0.0     0.0     0.0    0.22   242
X6NS06  3.55 1 P
X6NS06  6.07 1 S
X6NS07  5.71 1 P
X6NS07 10.39 1 S
X6NS05  2.35 1 P
X6NS05  3.85 1 S
X6BB10  7.95 1 P
2BNS03  7.14 1 S
2BNS03  4.20 1 P
2BNS02 10.94 1 S
2BNS02  6.85 1 P
2BNS01 14.12 1 S
2BNS19  9.38 1 P
2BNS04  2.24 1 P
2BNS04  3.72 1 S
2BNS20 17.69 1 S
2BNS20 10.96 1 P
2BEW02 15.47 1 S
2BEW02  9.40 1 P
2BEW01  7.33 1 P
X6EW10  2.23 1 P
X6EW10  3.69 1 S
# 2008  02  26   08    46    17.99    -26.4997    -67.2957    7.03     0.0     0.0     0.0    0.21   243
X6EW10  2.19 1 P
X6EW10  3.65 1 S
X6NS08  8.45 1 P
X6NS06  6.03 1 S
X6NS06  3.55 1 P
X6NS07 10.31 1 S
X6NS07  5.67 1 P
X6NS05  3.83 1 S
X6NS05  2.31 1 P
X6BB10  7.91 1 P
2BNS04  2.24 1 P
2BNS04  3.74 1 S
2BNS03  4.20 1 P
2BNS03  7.14 1 S
2BNS02  6.81 1 P
2BNS02 10.93 1 S
2BNS01  8.52 1 P
2BNS01 14.11 1 S
2BNS19  9.39 1 P
2BNS20 10.94 1 P
2BNS20 17.70 1 S
2BGALA 14.41 1 P
2BEW02  9.38 1 P
2BEW02 15.35 1 S
2BEW03 11.64 1 P
2BEW01 12.42 1 S
2BEW01  7.28 1 P
# 2008  02  26   08    47    36.27    -26.5001    -67.2931    8.290000000000001     0.0     0.0     0.0    0.28   244
X6EW10  2.33 1 P
X6EW10  3.77 1 S
X6NS11 14.65 1 P
X6NS11 24.77 1 S
X6NS09 10.07 1 P
X6NS09 17.87 1 S
X6NS08  8.43 1 P
X6NS06  6.17 1 S
X6NS06  3.67 1 P
X6NS07 10.45 1 S
X6NS07  5.81 1 P
X6EW11 13.35 1 S
X6EW11  8.09 1 P
X6EW12 15.85 1 S
X6EW12  9.47 1 P
X6EW14 22.85 1 S
X6EW14 13.31 1 P
X6EW15 27.11 1 S
X6EW13 10.91 1 P
X6NS05  3.93 1 S
X6NS05  2.47 1 P
X6BB09 24.55 1 S
X6BB09 14.67 1 P
X6BB10 13.99 1 S
X6BB10  8.03 1 P
X6BB08 15.37 1 P
2BNS04  2.37 1 P
2BNS04  3.84 1 S
2BNS03  4.31 1 P
2BNS03  7.27 1 S
2BNS02  6.95 1 P
2BNS02 11.06 1 S
2BNS01  8.59 1 P
2BNS01 14.26 1 S
2BNS19  9.51 1 P
2BNS20 11.08 1 P
2BNS20 17.82 1 S
2BNS21 21.38 1 S
2BNS22 14.09 1 P
2BNS24 17.56 1 P
2BNS23 15.90 1 P
2BNS25 18.95 1 P
2BGALA 14.25 1 P
2BGALA 24.43 1 S
2BEW06 21.22 1 P
2BEW06 34.98 1 S
2BEW02  9.49 1 P
2BEW02 15.54 1 S
2BEW03 11.69 1 P
2BEW03 19.59 1 S
2BEW01  7.34 1 P
2BEW01 12.54 1 S
# 2008  02  26   08    48    10.69    -26.5027    -67.2927    5.890000000000001     0.0     0.0     0.0    0.49   245
X6EW10  2.08 1 P
X6EW10  3.53 1 S
X6NS06  3.45 1 P
X6NS06  5.98 1 S
X6NS07  5.56 1 P
X6NS07 10.28 1 S
X6NS05  2.24 1 P
X6NS05  3.74 1 S
2BNS04  2.14 1 P
2BNS04  3.60 1 S
2BNS03  4.09 1 P
2BNS03  7.04 1 S
2BNS02  6.76 1 P
2BNS02 10.84 1 S
2BNS01  9.98 1 P
2BNS19  9.34 1 P
2BNS20 10.83 1 P
2BNS20 17.54 1 S
2BEW02  9.28 1 P
2BEW02 15.32 1 S
2BEW01  7.23 1 P
# 2008  02  26   08    51    5.27    -26.5004    -67.2944    8.62     0.0     0.0     0.0    0.28   246
X6NS11 14.63 1 P
X6NS11 24.73 1 S
X6NS09 10.15 1 P
X6NS09 17.87 1 S
X6NS08  8.47 1 P
X6NS06  6.19 1 S
X6NS06  3.71 1 P
X6NS07 10.47 1 S
X6NS07  5.83 1 P
X6EW11 13.23 1 S
X6EW11  7.99 1 P
X6EW12 15.87 1 S
X6EW14 22.81 1 S
X6EW14 13.35 1 P
X6EW15 27.07 1 S
X6EW15 16.07 1 P
X6EW13 19.23 1 S
X6EW13 11.03 1 P
X6BB09 14.63 1 P
X6BB09 24.51 1 S
X6NS05  3.97 1 S
X6NS05  2.47 1 P
X6BB10  8.01 1 P
X6BB10 13.25 1 S
X6BB08 15.33 1 P
X6BB08 25.25 1 S
2BNS04  2.41 1 P
2BNS04  3.90 1 S
2BNS03  4.35 1 P
2BNS03  7.34 1 S
2BNS02  6.99 1 P
2BNS02 11.11 1 S
2BNS01  8.69 1 P
2BNS01 14.35 1 S
2BNS19  9.55 1 P
2BNS19 15.41 1 S
2BNS20 11.10 1 P
2BNS20 17.75 1 S
2BNS24 17.44 1 P
2BNS23 16.02 1 P
2BGALA 14.28 1 P
2BEW06 34.94 1 S
2BEW06 21.21 1 P
2BEW02 15.55 1 S
2BEW02  9.51 1 P
2BEW03 11.71 1 P
2BEW01  7.48 1 P
2BEW01 12.54 1 S
X6BB11 22.83 1 S
X6EW10  3.81 1 S
X6EW10  2.39 1 P
# 2008  02  26   08    56    14.84    -26.4993    -67.2975    7.4399999999999995     0.0     0.0     0.0    0.19   247
X6EW10  2.22 1 P
X6EW10  3.68 1 S
X6NS06  3.58 1 P
X6NS06  6.02 1 S
X6NS07  5.78 1 P
X6NS07 10.30 1 S
X6NS05  2.34 1 P
X6NS05  3.94 1 S
2BNS04  2.24 1 P
2BNS04  3.70 1 S
2BNS03  4.20 1 P
2BNS03  7.13 1 S
2BNS02  6.83 1 P
2BNS02 10.97 1 S
2BNS20 10.95 1 P
2BEW02 15.54 1 S
2BEW02  9.44 1 P
2BEW01 12.38 1 S
2BEW01  7.31 1 P
# 2008  02  26   09    1    56.42    -26.4992    -67.295    9.18     0.0     0.0     0.0    0.27   248
X6NS14 19.62 1 P
X6NS11 24.72 1 S
X6NS11 14.66 1 P
X6NS10 21.20 1 S
X6NS10 12.50 1 P
X6NS09 17.92 1 S
X6NS09 10.16 1 P
X6NS06  6.24 1 S
X6NS06  3.76 1 P
X6NS08  8.48 1 P
X6NS07  5.86 1 P
X6NS07 10.50 1 S
X6EW11  7.96 1 P
X6EW11 13.28 1 S
X6EW12  9.52 1 P
X6EW12 15.88 1 S
X6EW14 13.36 1 P
X6EW14 22.88 1 S
X6EW15 16.08 1 P
X6EW15 27.12 1 S
X6EW13 10.96 1 P
X6EW13 19.28 1 S
X6BB09 14.60 1 P
X6BB09 24.60 1 S
X6NS05  2.52 1 P
X6NS05  3.98 1 S
X6BB10  8.04 1 P
X6BB10 13.88 1 S
X6BB08 15.16 1 P
X6BB08 25.28 1 S
2BNS03  4.40 1 P
2BNS03  7.35 1 S
2BNS02  7.00 1 P
2BNS02 11.16 1 S
2BNS01  8.64 1 P
2BNS01 14.40 1 S
2BNS19  9.53 1 P
2BNS04  3.90 1 S
2BNS04  2.44 1 P
2BNS20 11.14 1 P
2BNS20 17.83 1 S
2BNS21 12.37 1 P
2BNS22 14.18 1 P
2BNS24 17.38 1 P
2BNS26 20.85 1 P
2BNS23 15.91 1 P
2BNS25 18.55 1 P
2BGALA 14.32 1 P
2BGALA 24.48 1 S
2BEW05 18.41 1 P
2BEW06 35.06 1 S
2BEW06 21.29 1 P
2BEW02  9.55 1 P
2BEW02 15.55 1 S
2BEW03 11.76 1 P
2BEW03 19.78 1 S
2BEW01  7.41 1 P
2BEW01 12.59 1 S
X6EW10  2.44 1 P
X6EW10  3.86 1 S
X6BB11 13.78 1 P
X6BB11 22.96 1 S
# 2008  02  26   09    8    13.11    -26.4996    -67.2969    8.3     0.0     0.0     0.0    0.25   249
X6EW10  2.31 1 P
X6EW10  3.75 1 S
X6NS11 14.63 1 P
X6NS11 24.67 1 S
X6NS09 10.03 1 P
X6NS09 17.87 1 S
X6NS08  8.39 1 P
X6NS06  6.15 1 S
X6NS06  3.65 1 P
X6NS07 10.39 1 S
X6NS07  5.79 1 P
X6EW11 13.23 1 S
X6EW11  7.91 1 P
X6EW12 15.81 1 S
X6EW12  9.47 1 P
X6EW14 22.81 1 S
X6EW14 13.31 1 P
X6EW15 27.09 1 S
X6EW15 16.45 1 P
X6EW13 10.87 1 P
X6NS05  3.91 1 S
X6NS05  2.43 1 P
X6BB09 14.59 1 P
X6BB09 24.59 1 S
X6BB10  7.99 1 P
X6BB10 13.93 1 S
2BNS04  2.34 1 P
2BNS04  3.81 1 S
2BNS03  4.29 1 P
2BNS03  7.25 1 S
2BNS02  6.92 1 P
2BNS02 11.06 1 S
2BNS01  8.53 1 P
2BNS01 14.30 1 S
2BNS19  9.34 1 P
2BNS19 15.82 1 S
2BNS20 11.05 1 P
2BNS20 17.74 1 S
2BNS22 14.08 1 P
2BNS23 15.93 1 P
2BNS25 18.96 1 P
2BGALA 14.31 1 P
2BGALA 24.38 1 S
2BEW06 21.20 1 P
2BEW02  9.45 1 P
2BEW02 15.50 1 S
2BEW03 11.65 1 P
2BEW01 12.50 1 S
2BEW01  7.31 1 P
# 2008  02  26   09    9    39.33    -26.4973    -67.2959    6.75     0.0     0.0     0.0    0.24   250
X6EW10  2.17 1 P
X6EW10  3.61 1 S
X6NS06  3.51 1 P
X6NS06  6.01 1 S
X6NS07  5.67 1 P
X6NS07 10.33 1 S
X6NS05  2.29 1 P
X6NS05  3.81 1 S
X6BB10  7.91 1 P
2BNS04  3.69 1 S
2BNS04  2.21 1 P
2BNS03  7.11 1 S
2BNS03  4.15 1 P
2BNS02 10.95 1 S
2BNS02  6.79 1 P
2BNS20 17.56 1 S
2BNS20 10.92 1 P
2BGALA 14.36 1 P
2BEW02  9.37 1 P
2BEW02 15.59 1 S
2BEW01  7.30 1 P
2BEW01 12.36 1 S
# 2008  02  26   09    18    55.7    -26.4986    -67.2948    7.49     0.0     0.0     0.0    0.27   251
X6EW10  2.26 1 P
X6EW10  3.70 1 S
X6NS09 10.58 1 P
X6NS09 18.38 1 S
X6NS08  8.60 1 P
X6NS06  6.12 1 S
X6NS06  3.60 1 P
X6NS07 10.40 1 S
X6NS07  5.76 1 P
X6EW11 13.30 1 S
X6EW12 15.68 1 S
X6EW12  9.54 1 P
X6EW14 22.74 1 S
X6EW14 13.24 1 P
X6EW15 27.04 1 S
X6NS05  3.86 1 S
X6NS05  2.36 1 P
X6BB09 24.52 1 S
X6BB09 14.68 1 P
X6BB10 13.68 1 S
X6BB10  7.96 1 P
2BNS04  3.76 1 S
2BNS04  2.29 1 P
2BNS03  7.20 1 S
2BNS03  4.25 1 P
2BNS02 11.06 1 S
2BNS02  6.88 1 P
2BNS01 14.14 1 S
2BNS01  8.53 1 P
2BNS19  9.46 1 P
2BNS20 17.64 1 S
2BNS20 10.98 1 P
2BNS23 15.79 1 P
2BGALA 14.44 1 P
2BEW02  9.43 1 P
2BEW02 15.43 1 S
2BEW01  7.30 1 P
# 2008  02  26   09    23    50.22    -26.497    -67.2989    7.75     0.0     0.0     0.0    0.23   252
X6EW10  2.24 1 P
X6EW10  3.68 1 S
X6NS06  3.56 1 P
X6NS06  6.08 1 S
X6NS07  5.76 1 P
X6NS07 10.36 1 S
X6NS05  2.36 1 P
X6NS05  3.92 1 S
2BNS04  2.29 1 P
2BNS04  3.75 1 S
2BNS03  4.20 1 P
2BNS03  7.16 1 S
2BNS02  6.84 1 P
2BNS02 10.99 1 S
2BNS19  9.46 1 P
2BNS20 10.95 1 P
2BNS20 17.68 1 S
2BEW01 12.40 1 S
2BEW01  7.37 1 P
# 2008  02  26   10    6    33.9    -27.3886    -66.7216    11.45     0.0     0.0     0.0    0.25   253
X6NS18 31.16 1 S
X6NS17 28.60 1 S
X6BB24 25.04 1 P
X6BB24 42.32 1 S
X6BB12  8.36 1 P
X6BB12 13.86 1 S
X6NS16 16.16 1 P
X6NS16 27.52 1 S
X6NS15 15.82 1 P
X6NS15 26.50 1 S
X6NS14 17.44 1 P
X6NS14 29.58 1 S
X6BB01 25.04 1 P
X6BB01 42.44 1 S
X6NS13 18.80 1 P
X6NS13 31.38 1 S
X6BB02 24.08 1 P
X6BB02 41.60 1 S
X6EW20 36.52 1 P
X6EW20 60.96 1 S
X6EW19 35.30 1 P
X6EW19 59.62 1 S
X6EW18 33.32 1 P
X6EW17 31.36 1 P
X6NS11 18.72 1 P
X6NS11 30.60 1 S
X6EW16 29.24 1 P
X6NS10 17.82 1 P
X6NS10 29.78 1 S
X6EW15 27.84 1 P
X6NS09 18.66 1 P
X6NS09 31.38 1 S
X6EW14 25.70 1 P
X6EW14 43.18 1 S
X6BB09 29.34 1 P
X6BB09 49.12 1 S
X6EW13 24.78 1 P
X6EW13 41.32 1 S
X6NS08 20.08 1 P
X6NS08 34.82 1 S
X6EW12 22.84 1 P
X6EW12 38.04 1 S
X6EW11 21.92 1 P
X6EW11 36.60 1 S
X6NS07 20.14 1 P
X6NS07 33.54 1 S
X6BB10 25.72 1 P
X6BB10 43.00 1 S
X6NS06 19.36 1 P
X6NS06 32.18 1 S
X6BB08 33.80 1 P
X6BB08 56.36 1 S
X6NS05 20.62 1 P
X6NS05 34.60 1 S
X6BB11  7.56 1 P
X6BB11 12.62 1 S
X6EW10 18.06 1 P
X6EW10 30.50 1 S
2BNS04 21.34 1 P
2BNS03 23.37 1 P
2BNS02 25.98 1 P
2BNS02 43.59 1 S
2BNS01 27.65 1 P
2BNS01 46.62 1 S
2BNS19 28.45 1 P
2BNS20 29.90 1 P
2BNS20 50.03 1 S
2BEW01 23.02 1 S
2BEW01 13.77 1 P
2BNS21 30.85 1 P
2BNS22 32.16 1 P
2BNS23 33.81 1 P
2BNS24 35.45 1 P
2BNS25 36.26 1 P
2BNS26 65.91 1 S
2BEW02 21.02 1 S
2BEW02 12.58 1 P
2BGALA 29.86 1 P
2BGALA 50.55 1 S
2BEW03 17.89 1 S
2BEW03 10.71 1 P
2BEW05 23.12 1 S
2BEW05 14.00 1 P
2BEW06 24.67 1 S
2BEW06 14.88 1 P
2BEW07 25.83 1 S
2BEW07 15.69 1 P
2BEW08 30.58 1 S
2BEW08 18.38 1 P
2BEW22 32.99 1 S
2BEW22 19.77 1 P
X6BB15  6.60 1 P
X6BB15 10.88 1 S
X6BB13  5.64 1 P
X6BB13  9.44 1 S
# 2008  02  26   10    42    53.56    -25.9627    -67.7686    4.5     0.0     0.0     0.0    0.24   254
X6EW12 14.32 1 P
X6EW12 24.72 1 S
X6BB08  3.26 1 P
X6BB08  5.94 1 S
2BNS25 12.96 1 P
2BNS25 21.94 1 S
2BNS24 11.87 1 P
2BNS24 20.38 1 S
2BNS23 11.14 1 P
2BNS23 18.42 1 S
2BNS22  9.78 1 P
2BNS22 16.26 1 S
2BNS21 14.57 1 S
2BGALA 14.84 1 P
2BGALA 24.58 1 S
2BNS20 11.92 1 S
2BNS20  7.00 1 P
2BNS19 11.45 1 S
2BNS19  6.63 1 P
2BNS02 13.61 1 S
2BNS02  8.08 1 P
2BNS03 15.94 1 S
2BNS03  9.79 1 P
2BNS04 18.89 1 S
2BNS04 11.65 1 P
X6BB10  8.14 1 P
X6BB10 14.66 1 S
# 2008  02  26   11    24    57.26    -26.5033    -67.3    7.710000000000001     0.0     0.0     0.0    0.17   255
X6NS06  3.60 1 P
X6NS06  6.08 1 S
X6NS05  2.36 1 P
X6NS05  3.92 1 S
2BNS03  4.22 1 P
2BNS03  7.16 1 S
2BNS02  6.86 1 P
2BNS02 11.03 1 S
2BNS04  2.29 1 P
2BNS04  3.76 1 S
2BEW02  9.46 1 P
2BEW02 15.60 1 S
2BEW01  7.34 1 P
X6EW10  2.24 1 P
X6EW10  3.74 1 S
# 2008  02  26   11    53    58.92    -26.497    -67.2967    6.83     0.0     0.0     0.0    0.26   256
X6NS06  3.54 1 P
X6NS06  6.02 1 S
X6NS07  5.65 1 P
X6NS07 10.29 1 S
X6NS05  2.30 1 P
X6NS05  3.81 1 S
X6BB10  7.85 1 P
2BNS02 10.93 1 S
2BNS02  6.80 1 P
2BNS03  7.09 1 S
2BNS03  4.16 1 P
2BNS20 17.60 1 S
2BNS04  2.21 1 P
2BNS04  3.68 1 S
2BEW01  7.31 1 P
2BEW01 12.36 1 S
X6EW10  2.17 1 P
X6EW10  3.62 1 S
# 2008  02  26   13    10    55.45    -26.5004    -67.3    7.130000000000001     0.0     0.0     0.0    0.19   257
X6NS06  3.49 1 P
X6NS06  5.98 1 S
X6NS07  5.66 1 P
X6NS07 10.33 1 S
X6NS05  2.29 1 P
X6NS05  3.80 1 S
2BNS03  4.18 1 P
2BNS03  7.09 1 S
2BNS02  6.79 1 P
2BNS02 10.89 1 S
2BNS04  2.20 1 P
2BNS04  3.68 1 S
2BEW02  9.42 1 P
2BEW01 12.32 1 S
2BEW01  7.25 1 P
X6EW10  2.21 1 P
X6EW10  3.64 1 S
# 2008  02  26   14    3    39.06    -25.9606    -67.7628    8.39     0.0     0.0     0.0    0.37   258
X6BB10  8.08 1 P
X6BB10 14.64 1 S
X6EW12 14.00 1 P
X6EW12 24.56 1 S
X6EW13 13.72 1 P
X6BB02 39.20 1 S
X6BB02 22.84 1 P
X6EW14 15.46 1 P
X6EW14 27.32 1 S
X6EW15 16.72 1 P
X6EW15 28.88 1 S
X6EW16 19.80 1 P
X6BB09 12.60 1 P
X6BB09 23.32 1 S
X6EW18 23.48 1 P
X6BB08  5.98 1 S
2BNS26 14.08 1 P
2BNS25 21.90 1 S
2BNS25 13.06 1 P
2BNS24 19.91 1 S
2BNS24 11.94 1 P
2BNS23 18.48 1 S
2BNS23 11.18 1 P
2BNS22 16.40 1 S
2BNS22  9.88 1 P
2BNS21 14.59 1 S
2BNS21  8.80 1 P
2BGALA 14.72 1 P
2BGALA 24.60 1 S
2BNS20 11.99 1 S
2BNS20  7.06 1 P
2BNS19 11.51 1 S
2BNS19  6.66 1 P
2BNS02 13.67 1 S
2BNS02  8.14 1 P
2BNS03 15.97 1 S
2BNS03  9.80 1 P
2BEW01 33.27 1 S
2BNS04 18.96 1 S
2BNS04 11.58 1 P
X6EW10 24.92 1 S
X6EW10 14.80 1 P
X6NS05 12.28 1 P
X6NS05 20.28 1 S
X6NS06 13.88 1 P
X6NS06 23.10 1 S
X6NS07 14.04 1 P
X6NS08 15.80 1 P
X6NS08 28.86 1 S
X6NS09 18.52 1 P
X6NS09 31.28 1 S
X6EW11 14.16 1 P
X6EW11 25.90 1 S
# 2008  02  26   21    23    43.59    -26.5015    -67.2983    7.550000000000001     0.0     0.0     0.0    0.28   259
X6EW10  2.21 1 P
X6EW10  3.65 1 S
X6NS09  9.91 1 P
X6NS09 17.71 1 S
X6NS08  8.45 1 P
X6NS08 15.29 1 S
X6NS06  3.55 1 P
X6NS06  6.03 1 S
X6NS07  5.67 1 P
X6NS07 10.29 1 S
X6EW11  7.75 1 P
X6EW11 13.13 1 S
X6EW12  9.41 1 P
X6EW12 15.67 1 S
X6NS05  2.35 1 P
X6NS05  3.79 1 S
X6BB09 14.53 1 P
X6BB09 24.31 1 S
X6BB10  7.87 1 P
X6BB10 13.95 1 S
X6BB08 15.01 1 P
X6BB08 25.19 1 S
2BNS04  2.25 1 P
2BNS04  3.74 1 S
2BNS03  4.20 1 P
2BNS03  7.19 1 S
2BNS02  6.83 1 P
2BNS02 10.98 1 S
2BNS19  9.57 1 P
2BNS19 15.74 1 S
2BNS20 10.95 1 P
2BNS20 17.58 1 S
2BNS25 18.82 1 P
2BGALA 14.16 1 P
2BGALA 24.22 1 S
2BEW02  9.48 1 P
2BEW03 11.56 1 P
2BEW01 12.38 1 S
2BEW01  7.34 1 P
X6BB11 13.81 1 P
# 2008  02  26   21    50    23.42    -26.6925    -67.62    7.3100000000000005     0.0     0.0     0.0    0.26   260
X6NS09  4.48 1 P
X6NS09  7.92 1 S
X6NS08  2.36 1 P
X6NS08  4.80 1 S
X6EW12  3.44 1 P
X6EW12  5.74 1 S
X6EW13  5.36 1 P
X6EW13  9.12 1 S
X6EW11  2.16 1 P
X6BB10  6.70 1 P
2BNS02 10.31 1 P
2BNS03  8.09 1 P
2BNS04  7.43 1 P
2BNS04 12.35 1 S
X6NS05  5.50 1 P
X6NS05  9.12 1 S
X6NS06  3.84 1 P
X6NS06  6.24 1 S
X6NS07  2.08 1 P
X6NS07  3.48 1 S
X6EW10 11.30 1 S
2BEW01 11.14 1 P
# 2008  02  27   00    52    5.49    -26.2867    -67.1551    16.22     0.0     0.0     0.0    0.21   261
X6NS05  6.69 1 P
X6NS05 11.29 1 S
2BNS04  4.87 1 P
2BNS04  8.09 1 S
2BNS03  4.97 1 P
2BNS03  8.12 1 S
2BNS02  6.11 1 P
2BNS02  9.92 1 S
2BNS01 11.58 1 S
2BNS19  7.53 1 P
2BNS19 11.99 1 S
2BNS20  8.32 1 P
2BNS20 13.12 1 S
2BNS22 10.54 1 P
2BNS24 13.58 1 P
2BNS23 21.33 1 S
2BGALA  9.95 1 P
2BGALA 16.33 1 S
2BEW02 10.68 1 P
2BEW02 18.05 1 S
2BEW01  9.71 1 P
# 2008  02  27   02    48    53.88    -26.498    -67.2881    7.51     0.0     0.0     0.0    0.23   262
X6EW10  2.34 1 P
X6EW10  3.76 1 S
X6NS06  3.66 1 P
X6NS06  6.26 1 S
X6NS05  2.48 1 P
X6NS05  3.98 1 S
X6BB10  8.02 1 P
2BNS04  3.82 1 S
2BNS04  2.35 1 P
2BNS03  7.25 1 S
2BNS03  4.28 1 P
2BNS02 11.06 1 S
2BNS02  6.92 1 P
2BNS20 17.65 1 S
2BNS20 11.04 1 P
2BEW02 15.46 1 S
2BEW02  9.52 1 P
# 2008  02  27   07    18    10.46    -26.7117    -66.406    3.27     0.0     0.0     0.0    0.68   263
2BEW03  6.60 1 P
2BEW03 11.18 1 S
2BEW02  7.46 1 P
2BEW02 12.44 1 S
2BEW01 17.62 1 S
2BNS04 16.95 1 P
2BNS04 28.98 1 S
2BNS03 18.65 1 P
2BNS03 31.24 1 S
2BNS02 20.67 1 P
2BNS02 34.32 1 S
2BEW06  5.35 1 P
2BEW06  9.30 1 S
2BEW05  2.45 1 P
2BEW05  4.16 1 S
X6BB15 14.16 1 P
X6BB15 19.36 1 S
# 2008  02  27   07    54    46.83    -26.498    -67.2963    8.540000000000001     0.0     0.0     0.0    0.26   264
X6EW10  2.39 1 P
X6EW10  3.79 1 S
X6NS09 10.07 1 P
X6NS09 17.95 1 S
X6NS08  8.51 1 P
X6NS06  6.23 1 S
X6NS06  3.67 1 P
X6NS07 10.51 1 S
X6NS07  5.83 1 P
X6EW11 13.59 1 S
X6EW11  8.71 1 P
X6EW12  9.47 1 P
X6EW14 22.21 1 S
X6EW14 13.37 1 P
X6EW15 27.09 1 S
X6EW15 16.19 1 P
X6EW13 11.03 1 P
X6NS05  3.95 1 S
X6NS05  2.49 1 P
X6BB09 24.51 1 S
X6BB09 14.91 1 P
X6BB10 13.31 1 S
X6BB10  8.01 1 P
2BNS04  3.86 1 S
2BNS04  2.37 1 P
2BNS03  7.33 1 S
2BNS03  4.31 1 P
2BNS02 11.10 1 S
2BNS02  6.95 1 P
2BNS01 14.27 1 S
2BNS01  8.57 1 P
2BNS19  9.48 1 P
2BNS20 17.70 1 S
2BNS20 11.07 1 P
2BNS21 20.86 1 S
2BNS22 14.09 1 P
2BNS23 15.94 1 P
2BNS25 19.04 1 P
2BGALA 14.29 1 P
2BEW02  9.48 1 P
2BEW03 11.71 1 P
2BEW01  7.35 1 P
