# 2008  02  06   12    12    11.71    -26.5688    -67.1268    9.31     0.0     0.0     0.0    0.31   157
X6EW09  3.21 1 P
X6EW09  5.15 1 S
X6NS09 11.61 1 P
X6NS09 18.99 1 S
X6NS08 10.35 1 P
X6NS08 17.67 1 S
X6EW10  3.05 1 P
X6EW10  4.91 1 S
X6NS07  7.95 1 P
X6NS07 13.55 1 S
X6NS06  5.87 1 P
X6NS06  9.83 1 S
X6EW11 10.19 1 P
X6EW11 18.85 1 S
X6EW12 11.79 1 P
X6EW12 19.55 1 S
X6EW14 15.75 1 P
X6EW14 26.47 1 S
X6EW13 13.39 1 P
X6EW13 22.69 1 S
X6BB09 18.41 1 P
X6NS05  5.31 1 P
X6NS05  8.85 1 S
2BNS04  8.26 1 S
2BNS04  5.05 1 P
2BNS03 11.40 1 S
2BNS03  6.96 1 P
2BNS02  9.36 1 P
2BNS19 18.94 1 S
2BNS19 11.77 1 P
2BNS20 21.15 1 S
2BNS20 13.04 1 P
2BNS21 14.14 1 P
2BNS22 15.64 1 P
2BNS24 18.80 1 P
2BNS23 17.33 1 P
2BNS23 30.46 1 S
2BNS25 19.98 1 P
2BGALA 15.00 1 P
2BEW06 30.10 1 S
2BEW06 18.28 1 P
2BEW04 20.33 1 S
2BEW04 12.21 1 P
2BEW02 10.81 1 S
2BEW02  6.57 1 P
2BEW03 14.87 1 S
2BEW01  4.69 1 P
2BEW01  7.74 1 S
# 2008  02  06   14    53    10.3    -26.8665    -67.3652    14.1     0.0     0.0     0.0    0.24   158
X6NS10  7.20 1 P
X6NS10 11.66 1 S
X6NS09  5.76 1 P
X6NS09  9.66 1 S
X6NS08  6.12 1 P
X6NS08 10.14 1 S
X6EW12  8.76 1 P
X6EW12 14.28 1 S
X6EW11 12.42 1 S
X6NS07  5.84 1 P
X6NS07  9.50 1 S
X6NS06  5.52 1 P
X6NS06  9.16 1 S
X6NS05  7.32 1 P
X6NS05 12.34 1 S
2BNS02 22.98 1 S
2BNS02 13.33 1 P
2BNS19 16.02 1 P
2BNS03 10.92 1 P
2BNS03 18.24 1 S
2BNS04  8.84 1 P
2BNS04 15.15 1 S
X6EW10 10.28 1 S
X6EW10  6.24 1 P
X6EW09  9.64 1 S
X6EW09  5.84 1 P
2BEW01  7.51 1 P
2BEW01 12.38 1 S
2BEW02  9.79 1 P
2BEW02 16.10 1 S
2BEW04 15.32 1 P
2BEW04 25.52 1 S
2BEW03 10.81 1 P
2BEW03 17.90 1 S
X6BB11 15.64 1 S
X6BB11  9.44 1 P
# 2008  02  06   15    16    59.13    -26.8645    -67.3687    15.0     0.0     0.0     0.0    0.21   159
X6NS10  7.13 1 P
X6NS10 11.61 1 S
X6NS08  6.05 1 P
X6EW12 14.31 1 S
X6EW11 12.75 1 S
X6NS07  9.41 1 S
X6NS07  5.81 1 P
X6NS06  9.29 1 S
X6NS06  5.49 1 P
2BNS02 22.92 1 S
2BNS02 13.29 1 P
X6NS05 12.37 1 S
X6NS05  7.25 1 P
2BNS03 18.18 1 S
2BNS04 15.20 1 S
2BNS04  8.80 1 P
X6EW10 10.29 1 S
X6EW10  6.13 1 P
X6EW09  9.63 1 S
X6EW09  6.11 1 P
2BEW01  7.44 1 P
2BEW01 12.32 1 S
2BEW02  9.76 1 P
2BEW02 16.04 1 S
2BEW03 10.77 1 P
2BEW03 17.79 1 S
# 2008  02  06   15    43    50.94    -26.4088    -67.497    12.0     0.0     0.0     0.0    0.49   160
X6NS07  5.50 1 P
X6NS07 10.00 1 S
X6NS11 25.30 1 S
X6NS10 21.78 1 S
X6NS10 12.32 1 P
X6NS09 17.92 1 S
X6NS09 10.08 1 P
X6NS08 14.30 1 S
X6NS08  7.72 1 P
X6EW11 12.12 1 S
X6EW11  6.38 1 P
X6EW12 12.74 1 S
X6EW12  7.66 1 P
X6EW13 14.64 1 S
X6EW13  8.80 1 P
X6EW14 18.58 1 S
X6EW14 11.84 1 P
X6EW15 23.10 1 S
X6BB09 11.68 1 P
X6BB09 20.28 1 S
X6BB10  4.38 1 P
X6BB08 18.92 1 S
X6BB08 11.80 1 P
2BNS01 11.39 1 S
2BNS01  6.68 1 P
2BNS19 13.03 1 S
2BNS19  7.62 1 P
2BNS20 15.39 1 S
2BNS20  9.47 1 P
2BNS26 19.06 1 P
2BNS25 17.69 1 P
2BNS25 31.27 1 S
2BNS22 13.13 1 P
2BNS23 14.94 1 P
2BNS21 11.35 1 P
2BNS02  8.53 1 S
2BNS02  5.26 1 P
2BGALA 15.35 1 P
2BGALA 25.06 1 S
2BNS03  5.47 1 S
2BNS03  3.53 1 P
2BNS04  5.96 1 S
2BNS04  3.67 1 P
2BEW04 17.78 1 P
2BEW02 13.63 1 P
2BEW02 22.31 1 S
2BEW03 15.82 1 P
2BEW03 26.44 1 S
2BEW01 11.39 1 P
2BEW01 19.04 1 S
X6EW10  6.00 1 P
X6EW10  9.92 1 S
X6EW09  8.24 1 P
X6EW09 13.68 1 S
X6NS05  5.00 1 S
X6NS05  3.36 1 P
X6NS06  7.36 1 S
X6NS06  4.70 1 P
# 2008  02  06   21    3    15.06    -26.8693    -67.3638    12.9     0.0     0.0     0.0    0.24   161
X6NS16 14.66 1 P
X6NS16 24.90 1 S
X6NS15 12.88 1 P
X6NS15 21.98 1 S
X6NS14 13.04 1 P
X6NS14 22.30 1 S
X6BB24 22.28 1 P
X6BB24 37.82 1 S
X6NS13 12.24 1 P
X6NS13 20.58 1 S
X6NS11  7.94 1 P
X6NS11 13.22 1 S
X6BB01 30.22 1 S
X6NS10  6.98 1 P
X6NS10 11.64 1 S
X6BB02 13.72 1 P
X6BB02 23.32 1 S
X6NS09  5.74 1 P
X6NS09  9.60 1 S
X6EW16 16.76 1 P
X6EW15 14.92 1 P
X6NS08  6.08 1 P
X6EW13 17.68 1 S
X6EW13 10.64 1 P
X6EW12 14.22 1 S
X6EW12  8.68 1 P
X6BB09 25.34 1 S
X6BB09 15.06 1 P
X6EW11 12.36 1 S
X6EW11  7.56 1 P
X6NS07  9.44 1 S
X6NS07  5.80 1 P
X6BB08 32.32 1 S
X6BB08 19.40 1 P
X6NS06  9.12 1 S
X6NS06  5.52 1 P
X6NS05 12.32 1 S
X6NS05  7.28 1 P
2BNS01 15.17 1 P
2BNS01 25.68 1 S
2BNS02 13.31 1 P
2BNS02 22.96 1 S
2BNS03 18.22 1 S
2BNS04  8.84 1 P
2BNS04 15.24 1 S
2BNS22 21.27 1 P
X6EW10 10.30 1 S
X6EW10  6.12 1 P
2BGALA 21.21 1 P
X6EW09  5.70 1 P
X6EW09  9.56 1 S
2BEW01 12.40 1 S
2BEW01  7.48 1 P
2BEW02 16.04 1 S
2BEW02  9.77 1 P
2BEW04 25.40 1 S
2BEW04 15.32 1 P
2BEW06 21.45 1 P
2BEW03 10.78 1 P
2BEW03 17.79 1 S
X6BB15 32.56 1 S
X6BB11 15.60 1 S
X6BB11  9.32 1 P
X6BB13 33.20 1 S
X6BB12 13.78 1 P
X6BB12 23.40 1 S
# 2008  02  07   03    45    11.91    -26.6563    -67.6067    10.17     0.0     0.0     0.0    0.27   162
X6NS08  3.35 1 P
X6NS08  6.37 1 S
X6NS07  2.23 1 P
X6NS07  3.59 1 S
X6EW12  3.97 1 P
X6EW12  6.55 1 S
X6EW11  2.69 1 P
2BNS02  9.60 1 P
2BNS03  7.86 1 P
2BNS04 11.88 1 S
2BNS04  6.84 1 P
X6NS06  3.65 1 P
X6NS06  5.79 1 S
X6EW10 10.71 1 S
X6EW10  6.47 1 P
# 2008  02  07   06    58    7.93    -26.5683    -67.1312    9.47     0.0     0.0     0.0    0.27   163
X6EW09  3.23 1 P
X6EW09  5.11 1 S
X6NS11 15.53 1 P
X6NS11 25.09 1 S
X6NS10 13.31 1 P
X6NS10 22.25 1 S
X6NS09 11.41 1 P
X6NS09 18.97 1 S
X6NS08 17.79 1 S
X6NS07 13.51 1 S
X6NS07  7.95 1 P
X6EW12 19.51 1 S
X6EW12 11.77 1 P
X6EW11 10.37 1 P
X6EW14 26.39 1 S
X6EW14 15.73 1 P
X6NS06  9.75 1 S
X6NS06  5.87 1 P
X6EW13 22.45 1 S
X6EW13 13.41 1 P
X6EW10  3.01 1 P
X6EW10  4.91 1 S
X6BB09 17.39 1 P
X6NS05  8.81 1 S
X6NS05  5.31 1 P
X6BB08 18.19 1 P
2BNS04  5.06 1 P
2BNS04  8.29 1 S
2BNS03  6.98 1 P
2BNS03 11.40 1 S
2BNS02  9.35 1 P
2BNS02 15.48 1 S
2BNS01 10.97 1 P
2BNS01 17.93 1 S
2BNS19 11.77 1 P
2BNS19 18.95 1 S
2BNS20 13.03 1 P
2BNS20 21.16 1 S
2BNS21 14.18 1 P
2BNS22 15.59 1 P
2BNS22 26.69 1 S
2BNS24 18.78 1 P
2BNS23 17.37 1 P
2BNS25 19.91 1 P
2BGALA 14.99 1 P
2BEW05 25.32 1 S
2BEW05 15.28 1 P
2BEW08 41.28 1 S
2BEW06 18.31 1 P
2BEW06 29.83 1 S
2BEW04 12.22 1 P
2BEW04 20.18 1 S
2BEW02  6.58 1 P
2BEW02 10.79 1 S
2BEW03  8.79 1 P
2BEW03 14.83 1 S
X6BB15 33.37 1 S
2BEW01  7.75 1 S
2BEW01  4.71 1 P
X6BB11 11.53 1 P
X6BB11 19.35 1 S
# 2008  02  08   17    9    13.35    -26.1574    -67.9433    4.12     0.0     0.0     0.0    0.38   166
X6EW13 10.07 1 P
X6EW13 17.93 1 S
X6EW15 12.43 1 P
X6BB09 14.65 1 S
X6BB09  8.07 1 P
X6BB08  5.71 1 S
X6BB07 13.81 1 P
2BNS24 16.85 1 P
2BNS22 14.29 1 P
2BNS21 21.94 1 S
2BNS21 13.04 1 P
2BNS20 18.38 1 S
2BNS20 11.03 1 P
2BGALA 18.84 1 P
2BNS01  9.15 1 P
2BNS01 15.45 1 S
2BNS02  9.40 1 P
2BNS02 15.86 1 S
2BNS03 10.08 1 P
X6EW10 14.39 1 P
X6EW10 24.27 1 S
X6NS05 19.87 1 S
X6NS05 11.51 1 P
X6EW09 16.85 1 P
X6NS06 20.83 1 S
X6NS06 12.45 1 P
X6NS07 13.01 1 P
X6EW11 12.41 1 P
X6NS08 22.79 1 S
X6NS08 13.49 1 P
X6NS09 26.25 1 S
X6NS09 15.49 1 P
X6EW12 18.51 1 S
X6EW12 10.89 1 P
# 2008  02  08   19    28    23.47    -27.331    -66.6079    6.45     0.0     0.0     0.0    0.45   167
X6NS18 20.43 1 P
X6NS17 19.03 1 P
X6BB24 27.13 1 P
X6BB12 10.21 1 P
X6NS16 18.11 1 P
X6NS15 18.37 1 P
X6NS14 19.21 1 P
X6BB01 26.99 1 P
X6NS13 20.47 1 P
X6BB02 25.71 1 P
X6EW20 38.25 1 P
X6NS11 18.99 1 P
X6EW19 36.99 1 P
X6NS10 32.95 1 S
X6NS10 18.99 1 P
X6EW16 31.07 1 P
X6EW15 30.01 1 P
X6NS09 19.55 1 P
X6NS08 20.91 1 P
X6EW13 25.51 1 P
X6BB09 30.09 1 P
X6EW12 23.69 1 P
X6EW11 22.51 1 P
X6NS07 20.57 1 P
X6BB11 13.43 1 S
X6BB11  7.67 1 P
X6NS06 19.63 1 P
X6NS06 33.57 1 S
X6BB10 26.01 1 P
X6BB08 33.85 1 P
X6NS05 20.67 1 P
X6EW09 16.31 1 P
X6EW09 28.01 1 S
X6EW10 18.05 1 P
2BNS03 23.31 1 P
2BNS02 25.79 1 P
2BEW01 13.32 1 P
2BNS21 30.12 1 P
2BNS22 31.73 1 P
2BNS24 34.88 1 P
2BNS26 40.18 1 P
2BEW03  9.68 1 P
2BGALA 29.01 1 P
2BEW04 18.88 1 S
2BEW04 10.67 1 P
2BEW05 11.76 1 P
2BEW06 12.60 1 P
2BEW07 22.90 1 S
2BEW07 13.27 1 P
2BEW08 27.28 1 S
2BEW08 16.15 1 P
2BEW22 29.66 1 S
2BEW22 17.56 1 P
X6BB15  7.67 1 S
X6BB15  4.35 1 P
X6BB13 10.83 1 S
X6BB13  6.17 1 P
# 2008  02  09   04    47    51.38    -26.0511    -67.8452    4.66     0.0     0.0     0.0    0.26   169
X6BB08  2.16 1 P
X6BB08  3.70 1 S
2BNS23 21.63 1 S
2BNS20 14.47 1 S
2BNS20  8.87 1 P
2BGALA 16.58 1 P
2BNS19  7.76 1 P
2BNS19 13.47 1 S
2BNS01  7.50 1 P
2BNS02  8.38 1 P
2BNS02 14.23 1 S
2BNS03  9.68 1 P
2BNS03 16.24 1 S
2BNS04 11.45 1 P
2BNS04 18.82 1 S
# 2008  02  09   12    24    13.92    -26.5041    -68.0247    9.33     0.0     0.0     0.0    0.27   170
X6EW15  6.02 1 P
X6EW15 10.02 1 S
X6BB09  3.56 1 P
X6BB09  5.54 1 S
X6BB08  9.80 1 P
X6BB08 16.34 1 S
2BNS20 16.07 1 P
2BNS20 26.25 1 S
2BNS02 20.97 1 S
X6BB10  6.68 1 P
X6BB10 11.22 1 S
2BNS04 12.34 1 P
X6NS05 11.10 1 P
X6NS05 18.50 1 S
X6NS06 10.66 1 P
X6NS06 17.78 1 S
2BEW01 18.50 1 P
2BEW01 30.84 1 S
X6NS07  9.22 1 P
X6NS07 15.50 1 S
X6EW11  7.66 1 P
X6EW11 12.62 1 S
X6EW12  6.12 1 P
X6EW12 10.18 1 S
X6NS08  8.90 1 P
X6NS08 14.88 1 S
X6EW13  4.50 1 P
X6EW13  7.72 1 S
X6NS09 10.54 1 P
X6NS09 17.74 1 S
X6EW14  4.62 1 P
X6EW14  7.80 1 S
# 2008  02  09   13    38    37.76    -26.8581    -67.3786    11.629999999999999     0.0     0.0     0.0    0.15   171
X6NS09  5.48 1 P
X6NS09  9.22 1 S
X6NS08  5.66 1 P
X6NS08  9.70 1 S
X6NS07  5.34 1 P
X6NS07  8.98 1 S
X6NS06  5.10 1 P
X6NS06  8.86 1 S
X6NS05  7.00 1 P
2BNS03 18.06 1 S
2BNS04  8.47 1 P
X6EW10  9.82 1 S
X6EW10  5.88 1 P
2BEW01 12.37 1 S
2BEW01  7.42 1 P
2BEW02 16.11 1 S
2BEW02  9.92 1 P
2BEW03 17.98 1 S
2BEW03 10.82 1 P
# 2008  02  09   17    36    54.02    -26.6192    -67.6692    7.52     0.0     0.0     0.0    0.19   172
X6NS09  5.88 1 P
X6NS09 10.28 1 S
X6EW11  2.04 1 P
X6EW11  3.86 1 S
X6EW12  3.00 1 P
X6EW12  4.92 1 S
X6EW14  6.82 1 P
X6EW14 11.62 1 S
X6EW15  9.56 1 P
X6EW15 16.30 1 S
X6EW13  4.48 1 P
X6EW13  7.64 1 S
X6BB09  8.60 1 P
X6BB10  5.12 1 P
X6BB10  8.44 1 S
2BNS02  9.48 1 P
2BNS03 13.09 1 S
2BNS03  7.90 1 P
2BNS04 11.68 1 S
2BNS04  7.16 1 P
X6NS05  5.36 1 P
X6NS05  8.72 1 S
X6EW10  7.40 1 P
X6EW10 12.42 1 S
X6NS06  4.42 1 P
X6NS06  7.28 1 S
X6NS07  2.90 1 P
X6NS07  4.90 1 S
X6NS08  3.70 1 P
X6NS08  6.32 1 S
# 2008  02  09   23    15    6.34    -25.708    -67.1905    6.09     0.0     0.0     0.0    0.19   173
2BNS21  3.38 1 P
2BNS21  5.87 1 S
2BNS20  5.38 1 P
2BNS20  8.95 1 S
2BNS22  2.17 1 P
2BNS22  3.64 1 S
2BNS23  1.60 1 P
2BNS23  2.71 1 S
2BNS24  2.68 1 P
2BNS24  4.40 1 S
2BNS25  3.72 1 P
2BNS26  6.06 1 P
2BNS26 10.59 1 S
2BGALA  5.38 1 P
2BGALA  8.99 1 S
# 2008  02  10   15    2    43.3    -27.0065    -67.1425    5.63     0.0     0.0     0.0    0.59   176
X6NS10  9.48 1 P
X6NS10 15.96 1 S
X6NS09  9.32 1 P
X6NS09 15.64 1 S
X6NS07  9.80 1 P
X6NS07 16.60 1 S
X6NS06  9.14 1 P
X6NS06 15.24 1 S
X6NS05 18.00 1 S
2BNS03 13.65 1 P
2BNS04 19.80 1 S
2BNS04 11.63 1 P
X6EW09  6.80 1 P
2BEW01  9.91 1 S
2BEW01  5.84 1 P
2BEW02 12.10 1 S
2BEW02  9.22 1 P
2BEW03 12.02 1 S
2BEW03  7.17 1 P
2BEW04 19.79 1 S
X6BB11  4.40 1 P
X6BB11  7.68 1 S
# 2008  02  10   21    59    49.51    -25.7522    -67.6653    6.46     0.0     0.0     0.0    0.39   177
X6BB08  7.67 1 P
X6BB08 12.63 1 S
X6BB07  4.87 1 P
X6BB07  8.43 1 S
2BNS25 15.62 1 S
2BNS24 13.87 1 S
2BNS22  7.41 1 P
2BNS22 12.10 1 S
2BGALA 12.89 1 P
2BNS21 11.62 1 S
2BNS20  6.63 1 P
2BNS20 10.62 1 S
2BNS19  7.60 1 P
2BNS19 12.59 1 S
2BNS02 10.13 1 P
2BNS02 15.56 1 S
2BNS03 12.00 1 P
2BNS03 19.83 1 S
# 2008  02  11   07    6    57.41    -26.5868    -67.6692    6.550000000000001     0.0     0.0     0.0    0.16   178
X6EW11  2.33 1 P
X6EW12  3.13 1 P
X6EW12  5.77 1 S
X6EW14  6.81 1 P
X6EW14 11.73 1 S
X6BB10  7.61 1 S
X6BB10  4.17 1 P
2BNS03  7.50 1 P
2BNS04 11.32 1 S
2BNS04  6.66 1 P
X6NS05  5.03 1 P
X6NS06  7.15 1 S
X6NS07  2.97 1 P
X6NS07  5.13 1 S
X6NS08  4.39 1 P
# 2008  02  12   02    11    5.31    -26.4444    -67.1755    7.890000000000001     0.0     0.0     0.0    0.19   180
X6NS05  4.31 1 P
X6NS05  7.27 1 S
2BNS04  3.27 1 P
2BNS04  5.39 1 S
2BNS03  4.80 1 P
2BNS03  7.86 1 S
2BNS02  6.95 1 P
2BNS02 11.66 1 S
2BNS19  9.36 1 P
2BNS19 15.04 1 S
2BNS20 10.60 1 P
2BNS20 16.99 1 S
2BEW02  8.41 1 P
2BEW02 13.87 1 S
2BEW01  6.81 1 P
2BEW01 11.33 1 S
# 2008  02  12   02    18    5.61    -26.4544    -67.1899    11.73     0.0     0.0     0.0    0.16   181
X6EW10  3.65 1 P
X6EW10  5.97 1 S
X6NS06  5.73 1 P
X6NS06  9.61 1 S
X6NS05  4.43 1 P
X6NS05  7.43 1 S
2BNS04  3.41 1 P
2BNS04  5.54 1 S
2BNS03  4.94 1 P
2BNS03  8.01 1 S
2BNS02  7.09 1 P
2BNS02 11.80 1 S
2BNS19  9.41 1 P
2BNS19 15.17 1 S
2BNS20 10.75 1 P
2BNS20 17.13 1 S
2BGALA 13.03 1 P
2BEW02 14.07 1 S
2BEW02  8.54 1 P
2BEW03 10.82 1 P
2BEW01  6.96 1 P
2BEW01 11.48 1 S
# 2008  02  12   03    47    41.54    -25.7463    -67.6624    11.33     0.0     0.0     0.0    0.28   182
X6BB08  7.94 1 P
X6BB07  8.72 1 S
X6BB07  5.00 1 P
2BNS25 15.68 1 S
2BNS24 13.98 1 S
2BNS23 13.32 1 S
2BNS22  7.50 1 P
2BNS22 12.24 1 S
2BNS21 11.79 1 S
2BNS20 10.72 1 S
2BNS20  6.70 1 P
2BNS19  7.72 1 P
2BNS02 10.31 1 P
2BNS04 14.15 1 P
2BNS04 22.94 1 S
2BNS03 12.17 1 P
2BNS03 19.99 1 S
# 2008  02  12   06    58    52.91    -26.3089    -67.8798    2.88     0.0     0.0     0.0    0.35   183
X6EW14  8.57 1 P
X6EW14 15.01 1 S
X6EW15 10.27 1 P
X6BB09 10.99 1 S
X6BB09  6.33 1 P
X6BB08 10.67 1 S
X6BB08  6.23 1 P
2BNS25 19.18 1 P
2BNS24 17.96 1 P
2BNS23 28.77 1 S
2BNS23 16.76 1 P
2BNS22 15.20 1 P
2BNS20 11.44 1 P
2BNS20 19.39 1 S
2BNS19  9.89 1 P
2BNS19 16.61 1 S
2BGALA 18.91 1 P
2BGALA 31.11 1 S
2BNS02  8.79 1 P
2BNS03  8.81 1 P
2BNS03 14.79 1 S
2BNS04  9.77 1 P
2BNS04 16.22 1 S
X6BB10  6.17 1 S
X6BB10  3.67 1 P
X6NS05  9.39 1 P
X6NS05 15.99 1 S
2BEW02 32.63 1 S
X6EW10 12.09 1 P
2BEW01 29.03 1 S
2BEW01 17.32 1 P
X6NS06  9.77 1 P
X6NS06 16.07 1 S
X6NS07  9.31 1 P
X6NS07 15.31 1 S
X6EW11 14.07 1 S
X6EW11  9.79 1 P
X6NS08 10.41 1 P
X6NS08 17.85 1 S
X6EW12 13.27 1 S
X6EW12  7.85 1 P
X6EW13 12.37 1 S
X6EW13  7.03 1 P
# 2008  02  12   09    57    24.0    -26.4563    -67.1841    11.889999999999999     0.0     0.0     0.0    0.33   184
X6EW10  3.74 1 P
X6EW10  6.14 1 S
X6NS10 14.38 1 P
X6NS10 24.81 1 S
X6NS09 12.14 1 P
X6NS09 20.61 1 S
X6NS08 10.75 1 P
X6NS08 19.11 1 S
X6NS06  5.82 1 P
X6NS06  9.67 1 S
X6NS07  7.90 1 P
X6NS07 13.88 1 S
X6EW11  9.93 1 P
X6EW11 16.72 1 S
X6EW12 11.33 1 P
X6EW12 19.20 1 S
X6EW14 15.30 1 P
X6EW14 25.43 1 S
X6EW13 12.91 1 P
X6EW13 21.38 1 S
X6NS05  4.53 1 P
X6NS05  7.37 1 S
X6BB09 17.79 1 P
X6BB09 28.07 1 S
X6BB10  9.57 1 P
X6BB10 16.30 1 S
2BNS04  3.55 1 P
2BNS04  5.65 1 S
X6BB08 15.74 1 P
X6BB08 26.57 1 S
2BNS03  5.03 1 P
2BNS03  8.14 1 S
2BNS02  7.22 1 P
2BNS02 12.04 1 S
2BNS19  9.52 1 P
2BNS19 15.27 1 S
2BNS20 10.90 1 P
2BNS20 17.20 1 S
2BNS22 13.48 1 P
2BNS24 16.83 1 P
2BNS24 28.93 1 S
2BNS23 15.50 1 P
2BNS23 25.95 1 S
2BNS25 18.04 1 P
2BNS25 29.75 1 S
2BGALA 13.02 1 P
2BGALA 21.56 1 S
2BEW06 32.63 1 S
2BEW06 20.02 1 P
2BEW04 23.32 1 S
2BEW04 13.80 1 P
2BEW02 14.14 1 S
2BEW02  8.68 1 P
2BEW03 10.98 1 P
2BEW01  7.07 1 P
2BEW01 11.64 1 S
X6BB11 13.98 1 P
X6BB11 23.25 1 S
# 2008  02  12   16    46    34.04    -27.3167    -66.5928    6.07     0.0     0.0     0.0    0.4   185
X6NS18 20.48 1 P
X6NS18 36.28 1 S
X6NS17 19.10 1 P
X6BB12 17.80 1 S
X6BB12 10.26 1 P
X6BB24 27.22 1 P
X6NS16 31.30 1 S
X6NS16 18.18 1 P
X6NS14 19.78 1 P
X6BB01 47.24 1 S
X6BB01 27.56 1 P
X6NS13 20.48 1 P
X6BB02 26.64 1 P
X6BB02 45.48 1 S
X6EW19 36.98 1 P
X6EW17 33.72 1 P
X6EW17 56.84 1 S
X6NS10 32.36 1 S
X6NS10 19.04 1 P
X6EW14 27.76 1 P
X6NS08 20.90 1 P
X6BB09 30.06 1 P
X6EW12 23.68 1 P
X6EW11 22.42 1 P
X6BB11 13.26 1 S
X6BB11  7.62 1 P
X6NS07 20.54 1 P
X6NS07 34.98 1 S
X6NS06 19.60 1 P
X6NS06 33.24 1 S
X6BB10 25.94 1 P
X6NS05 20.64 1 P
X6EW10 31.10 1 S
X6EW10 17.98 1 P
2BNS20 29.30 1 P
2BNS20 49.53 1 S
2BNS21 30.33 1 P
2BEW02 11.65 1 P
2BEW03  9.55 1 P
2BNS26 37.84 1 P
2BGALA 28.88 1 P
2BEW07 21.77 1 S
2BEW07 13.33 1 P
2BEW22 17.36 1 P
X6BB15  7.42 1 S
X6BB15  4.24 1 P
# 2008  02  13   09    30    23.56    -25.6345    -67.2181    17.79     0.0     0.0     0.0    1.23   188
2BNS04 16.33 1 P
X6NS18 72.82 1 S
X6NS16 35.04 1 P
2BNS03 25.97 1 S
X6NS14 36.66 1 P
X6BB24 71.82 1 S
2BNS22  4.20 1 P
2BNS22  6.93 1 S
2BNS20 12.85 1 S
2BNS23  2.79 1 P
2BNS23  3.84 1 S
2BNS24  3.19 1 P
2BNS24  4.37 1 S
2BNS26  6.44 1 P
2BNS26 10.31 1 S
2BNS25  4.10 1 P
2BNS25  5.64 1 S
2BGALA  7.56 1 P
2BGALA 11.70 1 S
# 2008  02  14   05    58    51.53    -26.448    -67.1826    10.06     0.0     0.0     0.0    0.19   190
X6EW10  3.53 1 P
X6EW10  5.97 1 S
X6NS06  5.73 1 P
X6NS05  4.37 1 P
2BNS04  3.35 1 P
2BNS04  5.45 1 S
2BNS03  4.87 1 P
2BNS03  7.95 1 S
2BNS02  7.06 1 P
2BNS02 11.76 1 S
2BNS19  9.41 1 P
2BNS19 15.14 1 S
2BNS20 17.07 1 S
2BEW02 13.97 1 S
2BEW02  8.49 1 P
2BEW01 11.55 1 S
2BEW01  7.02 1 P
# 2008  02  14   09    5    15.54    -27.675    -68.0933    21.0     0.0     0.0     0.0    0.43   191
X6BB24  4.40 1 P
X6BB24  7.06 1 S
X6BB03 21.18 1 P
X6EW20 20.60 1 P
X6EW20 32.74 1 S
X6EW19 19.32 1 P
X6EW19 32.00 1 S
X6EW18 17.60 1 P
X6EW17 28.94 1 S
X6EW17 17.22 1 P
X6BB01  6.50 1 P
X6BB01 10.78 1 S
X6EW16 28.38 1 S
X6EW16 17.04 1 P
X6EW15 31.32 1 S
X6EW15 18.66 1 P
X6BB02 11.70 1 P
X6BB02 19.20 1 S
X6BB09 38.44 1 S
X6BB09 22.96 1 P
X6EW14 32.80 1 S
X6EW14 19.20 1 P
X6EW13 35.62 1 S
X6EW13 20.76 1 P
X6EW12 19.92 1 P
X6EW11 21.36 1 P
X6EW11 35.96 1 S
2BNS25 43.54 1 P
2BNS20 59.99 1 S
2BNS02 30.53 1 P
X6NS08 18.92 1 P
2BNS03 28.21 1 P
X6NS07 21.30 1 P
X6NS09 16.68 1 P
X6NS09 28.62 1 S
X6NS05 24.82 1 P
X6NS05 42.94 1 S
2BNS04 26.65 1 P
X6NS06 22.98 1 P
X6NS06 39.10 1 S
X6NS10 14.00 1 P
X6NS10 24.26 1 S
2BGALA 39.42 1 P
X6NS11 14.08 1 P
X6EW10 24.92 1 P
X6EW10 42.30 1 S
X6NS13 16.64 1 S
X6NS13  9.74 1 P
2BEW01 26.13 1 P
2BEW01 43.31 1 S
2BEW02 27.80 1 P
2BEW02 46.01 1 S
X6NS14 15.96 1 S
X6NS14  9.78 1 P
2BEW03 27.69 1 P
2BEW04 32.05 1 P
X6BB11 23.24 1 P
X6BB11 38.68 1 S
2BEW05 58.94 1 S
X6NS15 17.10 1 S
X6NS15 10.34 1 P
2BEW06 37.16 1 P
2BEW06 61.51 1 S
2BEW07 38.50 1 P
2BEW07 63.67 1 S
2BEW08 70.01 1 S
X6BB15 30.36 1 P
X6BB15 50.30 1 S
X6BB12 17.62 1 P
X6BB12 29.52 1 S
X6BB13 25.64 1 P
X6BB13 42.70 1 S
X6NS17 15.32 1 S
X6NS17  9.36 1 P
X6NS18 16.88 1 S
X6NS18 10.26 1 P
# 2008  02  15   07    30    27.32    -26.5102    -67.3886    14.74     0.0     0.0     0.0    0.2   192
X6NS11 13.80 1 P
X6NS06  5.60 1 S
X6NS06  3.18 1 P
X6NS07  8.70 1 S
X6NS07  4.90 1 P
X6NS05  4.34 1 S
X6NS05  2.62 1 P
2BNS02 11.53 1 S
2BNS02  7.14 1 P
2BNS03  7.72 1 S
2BNS03  4.79 1 P
2BNS19  9.71 1 P
2BNS20 18.13 1 S
2BNS20 11.32 1 P
2BNS04  3.34 1 P
2BNS04  5.49 1 S
2BEW02 10.71 1 P
2BEW01 14.29 1 S
2BEW01  8.54 1 P
X6EW10  6.14 1 S
X6EW10  3.62 1 P
# 2008  02  15   15    10    16.28    -27.6005    -67.0043    5.43     0.0     0.0     0.0    0.48   193
X6NS18 12.10 1 P
X6NS18 21.18 1 S
X6NS16 19.26 1 S
X6BB02 22.16 1 P
X6EW16 26.34 1 P
X6NS10 26.46 1 S
X6NS10 15.26 1 P
X6BB12  3.06 1 P
X6NS09 29.66 1 S
X6NS08 19.22 1 P
X6NS08 33.14 1 S
X6NS07 19.92 1 P
X6NS07 35.08 1 S
2BNS04 22.75 1 P
X6EW10 19.84 1 P
2BEW01 28.46 1 S
2BEW01 16.48 1 P
X6BB11 17.46 1 S
X6BB11  9.98 1 P
2BEW02 16.36 1 P
2BEW03 14.86 1 P
2BEW06 20.76 1 P
2BEW08 25.24 1 P
X6BB13  7.14 1 P
# 2008  02  15   15    28    52.34    -26.9314    -67.9646    12.139999999999999     0.0     0.0     0.0    0.31   194
X6BB02  4.84 1 P
X6BB02  8.02 1 S
X6EW17  9.32 1 P
X6EW17 15.84 1 S
X6EW16  6.76 1 P
X6EW15  5.92 1 P
X6BB09  8.96 1 P
X6BB09 15.08 1 S
X6EW14  5.06 1 P
X6EW14  8.50 1 S
X6EW13  6.74 1 P
X6EW13 11.92 1 S
X6EW12  6.56 1 P
X6EW12 11.66 1 S
X6EW11  8.04 1 P
X6EW11 13.76 1 S
X6NS07  9.32 1 P
X6NS07 15.64 1 S
X6NS08  6.68 1 P
X6NS08 11.44 1 S
X6NS09  5.88 1 P
X6NS09 10.12 1 S
X6NS10  5.40 1 P
X6NS10  9.14 1 S
# 2008  02  16   10    0    8.07    -26.6633    -67.5959    7.34     0.0     0.0     0.0    0.13   195
X6NS09  5.15 1 P
X6NS09  9.09 1 S
X6NS08  2.95 1 P
X6NS08  5.95 1 S
X6NS07  1.73 1 P
X6NS07  2.97 1 S
X6EW12  3.91 1 P
X6EW12  6.31 1 S
X6EW11  2.31 1 P
2BNS03  7.73 1 P
2BNS04 10.98 1 S
2BNS04  6.64 1 P
X6NS05  4.71 1 P
X6NS06  3.25 1 P
X6NS06  5.31 1 S
