# 2008  01  15   14    35    15.46    -27.4344    -68.7267    3.5100000000000002     0.0     0.0     0.0    0.24   42
X6BB03  9.78 1 P
X6BB03 16.68 1 S
X6BB04 18.28 1 P
X6BB04 32.10 1 S
X6EW20 10.64 1 P
X6EW20 18.24 1 S
X6EW19 11.56 1 P
X6EW18 18.90 1 S
X6EW18 11.36 1 P
X6EW17 12.74 1 P
X6EW16 14.44 1 P
X6EW16 24.14 1 S
X6EW11 23.86 1 P
X6NS08 22.60 1 P
X6NS09 21.26 1 P
X6NS09 36.00 1 S
X6NS11 18.98 1 P
X6BB01 17.58 1 S
X6BB01 10.34 1 P
X6NS14 18.60 1 P
X6BB24 13.64 1 P
X6BB24 22.64 1 S
# 2008  01  15   16    13    58.1    -25.8365    -67.3352    8.28     0.0     0.0     0.0    0.48   43
2BNS04 10.88 1 P
X6NS05 12.82 1 P
X6NS05 25.26 1 S
X6NS06 14.84 1 P
2BNS03  9.15 1 P
2BNS01  9.14 1 S
2BNS01  5.59 1 P
2BNS19  7.35 1 S
2BNS19  4.49 1 P
2BNS21  2.84 1 S
2BNS21  1.84 1 P
2BNS26 15.26 1 S
2BNS26  8.69 1 P
2BNS24  5.36 1 P
2BNS25 11.70 1 S
2BNS25  6.66 1 P
2BNS22  2.58 1 P
2BNS22  4.11 1 S
2BGALA  7.13 1 P
2BGALA 11.75 1 S
X6EW10 14.60 1 P
# 2008  01  15   18    22    50.57    -27.3319    -66.6016    14.25     0.0     0.0     0.0    0.27   44
X6BB13  6.29 1 P
X6NS18 20.55 1 P
X6NS17 19.19 1 P
X6BB12 10.35 1 P
X6BB24 27.29 1 P
X6NS16 18.25 1 P
X6NS15 17.79 1 P
X6NS14 19.33 1 P
X6BB01 27.09 1 P
X6NS13 20.59 1 P
X6NS12 20.13 1 P
X6EW20 38.41 1 P
X6NS11 19.13 1 P
X6EW18 35.47 1 P
X6EW19 37.15 1 P
X6EW17 33.31 1 P
X6EW16 31.15 1 P
X6EW16 52.23 1 S
X6NS09 19.69 1 P
X6NS08 20.97 1 P
X6BB11 13.57 1 S
X6BB11  7.79 1 P
X6NS07 20.69 1 P
X6NS07 35.73 1 S
X6NS06 19.77 1 P
X6NS05 20.87 1 P
X6EW09 16.43 1 P
X6EW09 28.37 1 S
X6EW10 18.17 1 P
2BNS04 21.39 1 P
2BNS03 23.42 1 P
2BEW01 13.44 1 P
2BNS21 30.64 1 P
2BNS22 31.94 1 P
2BEW02 11.87 1 P
2BNS24 34.91 1 P
2BEW03  9.81 1 P
2BGALA 29.18 1 P
2BEW05 19.84 1 S
2BEW05 11.90 1 P
2BEW06 12.69 1 P
2BEW07 13.39 1 P
2BEW08 27.36 1 S
2BEW08 16.26 1 P
X6BB15  8.79 1 S
X6BB15  4.51 1 P
X6BB14 12.37 1 P
# 2008  01  15   21    55    28.65    -26.9789    -68.0079    3.0700000000000003     0.0     0.0     0.0    1.03   45
X6BB24 16.77 1 P
X6BB24 28.45 1 S
X6BB01 16.19 1 S
X6EW19 14.51 1 P
X6EW19 17.53 1 S
X6EW17  8.27 1 P
X6EW17 14.55 1 S
X6EW16  5.95 1 P
X6EW16 10.07 1 S
X6EW11  9.31 1 P
X6EW11 15.15 1 S
X6NS07  9.97 1 P
X6NS07 17.13 1 S
X6NS08  7.57 1 P
X6NS08 12.95 1 S
X6NS09 11.45 1 S
X6NS12  5.75 1 P
X6NS12 12.23 1 S
# 2008  01  16   01    36    49.94    -26.9067    -66.5943    5.25     0.0     0.0     0.0    0.31   46
X6NS18 25.86 1 P
X6NS18 44.22 1 S
X6NS16 37.02 1 S
X6BB24 31.40 1 P
X6NS15 35.18 1 S
X6BB11 13.14 1 S
X6BB11  7.84 1 P
X6NS14 21.96 1 P
X6NS14 37.16 1 S
X6NS13 22.48 1 P
X6NS13 38.14 1 S
X6BB01 49.34 1 S
X6BB01 29.30 1 P
X6NS11 19.38 1 P
X6NS11 32.46 1 S
X6NS09 18.36 1 P
X6NS09 30.80 1 S
X6NS08 19.38 1 P
X6NS07 28.96 1 S
X6NS07 17.28 1 P
X6NS06 26.20 1 S
X6NS06 15.72 1 P
X6EW09 19.54 1 S
X6EW09 11.62 1 P
X6NS05 26.68 1 S
X6NS05 15.98 1 P
2BEW01  8.22 1 P
2BEW01 13.70 1 S
X6EW10 22.02 1 S
X6EW10 13.30 1 P
2BNS04 15.91 1 P
2BNS04 26.30 1 S
2BNS03 17.77 1 P
2BNS03 29.26 1 S
2BEW03  3.66 1 P
2BNS02 19.96 1 P
2BNS02 33.36 1 S
2BEW02  9.16 1 S
2BEW02  5.51 1 P
2BNS01 21.46 1 P
2BNS01 35.56 1 S
2BNS19 22.03 1 P
2BNS20 22.85 1 P
2BNS20 37.54 1 S
2BNS22 24.74 1 P
2BGALA 21.39 1 P
2BGALA 36.22 1 S
2BEW05  6.07 1 P
2BEW05  9.99 1 S
2BEW06  8.50 1 P
2BEW07 10.14 1 P
2BEW07 16.76 1 S
2BEW08 14.12 1 P
2BEW08 23.34 1 S
2BEW22 15.78 1 P
2BEW22 26.12 1 S
2BEW24 36.87 1 S
X6BB14 17.02 1 P
X6BB14 28.36 1 S
X6BB15  9.44 1 P
X6BB15 15.72 1 S
X6BB13 14.12 1 P
X6BB13 24.06 1 S
# 2008  01  17   02    51    22.44    -25.9477    -66.7892    4.3     0.0     0.0     0.0    0.24   47
2BEW02 15.32 1 P
2BEW02 25.62 1 S
X6BB11 22.64 1 P
2BEW01 15.77 1 P
X6EW10 15.12 1 P
X6EW10 25.14 1 S
X6NS06 28.58 1 S
X6NS05 25.86 1 S
X6NS05 15.10 1 P
2BNS04 13.11 1 P
2BNS04 21.77 1 S
2BNS03 12.71 1 P
2BNS02 21.21 1 S
2BNS02 12.79 1 P
2BNS01 19.98 1 S
2BNS01 11.91 1 P
2BNS20 10.44 1 P
2BNS20 17.31 1 S
2BNS21  9.27 1 P
2BNS21 15.55 1 S
2BNS22  9.44 1 P
2BNS22 14.07 1 S
2BNS24 10.60 1 P
2BNS24 17.57 1 S
2BGALA  3.60 1 P
2BGALA  6.21 1 S
2BNS25 11.14 1 P
2BNS25 18.46 1 S
2BNS26 12.80 1 P
2BEW07 38.50 1 S
2BEW06 35.01 1 S
2BEW06 20.97 1 P
2BEW03 17.47 1 P
# 2008  01  17   16    56    5.41    -25.9523    -66.7926    2.42     0.0     0.0     0.0    0.3   49
2BEW02 15.23 1 P
2BEW02 25.49 1 S
2BEW01 15.71 1 P
2BEW01 26.64 1 S
X6NS06 28.83 1 S
X6NS05 25.85 1 S
X6NS05 15.53 1 P
2BNS04 21.69 1 S
2BNS04 13.15 1 P
X6EW11 34.17 1 S
2BNS03 13.08 1 P
2BNS03 21.09 1 S
2BNS02 12.77 1 P
2BNS02 20.94 1 S
2BNS20 10.32 1 P
2BNS20 17.17 1 S
2BNS21  9.11 1 P
2BNS21 15.41 1 S
2BNS22  9.29 1 P
2BNS22 15.69 1 S
2BNS24 17.44 1 S
2BGALA  3.49 1 P
2BGALA  6.07 1 S
2BNS25 11.03 1 P
2BNS25 18.32 1 S
2BNS26 12.69 1 P
2BNS26 21.52 1 S
2BEW06 34.96 1 S
2BEW06 21.20 1 P
2BEW03 17.38 1 P
# 2008  01  17   20    42    12.06    -25.948    -66.7838    4.32     0.0     0.0     0.0    0.19   50
2BEW02 15.36 1 P
2BEW02 25.64 1 S
2BEW01 15.77 1 P
X6EW09 16.22 1 P
X6EW10 25.22 1 S
X6NS06 16.96 1 P
X6NS06 28.68 1 S
X6NS05 15.16 1 P
X6NS05 25.88 1 S
2BNS04 13.02 1 P
2BNS04 21.82 1 S
2BNS03 13.02 1 P
2BNS02 21.31 1 S
2BNS02 12.88 1 P
2BNS01 20.02 1 S
2BNS01 11.97 1 P
2BNS20 10.48 1 P
2BNS20 17.34 1 S
2BNS21  9.32 1 P
2BNS21 15.57 1 S
2BNS22  9.46 1 P
2BNS22 15.73 1 S
2BGALA  3.65 1 P
2BGALA  6.22 1 S
2BNS24 10.65 1 P
2BNS24 17.58 1 S
2BNS25 11.14 1 P
2BNS25 18.50 1 S
2BNS26 12.86 1 P
2BNS26 21.08 1 S
2BEW08 42.95 1 S
2BEW07 38.51 1 S
2BEW06 35.03 1 S
2BEW06 20.89 1 P
2BEW05 30.71 1 S
2BEW03 17.46 1 P
2BEW03 29.28 1 S
# 2008  01  17   21    39    6.47    -26.5288    -67.2448    3.7600000000000002     0.0     0.0     0.0    0.19   51
X6NS06  3.95 1 P
X6NS06  6.79 1 S
X6NS05  3.03 1 P
X6NS05  5.17 1 S
2BNS04  2.81 1 P
2BNS04  4.78 1 S
2BNS03  4.88 1 P
2BNS03  8.13 1 S
2BNS02  7.49 1 P
2BEW02 13.96 1 S
2BEW01  6.16 1 P
2BEW01 10.49 1 S
X6EW09  3.43 1 P
X6EW09  5.87 1 S
X6EW10  1.43 1 P
X6EW10  2.51 1 S
# 2008  01  18   01    9    19.9    -27.5258    -68.756    15.51     0.0     0.0     0.0    0.5   55
X6BB03  9.46 1 P
X6BB03 16.12 1 S
X6BB04 19.96 1 P
X6BB04 34.31 1 S
X6EW20 12.48 1 P
X6EW19 13.40 1 P
X6EW18 13.25 1 P
X6EW18 22.08 1 S
X6EW17 14.59 1 P
X6EW17 26.31 1 S
X6EW16 16.23 1 P
X6EW16 26.80 1 S
X6EW15 19.64 1 P
X6EW15 31.12 1 S
2BNS02 57.18 1 S
X6EW11 25.19 1 P
X6EW11 42.99 1 S
X6NS07 26.48 1 P
X6NS07 44.99 1 S
X6NS08 24.03 1 P
X6NS08 40.60 1 S
X6NS09 22.60 1 P
X6NS09 38.16 1 S
2BEW02 35.52 1 P
X6NS11 19.92 1 P
2BEW03 36.07 1 P
X6NS12 18.48 1 P
X6NS12 31.14 1 S
2BEW06 46.02 1 P
2BEW06 78.10 1 S
X6BB11 31.94 1 P
X6BB01 11.04 1 P
X6BB01 18.76 1 S
X6BB15 40.53 1 P
X6NS15 20.10 1 P
X6NS16 21.17 1 P
X6BB13 36.35 1 P
X6BB13 61.38 1 S
X6NS17 20.17 1 P
X6NS18 21.19 1 P
X6BB24 21.76 1 S
X6BB24 13.04 1 P
# 2008  01  18   16    7    0.36    -27.3292    -66.5967    6.75     0.0     0.0     0.0    0.28   57
X6BB13  6.16 1 P
X6NS18 20.64 1 P
X6NS17 19.14 1 P
X6BB12 10.30 1 P
X6BB24 27.28 1 P
X6NS16 18.34 1 P
X6NS16 31.56 1 S
X6NS14 19.60 1 P
X6NS14 33.62 1 S
X6BB01 46.58 1 S
X6BB01 27.04 1 P
X6NS13 20.56 1 P
X6NS11 19.22 1 P
X6EW18 35.62 1 P
X6EW19 37.22 1 P
X6EW17 33.36 1 P
X6EW16 30.90 1 P
X6EW15 30.26 1 P
X6NS09 19.70 1 P
X6NS08 20.98 1 P
X6EW11 22.80 1 P
X6BB11 13.34 1 S
X6BB11  7.68 1 P
X6NS07 20.62 1 P
X6NS07 34.82 1 S
X6NS06 19.70 1 P
X6NS06 33.34 1 S
X6NS05 20.88 1 P
X6EW09 28.76 1 S
X6EW09 16.36 1 P
X6EW10 31.16 1 S
X6EW10 18.14 1 P
2BNS04 21.31 1 P
2BNS03 23.39 1 P
2BNS02 25.87 1 P
2BEW01 13.43 1 P
2BNS21 31.24 1 P
2BNS22 31.89 1 P
2BEW02 20.17 1 S
2BEW02 11.72 1 P
2BEW03  9.64 1 P
2BNS25 35.83 1 P
2BNS26 38.17 1 P
2BGALA 29.12 1 P
2BEW05 11.51 1 P
2BEW06 12.50 1 P
2BEW07 13.19 1 P
2BEW08 16.04 1 P
2BEW22 17.49 1 P
X6BB15  7.48 1 S
X6BB15  4.22 1 P
X6BB14 12.14 1 P
# 2008  01  18   18    31    43.26    -26.6697    -67.6271    7.9399999999999995     0.0     0.0     0.0    0.35   58
X6NS09  5.24 1 P
X6NS09  8.88 1 S
X6NS11  8.42 1 P
X6NS08  5.22 1 S
X6NS08  3.02 1 P
X6EW11  2.24 1 P
X6EW15 17.36 1 S
X6EW15 10.62 1 P
2BNS02  9.90 1 P
2BNS02 17.04 1 S
2BNS03  8.29 1 P
2BNS03 13.54 1 S
2BNS04  7.28 1 P
2BNS04 11.79 1 S
X6NS05  8.68 1 S
X6NS05  5.32 1 P
X6NS06  6.42 1 S
X6NS06  3.90 1 P
X6EW10  6.86 1 P
X6EW10 11.36 1 S
X6EW09  8.16 1 P
X6EW09 13.72 1 S
2BEW01 18.96 1 S
2BEW03 15.61 1 P
X6NS07  3.54 1 S
X6NS07  2.16 1 P
X6BB11 15.18 1 P
X6BB11 24.92 1 S
# 2008  01  19   01    13    11.09    -27.0237    -67.0761    18.97     0.0     0.0     0.0    0.54   60
X6NS11 10.63 1 P
X6NS11 19.97 1 S
X6NS08 20.19 1 S
X6NS07 19.09 1 S
X6NS07 11.77 1 P
X6NS06 17.43 1 S
X6NS06 10.89 1 P
X6NS05 19.65 1 S
X6EW10  9.77 1 P
X6EW10 15.63 1 S
X6EW09  8.09 1 P
X6EW09 12.93 1 S
2BEW01  6.63 1 P
2BEW02  7.47 1 P
2BEW02 11.85 1 S
2BEW03  7.39 1 P
2BEW03 11.57 1 S
2BEW04 11.62 1 P
2BEW04 18.81 1 S
2BEW06 29.20 1 S
X6BB11  4.97 1 P
X6BB11  7.83 1 S
# 2008  01  19   01    36    48.4    -26.7257    -67.0419    7.4     0.0     0.0     0.0    0.57   61
X6NS08 10.86 1 P
X6NS08 19.52 1 S
X6NS07  9.13 1 P
X6NS07 15.60 1 S
X6EW09  3.23 1 P
X6EW09  5.57 1 S
X6NS06  7.54 1 P
X6NS06 12.26 1 S
X6NS05  7.87 1 P
X6NS05 13.20 1 S
X6EW10  5.03 1 P
X6EW10  8.34 1 S
2BNS04  8.15 1 P
2BNS04 13.55 1 S
2BNS03 10.17 1 P
2BNS03 17.02 1 S
2BNS02 12.67 1 P
2BNS02 21.06 1 S
2BNS01 19.20 1 S
2BNS22 18.95 1 P
2BNS24 22.09 1 P
2BNS25 40.30 1 S
2BGALA 30.45 1 S
2BEW06 27.09 1 S
2BEW06 16.22 1 P
2BEW04 16.58 1 S
2BEW04  9.91 1 P
2BEW02  6.70 1 S
2BEW02  4.00 1 P
2BEW03  9.77 1 S
2BEW03  5.82 1 P
2BEW01  2.78 1 S
2BEW01  1.61 1 P
X6BB15 28.36 1 S
X6BB15 16.60 1 P
X6BB11 13.42 1 S
X6BB11  7.87 1 P
# 2008  01  19   10    45    40.77    -26.5217    -67.5534    25.07     0.0     0.0     0.0    0.82   62
X6NS15 18.81 1 P
X6NS16 18.78 1 P
X6NS14 19.33 1 P
X6NS09 15.70 1 S
X6NS09  9.78 1 P
X6NS08 12.06 1 S
X6NS08  7.53 1 P
X6EW15 21.30 1 S
X6EW15 13.30 1 P
X6BB09 18.46 1 S
X6BB09 11.28 1 P
2BNS02  7.86 1 P
2BNS03  9.75 1 S
2BNS03  6.34 1 P
2BGALA 17.83 1 P
2BGALA 28.71 1 S
2BNS04  9.16 1 S
2BNS04  6.03 1 P
X6NS05  7.48 1 S
X6NS05  4.93 1 P
X6EW10 11.41 1 S
X6EW10  7.26 1 P
2BEW01 12.46 1 P
2BEW01 19.94 1 S
X6EW09 14.86 1 S
X6EW09  9.22 1 P
X6NS06  7.77 1 S
X6NS06  5.26 1 P
X6BB12 33.77 1 S
X6BB12 19.67 1 P
X6NS07  5.69 1 P
# 2008  01  19   21    13    30.71    -26.9097    -67.4378    12.69     0.0     0.0     0.0    0.26   63
X6NS14 11.95 1 P
X6NS13 18.63 1 S
X6NS13 11.03 1 P
X6NS11 11.03 1 S
X6NS09  4.47 1 P
X6NS09  7.59 1 S
X6NS08  5.31 1 P
X6NS08  8.71 1 S
X6BB09 24.37 1 S
X6NS07  5.75 1 P
X6NS07  9.49 1 S
X6NS06  6.03 1 P
X6NS06 10.35 1 S
2BNS19 16.79 1 P
X6NS05  7.99 1 P
X6NS05 13.93 1 S
2BNS04  9.64 1 P
2BNS04 16.87 1 S
2BGALA 22.16 1 P
X6EW10 12.15 1 S
X6EW10  7.23 1 P
X6EW09 11.81 1 S
X6EW09  7.07 1 P
2BEW01 14.66 1 S
2BEW01  8.86 1 P
2BEW02 18.33 1 S
2BEW04 27.66 1 S
2BEW04 16.58 1 P
2BEW03 19.91 1 S
2BEW03 12.04 1 P
X6BB11 16.71 1 S
X6BB11 10.03 1 P
X6BB13 33.95 1 S
# 2008  01  20   17    28    59.32    -26.5164    -67.0937    8.94     0.0     0.0     0.0    0.43   64
X6EW09  4.06 1 P
X6EW09  6.90 1 S
X6EW10  3.68 1 P
X6EW10  5.94 1 S
X6NS07  8.82 1 P
X6NS06 11.14 1 S
X6NS06  6.66 1 P
X6NS05  9.52 1 S
X6NS05  5.78 1 P
2BNS04  8.36 1 S
2BNS04  5.06 1 P
2BNS03 11.26 1 S
2BNS03  6.94 1 P
2BNS02 15.35 1 S
2BNS02  7.97 1 P
2BEW02 11.09 1 S
2BEW01  5.07 1 P
2BEW01  8.65 1 S
# 2008  01  21   19    57    8.49    -26.9837    -67.3304    4.16     0.0     0.0     0.0    0.61   65
X6NS16 12.37 1 P
X6NS14 19.83 1 S
X6NS14 13.79 1 P
X6NS13 18.13 1 S
X6NS13 10.53 1 P
X6NS11 11.55 1 S
X6NS11  7.25 1 P
X6NS10 10.61 1 S
X6NS10  6.21 1 P
X6BB02 22.81 1 S
X6BB02 13.55 1 P
X6NS09 10.13 1 S
X6NS09  5.93 1 P
X6NS08 12.07 1 S
X6NS08  7.09 1 P
X6NS07 12.45 1 S
X6NS07  8.15 1 P
X6NS06 12.53 1 S
X6NS06  7.31 1 P
X6NS05 15.57 1 S
X6NS05  9.09 1 P
2BNS04 17.99 1 S
2BNS04 10.62 1 P
X6EW10 13.09 1 S
X6EW10  7.81 1 P
X6EW09 12.05 1 S
X6EW09  6.85 1 P
2BEW01 13.16 1 S
2BEW01  7.74 1 P
2BEW02 16.12 1 S
2BEW02 10.11 1 P
2BEW04 24.92 1 S
2BEW03 10.19 1 P
2BEW03 17.09 1 S
X6BB11 12.73 1 S
X6BB11  7.39 1 P
X6BB12 18.85 1 S
# 2008  01  22   04    30    53.31    -27.0609    -66.0714    18.05     0.0     0.0     0.0    0.42   66
X6BB15  9.29 1 P
X6BB15 13.37 1 S
2BEW03 12.87 1 P
2BEW03 21.47 1 S
2BEW01 17.66 1 P
2BEW01 29.18 1 S
2BEW02 14.72 1 P
2BEW02 24.38 1 S
2BNS04 41.30 1 S
2BEW04 16.61 1 S
2BEW04  9.86 1 P
2BNS03 44.24 1 S
2BNS02 47.80 1 S
2BNS20 51.70 1 S
2BNS23 56.62 1 S
2BEW06  8.80 1 S
2BEW06  5.26 1 P
2BEW07  8.01 1 S
2BEW07  4.76 1 P
2BEW08 10.62 1 S
2BEW08  6.38 1 P
2BEW22 12.95 1 S
2BEW22  7.67 1 P
X6BB14 10.55 1 P
X6BB14 17.79 1 S
# 2008  01  22   07    35    54.46    -26.9578    -68.018    10.98     0.0     0.0     0.0    0.24   67
X6BB24 16.86 1 P
X6BB01 16.52 1 S
X6BB01  9.66 1 P
X6BB02  6.24 1 S
X6BB02  3.66 1 P
X6EW18 10.32 1 P
X6EW17 14.66 1 S
X6EW17  8.38 1 P
X6EW16 10.26 1 S
X6EW16  6.14 1 P
X6EW15  9.68 1 S
X6EW15  5.92 1 P
X6BB09  9.16 1 P
X6BB09 15.80 1 S
2BNS02 17.98 1 P
2BNS02 30.83 1 S
X6EW11 15.28 1 S
X6EW11  9.02 1 P
2BNS04 15.62 1 P
2BNS04 26.43 1 S
X6NS07 10.20 1 P
X6NS07 17.32 1 S
X6NS06 12.40 1 P
X6NS08  7.76 1 P
X6NS08 13.22 1 S
X6NS09  6.86 1 P
X6NS09 11.66 1 S
2BEW01 18.17 1 P
X6NS10  6.06 1 P
X6NS10 10.32 1 S
X6NS11  7.36 1 P
X6NS11 11.84 1 S
# 2008  01  22   11    54    34.78    -27.0704    -67.9573    12.43     0.0     0.0     0.0    0.57   68
X6BB24 14.60 1 P
X6BB24 24.82 1 S
X6BB01  8.12 1 P
X6BB01 14.30 1 S
X6BB02  3.36 1 P
X6BB02  5.74 1 S
X6EW20 14.80 1 P
X6EW20 25.12 1 S
X6EW19 13.60 1 P
X6EW19 23.16 1 S
X6EW18 11.48 1 P
X6EW18 19.80 1 S
X6EW17  9.88 1 P
X6EW17 17.04 1 S
X6EW16  8.22 1 P
X6EW16 13.86 1 S
X6EW15  8.40 1 P
X6EW15 14.00 1 S
X6BB09 11.68 1 P
X6BB09 19.88 1 S
X6EW11  9.90 1 P
X6EW11 17.04 1 S
2BGALA 28.98 1 P
2BNS04 16.17 1 P
X6NS07 10.76 1 P
X6NS05 14.44 1 P
X6NS05 25.64 1 S
X6NS08 13.72 1 S
X6NS08  8.20 1 P
X6NS06 12.40 1 P
X6NS06 22.18 1 S
X6EW10 15.02 1 P
X6EW10 26.04 1 S
X6NS09 11.30 1 S
X6NS09  6.62 1 P
X6EW09 15.40 1 P
X6EW09 26.04 1 S
2BEW01 17.85 1 P
2BEW02 33.33 1 S
2BEW02 20.13 1 P
2BEW04 42.63 1 S
2BEW04 25.48 1 P
2BEW03 35.32 1 S
2BEW03 20.92 1 P
2BEW06 54.58 1 S
2BEW06 31.39 1 P
X6NS10  8.48 1 S
X6NS10  4.92 1 P
X6BB15 27.20 1 P
X6BB15 47.28 1 S
X6NS11  9.14 1 S
X6NS11  5.76 1 P
X6BB13 26.56 1 P
X6BB13 43.86 1 S
X6BB12 28.24 1 S
X6NS16 20.06 1 S
X6NS16 14.02 1 P
X6NS14 15.36 1 S
X6NS14 10.00 1 P
X6NS13 10.78 1 S
X6NS13  6.38 1 P
# 2008  01  22   13    9    39.43    -26.6242    -67.6507    12.4     0.0     0.0     0.0    0.39   69
X6NS09  5.87 1 P
X6NS09 10.17 1 S
X6NS14 15.89 1 P
X6NS14 28.21 1 S
X6NS10  7.99 1 P
X6NS10 13.77 1 S
X6NS11 10.19 1 P
X6NS13 14.07 1 P
X6NS13 24.95 1 S
X6BB24 41.27 1 S
X6BB24 23.59 1 P
X6EW11  2.71 1 P
X6BB01 18.33 1 P
X6BB01 31.89 1 S
X6BB02 12.69 1 P
X6BB02 21.23 1 S
X6EW16 12.31 1 P
X6EW17 15.21 1 P
X6EW18 17.25 1 P
X6EW20 35.17 1 S
X6EW20 20.59 1 P
X6EW19 33.13 1 S
X6EW19 19.01 1 P
X6EW15  9.93 1 P
X6EW15 16.85 1 S
X6BB04 40.81 1 S
X6BB04 24.23 1 P
X6BB09 15.35 1 S
X6BB09  9.01 1 P
2BNS26 23.96 1 P
2BNS25 22.24 1 P
2BNS24 37.02 1 S
2BNS24 21.00 1 P
2BNS20 23.42 1 S
2BNS20 14.37 1 P
2BNS19 19.66 1 S
2BNS19 11.85 1 P
2BNS01 18.07 1 S
2BNS01 10.86 1 P
2BNS23 19.41 1 P
2BNS22 17.90 1 P
2BNS21 16.35 1 P
2BNS02  9.61 1 P
2BNS02 16.17 1 S
2BNS03  8.08 1 P
2BGALA 19.76 1 P
2BNS04 12.01 1 S
2BNS04  7.43 1 P
X6NS05  5.59 1 P
X6NS05  9.11 1 S
X6EW10  7.39 1 P
X6EW10 12.25 1 S
X6NS06  4.57 1 P
X6NS06  7.45 1 S
2BEW05 23.83 1 P
2BEW05 39.50 1 S
2BEW06 26.69 1 P
2BEW06 44.26 1 S
X6EW09  8.85 1 P
X6EW09 14.69 1 S
2BEW08 32.67 1 P
2BEW08 54.30 1 S
2BEW02 14.59 1 P
2BEW02 24.02 1 S
2BEW07 28.56 1 P
2BEW07 47.38 1 S
2BEW01 12.12 1 P
2BEW01 20.09 1 S
2BEW03 16.25 1 P
2BEW03 26.77 1 S
X6BB15 25.99 1 P
X6BB15 43.83 1 S
X6NS07  3.23 1 P
X6NS07  5.33 1 S
X6BB14 34.63 1 P
X6BB11 26.29 1 S
X6BB11 15.87 1 P
X6BB13 43.75 1 S
X6BB13 26.47 1 P
X6BB12 32.73 1 S
X6BB12 19.65 1 P
X6NS15 28.11 1 S
X6NS15 16.37 1 P
X6NS16 31.27 1 S
X6NS16 18.39 1 P
X6NS17 35.69 1 S
X6NS17 21.85 1 P
X6NS18 40.65 1 S
X6NS18 24.11 1 P
X6NS08  3.89 1 P
X6NS08  7.03 1 S
# 2008  01  22   14    4    13.17    -27.526    -67.9303    19.64     0.0     0.0     0.0    0.34   70
X6BB24  7.11 1 P
X6BB24 11.73 1 S
X6BB01  5.73 1 P
X6BB01  9.63 1 S
X6EW20 19.37 1 P
X6EW20 32.21 1 S
X6EW19 18.61 1 P
X6EW19 31.17 1 S
X6EW18 17.95 1 P
X6EW17 26.95 1 S
X6EW17 15.99 1 P
X6EW16 25.63 1 S
X6EW16 15.33 1 P
X6BB02 15.79 1 S
X6BB02  9.59 1 P
X6EW15 28.71 1 S
X6EW15 16.67 1 P
X6BB09 34.57 1 S
X6BB09 20.47 1 P
X6EW11 17.91 1 P
X6NS08 15.29 1 P
X6NS08 26.47 1 S
2BNS22 35.51 1 P
2BNS02 26.54 1 P
X6NS07 17.73 1 P
X6NS07 29.93 1 S
X6NS09 13.19 1 P
X6NS09 22.13 1 S
2BNS03 24.72 1 P
X6NS10 17.89 1 S
X6NS05 21.25 1 P
X6NS11 10.53 1 P
X6NS11 17.23 1 S
2BNS04 23.18 1 P
X6NS06 32.49 1 S
X6NS06 19.37 1 P
2BGALA 35.83 1 P
X6EW10 35.83 1 S
X6EW10 21.25 1 P
X6NS13 10.31 1 S
X6NS13  6.19 1 P
X6EW09 35.71 1 S
X6EW09 21.29 1 P
2BEW01 22.27 1 P
2BEW02 39.67 1 S
2BEW02 24.14 1 P
2BEW03 39.64 1 S
2BEW03 23.85 1 P
X6BB11 32.35 1 S
X6BB11 19.33 1 P
2BEW06 56.44 1 S
2BEW06 33.64 1 P
X6NS14  9.79 1 S
X6NS14  5.85 1 P
2BEW07 34.59 1 P
2BEW08 38.00 1 P
X6NS15 11.69 1 S
X6NS15  6.95 1 P
X6BB15 27.09 1 P
X6BB12 14.65 1 P
X6BB12 24.67 1 S
X6BB14 33.37 1 P
X6BB14 56.19 1 S
X6BB13 23.03 1 P
X6BB13 38.37 1 S
X6NS16  6.99 1 P
X6NS17 12.45 1 S
X6NS17  7.53 1 P
X6NS18 16.17 1 S
X6NS18  9.77 1 P
# 2008  01  22   14    10    28.28    -27.5334    -67.9394    19.85     0.0     0.0     0.0    0.33   71
X6BB24  7.20 1 P
X6BB24 11.84 1 S
X6BB01  5.76 1 P
X6BB01  9.72 1 S
X6EW20 19.34 1 P
X6EW20 32.26 1 S
X6EW19 18.66 1 P
X6EW19 31.26 1 S
X6EW18 17.78 1 P
X6EW17 27.04 1 S
X6EW17 16.02 1 P
X6EW16 25.64 1 S
X6EW16 15.42 1 P
X6BB02 15.86 1 S
X6BB02  9.66 1 P
X6EW15 16.70 1 P
X6BB09 20.50 1 P
X6BB09 34.48 1 S
X6EW11 18.10 1 P
2BNS19 51.21 1 S
2BNS01 50.28 1 S
X6NS08 15.38 1 P
2BNS02 27.29 1 P
X6NS07 31.04 1 S
X6NS07 17.82 1 P
X6NS09 13.26 1 P
X6NS09 23.18 1 S
X6NS10 10.46 1 P
X6NS10 18.06 1 S
X6NS05 21.34 1 P
X6NS11 10.56 1 P
X6NS11 17.48 1 S
2BNS04 23.24 1 P
X6NS06 32.68 1 S
X6NS06 19.46 1 P
2BGALA 36.17 1 P
X6EW10 21.34 1 P
X6EW10 35.88 1 S
X6NS13 10.34 1 S
X6NS13  6.02 1 P
X6EW09 21.34 1 P
X6EW09 35.64 1 S
2BEW01 22.34 1 P
2BEW02 24.24 1 P
2BEW02 39.82 1 S
2BEW03 23.90 1 P
2BEW04 28.84 1 P
X6BB11 19.36 1 P
X6BB11 32.84 1 S
2BEW06 33.65 1 P
2BEW06 56.48 1 S
X6NS14 10.00 1 S
X6NS14  5.90 1 P
2BEW07 34.68 1 P
2BEW07 58.41 1 S
2BEW08 38.09 1 P
X6NS15 11.78 1 S
X6NS15  7.02 1 P
X6BB15 27.44 1 P
X6BB15 46.24 1 S
X6BB12 14.72 1 P
X6BB12 24.86 1 S
X6BB14 33.44 1 P
X6BB14 56.36 1 S
X6BB13 23.10 1 P
X6BB13 38.58 1 S
X6NS16 12.80 1 S
X6NS16  7.04 1 P
X6NS17 12.48 1 S
X6NS17  7.58 1 P
X6NS18 16.26 1 S
X6NS18  9.84 1 P
# 2008  01  22   14    24    58.43    -27.5273    -67.9351    19.060000000000002     0.0     0.0     0.0    0.29   72
X6BB24  7.11 1 P
X6BB24 11.73 1 S
X6BB01  5.69 1 P
X6BB01  9.57 1 S
X6EW20 19.27 1 P
X6EW20 32.11 1 S
X6EW19 18.55 1 P
X6EW19 31.11 1 S
X6BB04 27.31 1 P
X6EW18 16.79 1 P
X6EW17 26.99 1 S
X6EW17 15.95 1 P
X6EW16 25.51 1 S
X6EW16 15.31 1 P
X6BB02  9.51 1 P
X6BB02 15.73 1 S
X6EW15 28.37 1 S
X6EW15 16.57 1 P
X6BB09 34.39 1 S
X6BB09 20.43 1 P
X6NS08 15.45 1 P
2BNS02 46.18 1 S
2BNS02 27.12 1 P
X6NS07 17.71 1 P
X6NS09 13.19 1 P
X6NS09 22.11 1 S
X6NS10 17.87 1 S
X6NS05 36.71 1 S
X6NS05 21.23 1 P
X6NS11 10.51 1 P
X6NS11 17.39 1 S
2BNS04 23.37 1 P
X6NS06 32.51 1 S
X6NS06 19.55 1 P
2BGALA 36.09 1 P
X6EW10 35.95 1 S
X6EW10 21.23 1 P
X6NS13 10.21 1 S
X6NS13  6.17 1 P
X6EW09 35.67 1 S
X6EW09 21.23 1 P
2BEW01 37.13 1 S
2BEW01 22.27 1 P
2BEW02 39.62 1 S
2BEW02 24.16 1 P
2BEW03 23.83 1 P
2BEW04 47.06 1 S
2BEW04 28.65 1 P
X6BB11 32.67 1 S
X6BB11 19.29 1 P
2BEW06 56.41 1 S
2BEW06 33.64 1 P
X6NS14  9.81 1 S
X6NS14  5.85 1 P
2BEW07 34.88 1 P
X6NS15 11.65 1 S
X6NS15  6.95 1 P
X6BB15 45.71 1 S
X6BB15 27.33 1 P
X6BB12 24.61 1 S
X6BB12 14.63 1 P
X6BB14 56.15 1 S
X6BB14 33.53 1 P
X6BB13 38.35 1 S
X6BB13 23.03 1 P
X6NS16 11.97 1 S
X6NS16  6.99 1 P
X6NS17 12.41 1 S
X6NS17  7.49 1 P
X6NS18 16.37 1 S
X6NS18  9.75 1 P
