# 2008  01  01   00    48    10.18    -26.5914    -67.2805    16.740000000000002     0.0     0.0     0.0    0.28   1
X6NS16 20.28 1 P
X6NS14 31.42 1 S
X6NS12 25.82 1 S
X6NS11 21.08 1 S
X6NS11 12.92 1 P
2BNS03 10.83 1 S
2BNS03  6.53 1 P
2BNS04  7.46 1 S
2BNS04  4.70 1 P
2BNS02  9.02 1 P
2BNS19 19.23 1 S
2BNS19 11.52 1 P
2BNS20 21.11 1 S
2BNS20 13.02 1 P
2BNS21 23.58 1 S
2BNS21 14.38 1 P
2BNS22 16.09 1 P
2BNS24 19.37 1 P
2BGALA 16.08 1 P
2BGALA 26.59 1 S
2BEW05 29.15 1 S
2BEW06 20.57 1 P
2BEW22 47.23 1 S
2BEW08 44.38 1 S
2BEW08 26.77 1 P
2BEW07 22.74 1 P
2BEW02  8.64 1 P
2BEW02 14.08 1 S
2BEW03 10.62 1 P
2BEW03 17.51 1 S
2BEW01  6.42 1 P
2BEW01 10.60 1 S
X6BB13 39.82 1 S
X6BB13 23.64 1 P
X6BB11 20.46 1 S
X6BB11 12.12 1 P
# 2008  01  01   09    3    3.01    -26.7383    -66.1851    27.330000000000002     0.0     0.0     0.0    0.23   2
X6BB13 19.23 1 P
X6BB13 32.21 1 S
2BEW05  5.13 1 P
2BEW05  8.41 1 S
X6BB12 38.09 1 S
X6NS17 52.03 1 S
X6NS16 50.01 1 S
X6BB11 26.61 1 S
X6BB11 15.93 1 P
X6NS12 48.33 1 S
2BEW03 11.20 1 P
2BEW03 18.57 1 S
X6NS11 45.23 1 S
X6NS11 27.05 1 P
2BEW02 12.06 1 P
2BEW02 19.93 1 S
2BEW01 14.93 1 P
2BEW01 24.87 1 S
2BNS04 20.91 1 P
2BNS03 37.29 1 S
2BNS03 22.38 1 P
2BNS02 24.11 1 P
2BNS19 25.39 1 P
2BNS19 42.09 1 S
2BNS20 25.70 1 P
2BNS20 42.40 1 S
2BNS22 26.58 1 P
2BNS24 48.18 1 S
2BGALA 21.66 1 P
2BGALA 36.25 1 S
2BEW24 16.02 1 P
2BEW24 27.66 1 S
2BEW22 10.49 1 P
2BEW22 17.51 1 S
2BEW08  9.04 1 P
2BEW08 15.05 1 S
2BEW07  6.35 1 P
2BEW07 10.60 1 S
2BEW06  5.27 1 P
2BEW06  8.69 1 S
# 2008  01  03   05    36    11.42    -25.9514    -66.778    2.27     0.0     0.0     0.0    0.14   5
2BEW03 17.46 1 P
2BEW03 29.27 1 S
2BEW02 15.47 1 P
2BEW02 25.75 1 S
X6BB11 22.78 1 P
X6BB11 38.16 1 S
2BEW01 15.88 1 P
2BNS04 13.25 1 P
2BNS04 21.99 1 S
2BNS03 12.84 1 P
2BNS02 12.74 1 P
2BNS01 12.08 1 P
2BNS01 20.14 1 S
2BNS19 11.47 1 P
2BNS19 19.18 1 S
2BNS20 10.59 1 P
2BNS20 17.49 1 S
2BNS21  9.40 1 P
2BNS21 15.71 1 S
2BGALA  3.74 1 P
2BGALA  6.36 1 S
2BNS22  9.56 1 P
2BNS22 15.89 1 S
2BNS24 10.78 1 P
2BNS24 17.70 1 S
2BNS25 11.28 1 P
2BNS25 18.60 1 S
2BNS26 13.01 1 P
2BEW22 45.54 1 S
2BEW08 42.99 1 S
2BEW07 37.86 1 S
2BEW06 20.85 1 P
2BEW06 35.12 1 S
2BEW05 18.17 1 P
2BEW05 30.44 1 S
# 2008  01  03   21    36    20.53    -26.4465    -66.4141    6.38     0.0     0.0     0.0    0.32   6
X6BB13 23.19 1 P
X6BB13 39.43 1 S
X6BB12 24.33 1 P
X6BB12 43.63 1 S
X6NS18 34.49 1 P
X6NS18 58.67 1 S
X6BB11 16.15 1 P
X6BB11 27.13 1 S
2BEW03 10.11 1 P
2BEW03 16.98 1 S
X6NS16 30.35 1 P
X6NS16 51.01 1 S
X6NS14 49.75 1 S
2BEW02 15.83 1 S
2BEW02  9.43 1 P
X6NS13 49.73 1 S
X6NS11 25.57 1 P
X6NS11 42.59 1 S
2BEW01 11.94 1 P
2BEW01 19.93 1 S
2BNS04 15.99 1 P
2BNS04 26.59 1 S
2BNS03 17.05 1 P
2BNS03 28.32 1 S
2BNS02 18.42 1 P
2BNS02 30.84 1 S
2BNS01 19.11 1 P
2BNS01 32.32 1 S
2BNS19 19.20 1 P
2BNS19 32.00 1 S
2BNS20 19.38 1 P
2BNS20 32.01 1 S
2BNS21 19.16 1 P
2BNS22 19.86 1 P
2BNS22 33.52 1 S
2BNS24 21.75 1 P
2BNS24 36.85 1 S
2BGALA 14.83 1 P
2BGALA 25.04 1 S
2BNS25 22.39 1 P
2BNS26 40.72 1 S
2BEW22 26.68 1 S
2BEW22 15.86 1 P
2BEW08 24.28 1 S
2BEW08 14.33 1 P
2BEW07 18.76 1 S
2BEW07 11.27 1 P
2BEW06 16.11 1 S
2BEW06  9.14 1 P
2BEW05 11.68 1 S
2BEW05  7.11 1 P
# 2008  01  04   06    2    46.76    -25.8471    -67.3258    10.1     0.0     0.0     0.0    0.22   7
2BNS04 11.03 1 P
2BNS02  7.53 1 P
2BNS01  5.71 1 P
2BNS01  9.29 1 S
2BNS19  4.62 1 P
2BNS19  7.45 1 S
2BNS20  2.79 1 P
2BNS20  4.35 1 S
2BNS21  2.07 1 P
2BNS21  3.23 1 S
2BNS26  8.87 1 P
2BNS26 15.31 1 S
2BNS25  6.75 1 P
2BNS25 11.80 1 S
2BNS22  2.68 1 P
2BNS22  4.20 1 S
2BGALA  7.22 1 P
2BGALA 11.87 1 S
# 2008  01  04   07    54    12.07    -26.2063    -67.8322    10.87     0.0     0.0     0.0    0.28   8
X6EW17 17.64 1 P
X6EW17 29.60 1 S
X6EW18 18.93 1 P
X6EW18 32.66 1 S
X6EW19 34.17 1 S
X6EW20 21.43 1 P
X6EW20 36.31 1 S
X6BB04 21.82 1 P
2BNS26 18.25 1 P
2BNS26 31.28 1 S
2BNS25 17.07 1 P
2BNS22 22.94 1 S
2BNS22 13.24 1 P
2BNS21 11.91 1 P
2BNS20  9.75 1 P
2BNS20 16.30 1 S
2BNS19  8.32 1 P
2BNS19 14.02 1 S
2BGALA 17.39 1 P
2BGALA 29.02 1 S
2BNS01  7.69 1 P
2BNS01 13.00 1 S
2BNS02  7.77 1 P
2BNS02 12.69 1 S
2BNS03  8.40 1 P
2BNS03 14.21 1 S
2BEW06 31.39 1 P
2BNS04  9.78 1 P
2BEW02 19.93 1 P
2BEW02 33.36 1 S
2BEW03 22.16 1 P
2BEW03 37.58 1 S
2BEW01 17.98 1 P
2BEW01 29.89 1 S
X6BB11 39.32 1 S
X6BB11 23.75 1 P
X6NS11 29.68 1 S
X6NS12 20.32 1 P
X6NS12 33.76 1 S
# 2008  01  04   18    55    50.57    -26.7605    -68.2047    7.640000000000001     0.0     0.0     0.0    0.53   9
X6EW17  5.37 1 P
X6EW17  9.49 1 S
X6EW18  7.51 1 P
X6EW18 13.43 1 S
X6EW20 10.81 1 P
X6EW20 18.29 1 S
X6EW19  9.25 1 P
X6EW19 15.73 1 S
X6BB04 15.61 1 P
X6BB04 26.29 1 S
2BGALA 28.47 1 P
2BNS02 17.72 1 P
2BNS03 16.64 1 P
2BNS04 27.55 1 S
2BNS04 16.42 1 P
2BEW03 41.56 1 S
X6BB11 38.01 1 S
X6BB11 23.17 1 P
X6BB13 54.85 1 S
X6BB13 31.85 1 P
X6NS11 18.47 1 S
X6NS11 11.01 1 P
X6NS12 12.21 1 P
X6NS15 17.41 1 P
X6NS13 13.65 1 P
X6NS13 26.39 1 S
X6NS14 16.23 1 P
X6NS14 30.03 1 S
X6NS16 18.85 1 P
X6NS18 41.11 1 S
X6BB24 33.93 1 S
X6BB24 20.13 1 P
# 2008  01  04   20    31    29.69    -25.9444    -66.7758    4.99     0.0     0.0     0.0    0.16   10
2BEW02 15.45 1 P
2BEW02 25.75 1 S
X6BB11 22.73 1 P
2BEW01 27.20 1 S
2BEW01 15.86 1 P
2BNS04 13.19 1 P
2BNS03 12.82 1 P
2BNS02 12.97 1 P
2BNS01 12.19 1 P
2BNS01 20.03 1 S
2BNS19 18.93 1 S
2BNS20 17.42 1 S
2BNS20 10.56 1 P
2BNS21 15.64 1 S
2BNS21  9.35 1 P
2BNS22 15.88 1 S
2BNS22  9.51 1 P
2BGALA  3.71 1 P
2BGALA  6.37 1 S
2BNS25 18.68 1 S
2BNS25 11.23 1 P
2BNS26 21.49 1 S
2BNS26 12.93 1 P
2BEW08 43.03 1 S
2BEW07 38.56 1 S
2BEW06 35.11 1 S
2BEW06 20.59 1 P
2BEW05 30.44 1 S
2BEW03 17.47 1 P
# 2008  01  04   23    3    14.52    -26.4831    -67.5115    5.859999999999999     0.0     0.0     0.0    0.49   11
X6NS11 13.44 1 P
2BNS01 13.80 1 S
2BNS01  7.86 1 P
2BNS19 15.17 1 S
2BNS20 17.66 1 S
2BNS20 10.59 1 P
2BNS02  6.32 1 P
2BNS26 38.49 1 S
2BNS26 21.04 1 P
2BNS25 18.75 1 P
2BNS21 12.55 1 P
2BNS22 14.00 1 P
2BNS22 25.74 1 S
2BNS03  4.20 1 P
2BNS03  6.46 1 S
2BGALA 15.88 1 P
2BGALA 26.80 1 S
2BNS04  3.34 1 P
2BNS04  5.20 1 S
2BEW06 24.93 1 P
2BEW02 12.71 1 P
2BEW02 20.97 1 S
2BEW03 14.91 1 P
2BEW03 24.89 1 S
2BEW01 10.52 1 P
2BEW01 17.56 1 S
X6BB11 26.90 1 S
X6BB11 16.30 1 P
# 2008  01  06   19    17    1.09    -26.8823    -65.9015    9.75     0.0     0.0     0.0    0.38   13
X6NS18 35.25 1 P
X6NS18 59.21 1 S
X6BB12 24.96 1 P
X6BB12 41.64 1 S
X6NS16 54.40 1 S
2BEW07  5.83 1 S
2BEW07  3.49 1 P
X6NS14 56.00 1 S
X6BB11 19.09 1 P
X6BB11 31.55 1 S
X6NS13 56.53 1 S
X6BB01 68.02 1 S
X6NS12 33.63 1 P
X6NS11 52.44 1 S
2BEW06  4.47 1 P
2BEW06  7.32 1 S
2BEW03 14.98 1 P
2BEW01 19.46 1 P
2BEW02 27.43 1 S
2BEW05  7.41 1 P
2BEW05 12.23 1 S
2BNS04 26.21 1 P
2BNS04 43.75 1 S
2BNS03 27.89 1 P
2BNS03 46.51 1 S
2BNS02 29.73 1 P
2BNS25 33.19 1 P
2BEW24 10.20 1 P
2BEW24 17.87 1 S
2BEW22  4.33 1 P
2BEW22  7.20 1 S
2BEW08  2.91 1 P
2BEW08  4.85 1 S
# 2008  01  06   19    48    5.97    -27.3314    -66.5796    11.9     0.0     0.0     0.0    0.75   14
X6BB13  5.89 1 P
X6NS18 22.33 1 P
X6NS18 37.01 1 S
X6BB12 19.53 1 S
X6BB12 10.15 1 P
X6NS16 18.57 1 P
X6NS14 19.77 1 P
X6BB01 27.21 1 P
X6NS11 18.99 1 P
X6BB11  7.51 1 P
X6BB11 15.09 1 S
2BNS04 21.31 1 P
2BNS03 23.20 1 P
2BEW01 13.26 1 P
2BEW02 11.55 1 P
2BEW03  9.47 1 P
2BGALA 29.92 1 P
2BGALA 51.28 1 S
2BEW05 11.51 1 P
2BEW06 12.45 1 P
2BEW07 22.91 1 S
2BEW07 13.30 1 P
# 2008  01  07   00    56    5.02    -26.0656    -66.7113    5.35     0.0     0.0     0.0    0.2   15
2BEW03 15.10 1 P
2BEW03 25.87 1 S
2BEW02 13.27 1 P
2BEW02 22.59 1 S
X6BB11 20.57 1 P
X6BB11 34.72 1 S
2BEW01 14.03 1 P
2BEW01 24.05 1 S
2BNS04 12.68 1 P
2BNS04 21.19 1 S
2BNS03 12.76 1 P
2BNS02 13.25 1 P
2BNS01 12.93 1 P
2BNS01 21.50 1 S
2BNS19 12.42 1 P
2BNS19 20.67 1 S
2BNS20 11.93 1 P
2BNS20 19.75 1 S
2BNS21 11.17 1 P
2BNS21 18.64 1 S
2BNS24 13.02 1 P
2BNS24 21.51 1 S
2BGALA  6.10 1 P
2BGALA 10.43 1 S
2BNS25 13.66 1 P
2BNS25 22.71 1 S
2BEW08 38.71 1 S
2BEW07 34.35 1 S
2BEW06 18.50 1 P
2BEW06 30.64 1 S
2BEW05 26.00 1 S
X6BB13 50.99 1 S
# 2008  01  07   03    46    42.14    -25.8395    -67.3335    9.82     0.0     0.0     0.0    0.27   17
2BNS04 10.99 1 P
2BNS04 19.87 1 S
2BNS02  7.61 1 P
2BNS01  9.30 1 S
2BNS01  5.70 1 P
2BNS19  4.60 1 P
2BNS19  7.50 1 S
2BNS20  2.79 1 P
2BNS20  4.34 1 S
2BNS21  2.06 1 P
2BNS21  2.91 1 S
2BNS24  5.45 1 P
2BNS25  6.81 1 P
2BNS25 11.83 1 S
2BGALA  7.22 1 P
2BGALA 11.85 1 S
# 2008  01  07   14    5    51.21    -26.7842    -68.189    3.91     0.0     0.0     0.0    0.22   18
X6EW16  2.77 1 P
X6EW17  5.41 1 P
X6EW17  9.55 1 S
X6EW18  7.55 1 P
X6EW18 13.49 1 S
X6EW20 10.89 1 P
X6EW20 18.35 1 S
X6EW19  9.31 1 P
X6EW19 15.77 1 S
X6BB04 15.87 1 P
2BNS02 17.78 1 P
2BNS03 16.66 1 P
2BNS04 16.44 1 P
X6NS14 16.29 1 P
X6BB24 20.13 1 P
X6BB24 33.93 1 S
X6BB01 21.99 1 S
X6BB01 12.69 1 P
# 2008  01  07   21    56    23.64    -27.1834    -65.9203    16.16     0.0     0.0     0.0    0.13   19
X6BB14  8.48 1 P
X6BB14 14.44 1 S
X6BB13 14.94 1 P
X6BB13 25.02 1 S
X6NS18 53.86 1 S
X6NS16 51.32 1 S
2BEW03 16.03 1 P
2BEW03 26.81 1 S
2BEW01 20.71 1 P
2BEW01 34.68 1 S
2BEW02 17.92 1 P
2BEW02 29.78 1 S
2BNS03 50.39 1 S
2BNS20 57.37 1 S
2BEW05 10.39 1 P
2BEW05 17.24 1 S
2BGALA 52.25 1 S
2BEW06 13.30 1 S
2BEW06  7.84 1 P
2BEW07 11.85 1 S
2BEW07  6.87 1 P
2BEW08  9.96 1 S
2BEW08  6.03 1 P
2BEW22 11.33 1 S
2BEW22  6.71 1 P
2BEW24 18.53 1 S
# 2008  01  08   02    33    3.54    -26.4381    -67.0718    4.970000000000001     0.0     0.0     0.0    0.28   20
2BNS04  4.63 1 P
2BNS04  7.75 1 S
2BNS03  6.04 1 P
2BNS03  9.98 1 S
2BNS02  8.12 1 P
2BNS02 13.54 1 S
2BNS01  9.70 1 P
2BNS01 15.79 1 S
2BNS19 10.08 1 P
2BNS19 17.12 1 S
2BNS20 11.02 1 P
2BNS20 18.17 1 S
2BNS22 21.84 1 S
2BGALA 12.22 1 P
2BGALA 20.16 1 S
2BEW02 12.31 1 S
2BEW02  7.26 1 P
2BEW03 16.43 1 S
2BEW03  9.89 1 P
2BEW01 10.75 1 S
2BEW01  6.10 1 P
# 2008  01  08   02    36    1.48    -26.4397    -67.073    5.46     0.0     0.0     0.0    0.27   21
2BNS04  4.64 1 P
2BNS04  7.77 1 S
2BNS03  6.06 1 P
2BNS03  9.98 1 S
2BNS02  8.14 1 P
2BNS02 13.57 1 S
2BNS01  9.83 1 P
2BNS01 15.80 1 S
2BNS19 10.13 1 P
2BNS19 16.48 1 S
2BNS20 11.05 1 P
2BNS20 18.18 1 S
2BNS22 21.86 1 S
2BNS23 15.19 1 P
2BNS25 30.39 1 S
2BGALA 12.27 1 P
2BGALA 20.16 1 S
2BEW06 18.13 1 P
2BEW02  7.30 1 P
2BEW02 12.26 1 S
2BEW03  9.68 1 P
2BEW03 16.41 1 S
2BEW01  6.16 1 P
2BEW01 10.76 1 S
# 2008  01  08   10    53    1.06    -25.837    -67.3357    8.89     0.0     0.0     0.0    0.23   22
2BNS04 10.96 1 P
2BNS04 19.79 1 S
2BNS03  9.25 1 P
2BNS03 15.87 1 S
2BNS02  7.61 1 P
2BNS01  9.27 1 S
2BNS01  5.70 1 P
2BNS19  4.61 1 P
2BNS19  7.44 1 S
2BNS20  2.79 1 P
2BNS20  4.35 1 S
2BNS21  1.90 1 P
2BNS21  2.91 1 S
2BNS26  8.77 1 P
2BNS24  5.45 1 P
2BNS25 11.79 1 S
2BNS25  6.74 1 P
2BNS22  2.67 1 P
2BNS22  4.19 1 S
2BGALA  7.21 1 P
2BGALA 11.86 1 S
2BEW02 32.83 1 S
2BEW02 19.66 1 P
2BEW01 18.25 1 P
# 2008  01  10   17    9    54.16    -27.3196    -66.588    6.41     0.0     0.0     0.0    0.57   24
X6BB13  6.04 1 P
X6BB13 10.86 1 S
X6NS18 23.54 1 P
X6NS18 35.52 1 S
X6NS17 19.16 1 P
X6BB12 17.92 1 S
X6BB12 10.30 1 P
X6BB24 27.26 1 P
X6NS16 31.34 1 S
X6NS16 18.26 1 P
X6NS15 30.56 1 S
X6NS15 17.80 1 P
X6NS14 19.38 1 P
X6BB01 47.46 1 S
X6BB01 27.24 1 P
X6NS13 20.54 1 P
X6NS13 36.40 1 S
X6NS12 20.54 1 P
X6NS11 19.16 1 P
X6EW18 35.28 1 P
X6EW19 37.18 1 P
X6BB11 13.60 1 S
X6BB11  7.74 1 P
X6EW10 18.06 1 P
2BNS04 21.31 1 P
2BNS03 23.31 1 P
2BEW01 13.32 1 P
2BNS02 25.93 1 P
2BEW02 20.21 1 S
2BEW02 11.68 1 P
2BEW03 16.56 1 S
2BEW03  9.61 1 P
2BNS22 31.80 1 P
2BGALA 28.98 1 P
2BEW05 19.65 1 S
2BEW05 11.57 1 P
2BEW06 12.30 1 P
2BEW07 12.95 1 P
2BEW08 15.82 1 P
X6BB15  7.22 1 S
X6BB15  3.98 1 P
X6BB14 20.46 1 S
X6BB14 11.82 1 P
# 2008  01  10   20    48    45.49    -26.5125    -67.3883    22.380000000000003     0.0     0.0     0.0    0.7   25
X6NS11 21.14 1 S
2BNS02 12.33 1 S
2BNS02  8.41 1 P
2BNS03  8.79 1 S
2BNS03  6.02 1 P
2BNS20 18.25 1 S
2BNS20 12.22 1 P
2BNS04  6.28 1 S
2BNS04  4.60 1 P
2BGALA 15.22 1 P
2BGALA 24.84 1 S
2BEW02 17.85 1 S
2BEW01  9.61 1 P
2BEW01 14.62 1 S
X6EW10  7.57 1 S
X6EW10  5.48 1 P
# 2008  01  11   12    44    24.96    -26.9763    -67.039    11.969999999999999     0.0     0.0     0.0    0.13   26
X6NS05 11.14 1 P
X6NS05 18.70 1 S
X6EW10  8.82 1 P
X6EW10 14.42 1 S
X6EW09  6.86 1 P
X6EW09 11.70 1 S
2BNS04 11.94 1 P
2BNS04 19.92 1 S
2BEW01  5.12 1 P
2BEW01  8.54 1 S
2BEW02  5.75 1 P
2BEW02  9.89 1 S
2BEW03  5.92 1 P
2BEW03  9.86 1 S
X6BB11  3.90 1 P
X6BB11  6.82 1 S
# 2008  01  11   21    16    38.43    -26.7614    -67.374    13.33     0.0     0.0     0.0    0.26   27
X6NS16 16.61 1 P
X6NS14 25.59 1 S
X6NS14 14.87 1 P
X6NS11 15.57 1 S
X6NS05  5.53 1 P
X6NS05  9.15 1 S
2BNS19 14.30 1 P
2BNS03 14.83 1 S
2BNS03  8.88 1 P
2BNS20 15.73 1 P
2BNS04  6.96 1 P
2BNS04 11.55 1 S
2BNS24 22.25 1 P
2BGALA 19.37 1 P
X6EW10  7.43 1 S
X6EW10  4.57 1 P
X6EW09  7.89 1 S
X6EW09  4.43 1 P
2BEW01  7.13 1 P
2BEW01 11.74 1 S
2BEW02 10.16 1 P
2BEW02 15.55 1 S
2BEW03 11.00 1 P
2BEW03 17.98 1 S
X6BB11 17.51 1 S
X6BB11 10.63 1 P
X6BB13 35.99 1 S
X6BB13 21.61 1 P
# 2008  01  11   21    59    39.51    -26.8389    -66.1816    21.73     0.0     0.0     0.0    0.15   28
X6BB15 18.23 1 S
X6BB11 24.95 1 S
X6BB11 15.09 1 P
2BEW03 17.74 1 S
2BEW03 10.64 1 P
2BEW05  7.16 1 S
2BEW05  4.33 1 P
2BEW01 24.58 1 S
2BEW01 14.83 1 P
2BEW02 19.69 1 S
2BEW02 11.90 1 P
X6EW09 30.43 1 S
X6NS05 37.03 1 S
2BNS04 35.75 1 S
2BNS03 38.65 1 S
2BNS22 28.04 1 P
2BGALA 39.42 1 S
2BEW22 15.89 1 S
2BEW08  8.04 1 P
2BEW08 13.33 1 S
2BEW07  4.86 1 P
2BEW07  8.10 1 S
2BEW06  3.92 1 P
2BEW06  6.44 1 S
X6BB14 15.19 1 P
X6BB14 26.03 1 S
# 2008  01  12   00    44    10.24    -27.172    -65.733    19.830000000000002     0.0     0.0     0.0    0.18   29
X6BB14  9.66 1 P
X6BB14 16.18 1 S
X6BB13 17.74 1 P
X6BB13 29.92 1 S
X6NS18 58.88 1 S
X6BB15 20.08 1 S
X6BB15 12.10 1 P
X6BB12 42.62 1 S
X6BB12 25.38 1 P
X6NS16 56.32 1 S
X6NS16 33.26 1 P
X6NS14 58.26 1 S
X6NS13 35.34 1 P
X6BB11 35.78 1 S
X6BB11 21.40 1 P
2BEW03 31.73 1 S
2BEW03 18.88 1 P
X6NS06 51.82 1 S
X6NS06 31.08 1 P
X6EW09 45.76 1 S
X6EW09 26.86 1 P
2BEW01 39.38 1 S
2BEW01 23.48 1 P
X6EW10 47.84 1 S
X6EW10 28.54 1 P
X6NS05 31.32 1 P
2BNS04 30.70 1 P
2BNS04 51.29 1 S
2BNS02 34.67 1 P
2BNS20 36.51 1 P
2BEW06  9.63 1 P
2BEW06 16.29 1 S
2BNS22 37.43 1 P
2BEW07 14.34 1 S
2BEW07  8.55 1 P
2BGALA 32.52 1 P
2BGALA 54.72 1 S
2BEW08 10.10 1 S
2BEW08  5.86 1 P
2BEW24 14.00 1 S
2BEW24  7.90 1 P
# 2008  01  12   05    9    27.83    -26.4218    -67.4625    5.640000000000001     0.0     0.0     0.0    0.28   30
X6NS06  3.84 1 P
X6NS06  6.54 1 S
X6NS07  5.23 1 P
X6NS07 10.08 1 S
2BNS01  6.68 1 P
2BNS19  7.61 1 P
2BNS19 13.66 1 S
2BNS02  5.01 1 P
2BNS20  9.66 1 P
2BNS20 15.67 1 S
2BNS03  2.80 1 P
2BNS03  4.62 1 S
2BNS04  2.34 1 P
2BNS04  4.07 1 S
2BEW01 10.25 1 P
2BEW01 17.79 1 S
X6EW10  4.80 1 P
X6EW10  8.31 1 S
X6EW09  7.15 1 P
X6EW09 12.76 1 S
X6NS05  2.03 1 P
X6NS05  3.93 1 S
# 2008  01  12   12    35    46.73    -27.0568    -66.0372    15.219999999999999     0.0     0.0     0.0    0.27   31
X6BB13 15.33 1 P
X6BB13 25.51 1 S
X6BB15  8.57 1 P
X6BB15 14.29 1 S
X6NS18 53.49 1 S
X6BB12 35.85 1 S
X6BB12 21.63 1 P
X6NS16 48.89 1 S
X6NS16 29.25 1 P
X6NS14 50.25 1 S
X6NS14 29.95 1 P
X6NS13 51.73 1 S
X6NS13 30.63 1 P
X6NS12 50.55 1 S
X6BB11 16.27 1 P
X6BB11 27.31 1 S
X6NS11 28.29 1 P
X6NS11 47.79 1 S
X6NS07 27.13 1 P
X6NS07 45.83 1 S
2BEW03 13.37 1 P
2BEW03 22.43 1 S
X6NS06 25.47 1 P
X6NS06 42.93 1 S
2BEW01 17.99 1 P
2BEW01 30.05 1 S
X6EW09 21.41 1 P
X6EW09 35.89 1 S
X6EW10 22.97 1 P
X6EW10 38.31 1 S
X6NS05 25.73 1 P
X6NS05 42.79 1 S
2BNS04 25.34 1 P
2BNS04 42.09 1 S
2BNS03 27.05 1 P
2BNS02 28.99 1 P
2BNS01 50.76 1 S
2BNS19 51.80 1 S
2BNS20 31.27 1 P
2BNS20 52.19 1 S
2BNS22 32.63 1 P
2BNS22 54.60 1 S
2BNS24 34.99 1 P
2BGALA 27.85 1 P
2BGALA 46.92 1 S
2BEW06  8.64 1 S
2BEW06  5.14 1 P
2BEW07  7.48 1 S
2BEW07  4.42 1 P
2BEW08  9.29 1 S
2BEW08  5.53 1 P
2BEW24 20.85 1 S
X6BB14 10.61 1 P
X6BB14 17.67 1 S
# 2008  01  12   12    46    38.21    -25.8334    -67.3324    9.27     0.0     0.0     0.0    0.36   32
2BNS04 10.97 1 P
X6NS05 12.93 1 P
X6NS05 24.37 1 S
2BNS03 15.91 1 S
2BNS03  9.26 1 P
2BNS02  7.62 1 P
2BNS01  5.69 1 P
2BNS19  4.61 1 P
2BNS19  7.60 1 S
2BNS20  2.79 1 P
2BNS20  4.51 1 S
2BNS21  1.93 1 P
2BNS21  2.89 1 S
2BNS24  5.47 1 P
2BNS24  8.91 1 S
2BNS25  6.77 1 P
2BNS25 11.76 1 S
2BNS22  2.69 1 P
2BNS22  4.22 1 S
2BGALA  7.22 1 P
2BGALA 11.83 1 S
X6EW10 14.71 1 P
# 2008  01  12   16    7    36.2    -26.8976    -66.1098    4.68     0.0     0.0     0.0    0.1   33
2BEW03 11.38 1 P
2BEW03 19.00 1 S
2BEW01 15.90 1 P
2BNS04 22.91 1 P
2BNS04 38.77 1 S
2BNS03 24.69 1 P
2BNS02 26.62 1 P
2BEW06  1.32 1 P
2BEW06  2.16 1 S
2BEW07  1.78 1 P
2BEW07  3.14 1 S
2BEW08  5.90 1 P
2BEW08  9.93 1 S
X6BB14 13.68 1 P
X6BB14 23.36 1 S
# 2008  01  12   19    14    36.89    -27.3243    -66.6035    6.77     0.0     0.0     0.0    0.38   34
X6BB13  5.79 1 P
X6BB12  9.93 1 P
X6BB24 27.07 1 P
X6NS16 18.29 1 P
X6NS16 32.29 1 S
X6NS15 17.63 1 P
X6NS15 30.47 1 S
X6NS14 19.57 1 P
X6BB01 27.47 1 P
X6NS13 20.65 1 P
X6NS12 20.03 1 P
X6EW18 35.73 1 P
X6BB11 13.59 1 S
X6BB11  7.39 1 P
X6NS06 19.39 1 P
X6NS05 20.83 1 P
X6EW09 15.97 1 P
X6EW10 18.07 1 P
2BNS04 21.06 1 P
2BNS03 22.95 1 P
2BNS02 25.80 1 P
2BEW01 13.07 1 P
2BNS22 32.16 1 P
2BNS24 35.02 1 P
2BEW03  9.30 1 P
2BGALA 29.23 1 P
2BEW06 12.26 1 P
2BEW06 21.49 1 S
2BEW07 13.16 1 P
2BEW07 22.71 1 S
2BEW08 15.75 1 P
2BEW08 27.75 1 S
X6BB15  3.87 1 P
X6BB15  7.61 1 S
X6BB14 12.13 1 P
X6BB14 21.33 1 S
# 2008  01  13   03    17    24.94    -25.6799    -67.1662    12.85     0.0     0.0     0.0    0.19   35
2BNS03 12.86 1 P
2BNS02 11.44 1 P
2BNS01  9.62 1 P
2BNS01 15.95 1 S
2BNS19  8.49 1 P
2BNS19 13.98 1 S
2BNS20  6.67 1 P
2BNS20 10.75 1 S
2BNS21  4.78 1 P
2BNS22  3.58 1 P
2BNS22  5.59 1 S
2BNS24  3.22 1 P
2BNS24  4.99 1 S
2BNS25  3.94 1 P
2BNS25  6.28 1 S
2BNS26  5.78 1 P
2BNS26  9.94 1 S
2BGALA  5.84 1 P
2BGALA  9.34 1 S
# 2008  01  13   15    9    20.88    -25.9479    -66.7781    2.2     0.0     0.0     0.0    0.26   36
2BEW02 15.42 1 P
2BEW02 25.74 1 S
X6BB11 22.78 1 P
X6BB11 38.34 1 S
2BEW01 15.84 1 P
X6EW09 16.30 1 P
X6EW10 15.16 1 P
X6EW10 25.30 1 S
X6NS06 18.22 1 P
X6NS06 28.62 1 S
X6NS08 38.76 1 S
X6NS05 26.02 1 S
X6NS05 15.22 1 P
2BNS04 13.20 1 P
2BNS04 21.94 1 S
2BNS03 12.78 1 P
2BNS02 21.25 1 S
2BNS02 12.84 1 P
2BNS01 20.16 1 S
2BNS01 12.10 1 P
2BNS19 11.43 1 P
2BNS19 19.07 1 S
2BNS20 10.56 1 P
2BNS20 17.45 1 S
2BNS21  9.35 1 P
2BNS21 15.66 1 S
2BNS22  9.51 1 P
2BNS22 15.85 1 S
2BNS24 10.70 1 P
2BNS24 17.65 1 S
2BGALA  3.70 1 P
2BGALA  6.31 1 S
2BNS25 11.41 1 P
2BNS25 18.54 1 S
2BNS26 12.90 1 P
2BEW07 38.61 1 S
2BEW06 35.09 1 S
2BEW05 18.15 1 P
2BEW05 30.41 1 S
# 2008  01  14   16    28    16.77    -26.9664    -68.011    10.040000000000001     0.0     0.0     0.0    0.26   38
X6BB24 16.79 1 P
X6BB24 28.57 1 S
X6BB01  9.61 1 P
X6BB01 16.37 1 S
X6EW19 12.17 1 P
X6EW17  8.21 1 P
X6EW16  6.09 1 P
X6EW16 10.19 1 S
2BNS02 30.88 1 S
2BNS03 16.74 1 P
2BNS04 15.55 1 P
2BNS04 26.35 1 S
X6NS05 13.59 1 P
X6NS05 23.09 1 S
X6NS07 10.17 1 P
X6NS07 17.31 1 S
X6NS06 12.33 1 P
X6NS06 20.37 1 S
X6NS08  7.69 1 P
X6NS08 13.13 1 S
X6EW10 14.81 1 P
X6EW10 25.09 1 S
2BEW01 18.02 1 P
X6NS09  6.81 1 P
X6NS09 11.65 1 S
X6NS11  6.25 1 P
X6NS11 10.75 1 S
X6NS12  7.27 1 P
X6NS12 12.37 1 S
X6NS13 16.21 1 S
# 2008  01  15   04    16    48.1    -27.052    -65.7072    3.97     0.0     0.0     0.0    0.16   40
X6BB14 11.84 1 P
X6BB14 19.66 1 S
X6BB15 12.80 1 P
X6BB15 21.52 1 S
2BEW03 18.54 1 P
2BEW03 31.31 1 S
2BEW01 23.54 1 P
2BEW01 39.68 1 S
2BEW02 20.20 1 P
2BEW02 33.70 1 S
2BNS04 30.52 1 P
2BNS04 51.38 1 S
2BNS03 31.95 1 P
2BNS03 53.79 1 S
2BEW05 19.13 1 S
2BEW07  7.06 1 P
2BEW07 11.97 1 S
2BEW06  8.32 1 P
2BEW06 13.90 1 S
2BGALA 53.00 1 S
2BEW08  4.89 1 S
2BEW08  2.87 1 P
2BEW22  4.15 1 S
2BEW22  2.29 1 P
2BEW24  6.42 1 P
