# 2008  01  26   15    36    19.66    -26.9901    -67.01    11.1     0.0     0.0     0.0    0.22   126
X6NS10 11.80 1 P
X6NS10 19.72 1 S
X6NS09 11.52 1 P
X6NS09 19.32 1 S
X6NS08 12.08 1 P
X6NS08 21.46 1 S
X6NS07 11.48 1 P
X6NS07 19.36 1 S
X6NS06 10.62 1 P
X6NS06 17.56 1 S
X6NS05 11.68 1 P
X6NS05 19.44 1 S
X6EW10  9.32 1 P
X6EW10 15.16 1 S
2BNS04 12.33 1 P
2BNS04 20.62 1 S
2BNS03 24.31 1 S
2BEW01  9.03 1 S
2BEW01  5.37 1 P
2BEW02  9.87 1 S
2BEW02  5.92 1 P
2BEW03  9.28 1 S
2BEW03  5.60 1 P
2BEW04 16.63 1 S
2BEW04  9.94 1 P
2BEW06 26.91 1 S
X6BB11  3.52 1 P
X6BB11  5.94 1 S
# 2008  01  26   22    52    34.05    -27.6119    -67.505    25.5     0.0     0.0     0.0    0.46   127
X6NS18  7.95 1 P
X6NS18 11.65 1 S
X6NS17  4.97 1 P
X6NS17  8.57 1 S
X6BB24 11.49 1 P
X6BB24 19.97 1 S
X6BB01 12.85 1 P
X6BB01 21.79 1 S
X6NS16  8.69 1 S
X6EW19 41.89 1 S
X6BB02 14.65 1 P
X6BB02 24.89 1 S
X6NS14 11.61 1 S
X6NS14  6.97 1 P
X6EW16 20.61 1 P
X6EW16 34.71 1 S
X6NS13 14.91 1 S
X6NS13  8.77 1 P
X6EW15 20.81 1 P
X6EW15 35.45 1 S
X6NS15  9.61 1 S
X6NS15  5.51 1 P
X6BB09 23.59 1 P
X6NS11 18.49 1 S
X6NS11 10.87 1 P
X6NS10 20.25 1 S
X6NS10 11.77 1 P
X6NS09 24.33 1 S
X6NS09 14.23 1 P
X6NS08 28.63 1 S
X6NS08 16.49 1 P
X6NS07 31.47 1 S
X6NS07 18.41 1 P
2BNS02 26.95 1 P
X6NS06 32.61 1 S
X6NS06 19.13 1 P
2BNS03 41.95 1 S
X6NS05 36.21 1 S
2BNS04 22.64 1 P
X6EW10 34.49 1 S
2BEW01 19.13 1 P
2BEW01 32.36 1 S
2BEW02 20.27 1 P
2BEW02 34.01 1 S
2BEW03 19.68 1 P
2BEW03 33.09 1 S
X6BB11 14.71 1 P
X6BB11 24.73 1 S
2BEW04 39.26 1 S
2BEW06 46.49 1 S
X6BB12  8.39 1 P
X6BB12 14.17 1 S
X6BB15 20.11 1 P
X6BB15 33.91 1 S
X6BB13 17.53 1 P
X6BB13 26.29 1 S
# 2008  01  27   00    35    38.22    -27.0046    -65.9684    17.66     0.0     0.0     0.0    0.13   128
X6BB15 16.80 1 S
2BEW03 23.87 1 S
2BEW03 14.26 1 P
2BEW01 31.39 1 S
2BEW01 18.83 1 P
2BEW02 26.58 1 S
2BEW02 15.96 1 P
2BEW04 18.33 1 S
2BEW04 10.92 1 P
2BNS04 43.59 1 S
2BNS04 25.94 1 P
2BNS03 46.22 1 S
2BEW05 12.98 1 S
2BEW07  4.25 1 P
2BEW07  7.12 1 S
2BEW06  5.16 1 P
2BEW06  8.58 1 S
2BEW08  4.69 1 P
2BEW08  7.76 1 S
2BEW22  5.87 1 P
2BEW22  9.76 1 S
2BEW24 11.07 1 P
# 2008  01  27   12    29    19.88    -25.8084    -66.9972    8.3     0.0     0.0     0.0    0.15   130
2BNS04 13.06 1 P
2BNS03 19.40 1 S
2BNS03 12.17 1 P
2BNS19  8.72 1 P
2BNS20  7.19 1 P
2BNS20 11.81 1 S
2BNS21  5.56 1 P
2BNS21  9.10 1 S
2BNS22  5.32 1 P
2BNS22  8.60 1 S
2BNS23  5.26 1 P
2BNS23  8.68 1 S
2BNS24  6.22 1 P
2BNS24 10.14 1 S
2BNS25  6.80 1 P
2BNS25 11.25 1 S
2BNS26  8.68 1 P
2BNS26 14.54 1 S
2BGALA  2.16 1 P
2BGALA  3.69 1 S
# 2008  01  28   04    28    5.2    -26.7235    -67.0333    7.699999999999999     0.0     0.0     0.0    0.22   131
X6EW09  3.58 1 P
X6EW09  5.58 1 S
X6EW10  5.02 1 P
X6EW10  8.34 1 S
2BNS04  8.07 1 P
2BNS04 13.49 1 S
2BNS03 10.09 1 P
2BNS03 16.77 1 S
2BNS02 12.62 1 P
2BNS02 21.17 1 S
2BEW04  9.85 1 P
2BEW04 16.62 1 S
2BEW02  3.96 1 P
2BEW02  6.66 1 S
2BEW03  5.70 1 P
2BEW03  9.74 1 S
2BEW01  1.51 1 P
2BEW01  2.63 1 S
# 2008  01  28   05    10    44.48    -27.0792    -65.6196    27.94     0.0     0.0     0.0    0.26   132
X6BB15 24.30 1 S
2BEW03 34.14 1 S
2BEW03 20.43 1 P
2BEW01 41.76 1 S
2BEW02 36.78 1 S
2BEW02 22.04 1 P
2BEW04 28.82 1 S
2BEW04 17.18 1 P
2BEW06 17.74 1 S
2BEW06 10.67 1 P
2BNS03 56.06 1 S
2BEW08  6.33 1 P
2BEW08 10.49 1 S
2BEW22  5.70 1 P
2BEW22  9.48 1 S
2BEW24  6.62 1 P
# 2008  01  28   07    49    31.7    -26.5309    -67.6107    8.290000000000001     0.0     0.0     0.0    0.47   134
X6NS07  3.56 1 P
X6NS07  6.00 1 S
X6NS09  7.60 1 P
X6NS09 12.96 1 S
X6NS08  5.32 1 P
X6NS08  9.52 1 S
X6EW11  3.96 1 P
X6EW15 11.08 1 P
X6EW15 18.84 1 S
X6BB09 16.00 1 S
X6BB09  9.36 1 P
2BNS19 17.45 1 S
2BNS19 11.90 1 P
2BNS02 12.28 1 S
2BNS02  7.26 1 P
2BNS03  9.71 1 S
2BNS03  5.78 1 P
2BNS04  9.15 1 S
2BNS04  5.43 1 P
X6NS05  4.02 1 P
X6NS05  6.68 1 S
X6EW10 10.58 1 S
X6EW10  6.28 1 P
X6EW09  8.18 1 P
2BEW01 11.51 1 P
2BEW01 19.12 1 S
X6NS06  3.88 1 P
X6NS06  6.40 1 S
# 2008  01  28   16    2    0.62    -26.9418    -67.3913    12.67     0.0     0.0     0.0    0.28   135
X6NS16 13.20 1 P
X6NS14 20.36 1 S
X6NS14 11.74 1 P
X6NS11 11.18 1 S
X6NS11  6.72 1 P
X6NS10  9.90 1 S
X6NS10  5.98 1 P
X6BB02 22.28 1 S
X6BB02 13.02 1 P
X6NS09  8.92 1 S
X6NS09  5.28 1 P
X6NS08 10.36 1 S
X6NS08  6.32 1 P
X6BB09 25.96 1 S
X6BB09 15.36 1 P
X6NS07 10.96 1 S
X6NS07  6.62 1 P
X6NS06 11.30 1 S
X6NS06  6.62 1 P
2BNS19 17.25 1 P
X6NS05 15.04 1 S
X6NS05  8.44 1 P
2BNS04 10.05 1 P
2BNS04 17.23 1 S
X6EW10 12.60 1 S
X6EW10  7.52 1 P
X6EW09 11.76 1 S
X6EW09  7.02 1 P
2BEW01  8.34 1 P
2BEW01 13.75 1 S
2BEW02 10.54 1 P
2BEW04 15.74 1 P
2BEW03 18.72 1 S
2BEW03 11.28 1 P
X6BB11 15.00 1 S
X6BB11  9.02 1 P
# 2008  01  28   17    54    41.87    -27.3282    -66.5948    11.31     0.0     0.0     0.0    0.36   136
X6BB13  6.23 1 P
X6BB13 11.01 1 S
X6NS18 20.49 1 P
X6NS18 37.13 1 S
X6NS17 19.11 1 P
X6BB12 18.25 1 S
X6BB12 10.27 1 P
X6BB24 27.19 1 P
X6NS16 18.19 1 P
X6NS15 17.71 1 P
X6NS14 32.69 1 S
X6NS14 19.35 1 P
X6BB01 27.31 1 P
X6BB01 47.17 1 S
X6NS13 20.55 1 P
X6BB02 45.51 1 S
X6BB02 25.79 1 P
X6EW20 38.39 1 P
X6NS11 19.13 1 P
X6EW18 35.29 1 P
X6EW19 37.15 1 P
X6EW17 33.81 1 P
X6NS10 33.15 1 S
X6NS10 19.13 1 P
X6EW16 30.41 1 P
X6EW15 30.17 1 P
X6NS09 34.09 1 S
X6NS09 19.67 1 P
X6NS08 20.99 1 P
X6BB09 30.35 1 P
X6EW11 22.65 1 P
X6BB11  7.77 1 P
X6BB11 13.51 1 S
X6NS07 20.71 1 P
X6NS06 33.41 1 S
X6NS06 19.77 1 P
X6EW09 16.41 1 P
X6EW09 28.13 1 S
X6EW10 18.19 1 P
X6EW10 31.03 1 S
2BNS04 21.40 1 P
2BNS03 23.43 1 P
2BEW01 13.44 1 P
2BNS20 29.46 1 P
2BNS20 50.18 1 S
2BNS21 30.63 1 P
2BNS22 31.85 1 P
2BEW02 11.84 1 P
2BNS23 33.10 1 P
2BNS24 34.93 1 P
2BEW03  9.77 1 P
2BEW03 16.69 1 S
2BGALA 29.18 1 P
2BEW04 10.78 1 P
2BEW06 21.57 1 S
2BEW06 12.70 1 P
2BEW07 13.41 1 P
2BEW08 16.25 1 P
2BEW22 17.57 1 P
X6BB15  4.41 1 P
X6BB15  7.73 1 S
# 2008  01  28   23    47    51.1    -26.7738    -66.9899    11.969999999999999     0.0     0.0     0.0    0.21   137
2BEW01  2.34 1 P
2BEW01  3.87 1 S
X6NS10 22.12 1 S
X6NS07 17.28 1 S
X6NS07 10.28 1 P
X6NS06 14.36 1 S
X6NS06  8.68 1 P
X6EW09  8.08 1 S
X6EW09  4.64 1 P
X6NS05 14.96 1 S
X6NS05  9.04 1 P
2BNS04 15.44 1 S
2BNS04  9.54 1 P
2BNS03 18.87 1 S
2BEW02  3.57 1 P
2BEW02  5.81 1 S
2BEW06 15.29 1 P
2BEW04 15.08 1 S
2BEW04  9.11 1 P
2BEW03  8.23 1 S
2BEW03  4.98 1 P
X6BB11 12.28 1 S
X6BB11  7.22 1 P
# 2008  01  29   01    33    27.52    -25.7081    -67.1971    8.65     0.0     0.0     0.0    0.23   138
2BNS02 10.68 1 P
2BNS02 17.76 1 S
2BNS19  7.58 1 P
2BNS19 12.50 1 S
2BNS21  3.89 1 P
2BNS21  6.13 1 S
2BNS20  5.64 1 P
2BNS20  9.22 1 S
2BNS22  2.47 1 P
2BNS22  3.94 1 S
2BNS23  1.89 1 P
2BNS23  3.02 1 S
2BNS24  2.97 1 P
2BNS24  4.69 1 S
2BNS25  4.00 1 P
2BNS26  6.30 1 P
2BGALA  5.67 1 P
2BGALA  9.22 1 S
# 2008  01  29   06    4    9.95    -26.2576    -67.2263    10.2     0.0     0.0     0.0    0.24   139
2BNS04  3.95 1 P
2BNS04  6.63 1 S
X6NS05  5.91 1 P
X6NS05 10.17 1 S
2BNS03  3.51 1 P
2BNS03  5.86 1 S
2BNS02  4.40 1 P
2BNS02  7.30 1 S
2BNS01  5.37 1 P
2BNS01  9.06 1 S
2BNS19  5.97 1 P
2BNS19  9.59 1 S
2BNS20  6.89 1 P
2BNS20 11.21 1 S
2BGALA  9.48 1 P
2BEW02 19.44 1 S
2BEW01 10.74 1 P
2BEW01 17.52 1 S
# 2008  01  29   08    36    26.62    -26.9572    -68.0171    10.18     0.0     0.0     0.0    0.26   140
X6BB02  3.56 1 P
X6BB02  6.20 1 S
X6EW18 10.22 1 P
X6EW17  8.30 1 P
X6EW16  6.12 1 P
X6EW16 10.26 1 S
X6EW15  5.88 1 P
X6EW15  9.68 1 S
X6BB09  9.12 1 P
X6BB09 15.76 1 S
X6EW11  9.20 1 P
X6EW11 15.20 1 S
X6NS08  7.68 1 P
X6NS08 13.16 1 S
X6NS09  6.84 1 P
X6NS09 11.68 1 S
# 2008  01  30   02    26    17.2    -26.0596    -67.826    2.2     0.0     0.0     0.0    0.38   141
X6BB01 26.94 1 P
X6BB01 46.30 1 S
X6BB02 20.84 1 P
X6BB02 35.62 1 S
X6EW15 14.78 1 P
X6EW15 25.50 1 S
X6EW16 18.48 1 P
X6EW16 29.96 1 S
X6BB09 10.50 1 P
X6BB09 18.34 1 S
X6EW18 21.30 1 P
X6EW19 22.28 1 P
X6EW20 23.34 1 P
X6EW20 39.36 1 S
X6BB04 22.94 1 P
2BNS26 16.23 1 P
2BNS25 15.01 1 P
2BNS25 25.76 1 S
2BNS24 13.86 1 P
2BNS24 23.32 1 S
2BNS23 12.99 1 P
2BNS22 19.21 1 S
2BNS22 11.60 1 P
2BNS21 17.18 1 S
2BNS21 10.51 1 P
2BNS20 14.45 1 S
2BNS20  8.47 1 P
2BGALA 16.31 1 P
2BGALA 26.98 1 S
2BNS19 12.88 1 S
2BNS19  7.59 1 P
2BNS01 12.33 1 S
2BNS01  7.27 1 P
2BNS02 13.73 1 S
2BNS02  8.10 1 P
2BEW04 45.05 1 S
2BNS03 15.61 1 S
2BNS03  9.34 1 P
2BEW02 21.98 1 P
2BEW02 35.41 1 S
2BNS04 18.23 1 S
2BNS04 11.07 1 P
2BEW03 24.27 1 P
2BEW01 19.43 1 P
X6EW10 14.14 1 P
X6EW10 24.16 1 S
X6EW09 16.78 1 P
X6NS05 11.48 1 P
X6NS05 19.06 1 S
X6BB11 42.50 1 S
X6BB11 25.98 1 P
X6NS06 12.94 1 P
X6NS06 21.92 1 S
X6NS07 12.92 1 P
X6NS07 22.58 1 S
X6BB10 11.54 1 S
X6BB10  6.62 1 P
X6NS08 14.44 1 P
X6EW11 21.64 1 S
X6EW11 12.86 1 P
X6NS09 16.46 1 P
X6NS09 28.86 1 S
X6NS10 20.20 1 P
X6NS10 32.14 1 S
X6NS11 35.68 1 S
X6EW12 12.54 1 P
X6EW12 21.44 1 S
# 2008  01  30   03    53    14.09    -25.7075    -67.1936    7.5     0.0     0.0     0.0    0.19   142
2BNS19  7.50 1 P
2BNS19 12.51 1 S
2BNS21  3.73 1 P
2BNS21  5.96 1 S
2BNS20  5.49 1 P
2BNS20  9.08 1 S
2BNS22  2.31 1 P
2BNS22  3.78 1 S
2BNS23  1.74 1 P
2BNS23  2.88 1 S
2BNS24  2.82 1 P
2BNS24  4.50 1 S
2BNS25  3.84 1 P
2BNS25  7.05 1 S
2BNS26  6.14 1 P
2BGALA  5.50 1 P
2BGALA  9.10 1 S
# 2008  01  30   07    48    23.22    -26.4794    -67.5993    14.77     0.0     0.0     0.0    0.31   143
X6NS08  6.58 1 P
X6EW11  8.78 1 S
X6EW12  9.56 1 S
X6EW12  5.88 1 P
X6BB09 10.20 1 P
X6BB09 16.80 1 S
X6BB10  4.08 1 P
X6BB10  6.42 1 S
2BNS20 18.00 1 S
2BNS19 15.37 1 S
2BNS19  9.49 1 P
2BNS02  7.31 1 P
2BNS03  9.47 1 S
2BNS03  5.88 1 P
2BNS04  8.99 1 S
2BNS04  5.71 1 P
X6NS05  6.98 1 S
X6NS05  4.48 1 P
2BEW01 19.82 1 S
X6NS06  7.22 1 S
X6NS06  4.64 1 P
X6NS07  4.52 1 P
# 2008  01  31   03    54    28.8    -25.709    -67.199    9.72     0.0     0.0     0.0    0.21   144
2BNS04 13.80 1 P
2BNS03 12.07 1 P
2BNS02 10.64 1 P
2BNS02 17.81 1 S
2BNS01  8.87 1 P
2BNS01 14.64 1 S
2BNS19  7.66 1 P
2BNS19 12.77 1 S
2BNS21  3.83 1 P
2BNS21  6.25 1 S
2BNS20  5.77 1 P
2BNS20  9.41 1 S
2BNS22  2.59 1 P
2BNS22  4.06 1 S
2BNS23  2.00 1 P
2BNS23  3.12 1 S
2BNS24  3.08 1 P
2BNS24  4.83 1 S
2BNS25  4.11 1 P
2BNS25  7.28 1 S
2BNS26  6.19 1 P
2BGALA  5.80 1 P
2BGALA  9.38 1 S
# 2008  01  31   15    20    14.68    -27.3235    -66.5959    7.8100000000000005     0.0     0.0     0.0    0.23   145
X6BB13  6.25 1 P
X6BB13 10.98 1 S
X6NS18 20.75 1 P
X6NS18 35.45 1 S
X6NS17 19.25 1 P
X6BB12 10.40 1 P
X6BB24 27.34 1 P
X6NS16 31.41 1 S
X6NS16 18.34 1 P
X6NS15 30.27 1 S
X6NS14 19.45 1 P
X6NS14 33.56 1 S
X6BB01 27.13 1 P
X6NS13 20.61 1 P
X6BB02 45.13 1 S
X6BB02 26.58 1 P
X6NS11 20.24 1 P
X6EW19 37.27 1 P
X6NS10 19.22 1 P
X6NS10 32.65 1 S
X6NS09 19.77 1 P
X6NS08 20.97 1 P
X6BB09 30.09 1 P
X6EW12 23.81 1 P
X6EW11 22.65 1 P
X6BB11 13.41 1 S
X6BB11  7.78 1 P
X6NS07 20.65 1 P
X6NS06 33.41 1 S
X6NS06 19.75 1 P
X6BB10 26.13 1 P
X6NS05 20.86 1 P
X6EW09 16.40 1 P
X6EW10 30.93 1 S
X6EW10 18.13 1 P
2BNS04 21.34 1 P
2BNS03 23.36 1 P
2BEW01 13.38 1 P
2BNS19 28.45 1 P
2BNS21 30.54 1 P
2BNS22 31.90 1 P
2BEW02 11.80 1 P
2BNS23 33.59 1 P
2BEW03  9.67 1 P
2BNS25 35.80 1 P
2BGALA 29.09 1 P
2BEW04 18.36 1 S
2BEW04 10.61 1 P
2BEW05 11.65 1 P
2BEW06 12.47 1 P
2BEW07 13.15 1 P
2BEW08 16.01 1 P
2BEW22 17.36 1 P
X6BB15  4.29 1 P
X6BB15  7.51 1 S
# 2008  02  01   11    54    21.57    -26.9402    -66.1256    10.11     0.0     0.0     0.0    0.23   146
X6BB15  9.05 1 P
X6BB15 15.10 1 S
X6BB13 15.84 1 P
X6BB13 26.52 1 S
X6BB12 21.05 1 P
X6BB12 35.26 1 S
X6BB01 61.37 1 S
X6BB11 14.96 1 P
X6BB11 25.14 1 S
X6NS10 45.13 1 S
2BEW03 11.21 1 P
X6NS07 42.49 1 S
X6EW09 19.75 1 P
X6EW09 32.37 1 S
2BEW02 12.82 1 P
X6NS06 23.45 1 P
2BEW04  7.70 1 P
2BEW04 12.96 1 S
X6EW10 34.66 1 S
X6EW10 20.82 1 P
X6NS05 39.22 1 S
X6NS05 23.75 1 P
X6BB10 29.36 1 P
2BNS04 38.41 1 S
2BNS04 22.86 1 P
2BNS19 47.31 1 S
2BEW05  4.52 1 P
2BEW05  7.53 1 S
2BNS20 47.98 1 S
2BNS22 30.11 1 P
2BNS23 51.52 1 S
2BNS24 53.66 1 S
2BGALA 25.30 1 P
2BGALA 42.27 1 S
2BEW06  2.63 1 P
2BEW06  4.40 1 S
2BEW07  2.79 1 P
2BEW07  4.84 1 S
2BEW08  6.17 1 P
2BEW08 10.34 1 S
2BEW22 12.97 1 S
# 2008  02  02   03    11    28.49    -26.1215    -67.879    3.7600000000000002     0.0     0.0     0.0    0.35   147
X6EW14 12.05 1 P
X6EW14 20.65 1 S
X6BB09  8.93 1 P
X6BB08  4.81 1 S
X6BB08  2.69 1 P
2BNS25 28.00 1 S
2BNS23 14.50 1 P
2BNS23 23.93 1 S
2BNS21 11.88 1 P
2BNS21 19.53 1 S
2BNS20  9.75 1 P
2BNS20 16.23 1 S
2BGALA 17.61 1 P
2BGALA 28.95 1 S
2BNS19  8.34 1 P
2BNS19 14.23 1 S
2BNS01 13.65 1 S
2BNS02  8.38 1 P
2BNS02 14.47 1 S
2BNS03  9.27 1 P
2BNS04 11.07 1 P
2BNS04 18.29 1 S
2BEW01 19.24 1 P
X6EW12 11.83 1 P
X6EW12 19.53 1 S
X6EW13 18.87 1 S
# 2008  02  02   19    2    51.1    -27.3404    -66.5867    16.07     0.0     0.0     0.0    0.39   148
X6BB13  6.56 1 P
X6NS18 20.84 1 P
X6NS17 19.42 1 P
X6BB12 18.26 1 S
X6BB12 10.56 1 P
X6BB24 27.48 1 P
X6NS16 18.52 1 P
X6NS15 17.96 1 P
X6NS14 19.60 1 P
X6BB01 27.36 1 P
X6NS13 20.80 1 P
X6BB02 26.00 1 P
X6BB02 46.16 1 S
X6EW20 38.64 1 P
X6EW20 65.88 1 S
X6NS11 19.36 1 P
X6EW18 35.44 1 P
X6EW19 37.36 1 P
X6EW17 33.90 1 P
X6NS10 19.34 1 P
X6EW16 31.50 1 P
X6BB04 44.96 1 P
X6EW15 30.00 1 P
X6NS09 19.92 1 P
X6EW14 28.04 1 P
X6NS08 21.20 1 P
X6EW13 25.84 1 P
X6BB09 30.48 1 P
X6EW12 24.04 1 P
X6EW11 22.82 1 P
X6BB11 14.50 1 S
X6BB11  8.00 1 P
X6NS07 20.88 1 P
X6NS06 19.98 1 P
X6BB10 26.32 1 P
X6BB08 34.08 1 P
X6NS05 21.04 1 P
X6EW09 16.62 1 P
X6EW09 29.02 1 S
X6EW10 18.38 1 P
2BNS04 21.61 1 P
2BNS03 23.61 1 P
2BEW01 13.65 1 P
2BNS20 29.69 1 P
2BNS21 30.85 1 P
2BNS22 32.16 1 P
2BEW02 12.10 1 P
2BNS23 33.78 1 P
2BNS24 35.10 1 P
2BEW03 18.94 1 S
2BEW03  9.98 1 P
2BNS25 36.09 1 P
2BGALA 29.40 1 P
2BEW04 10.96 1 P
2BEW05 12.05 1 P
2BEW06 12.90 1 P
2BEW07 13.75 1 P
2BEW08 16.45 1 P
2BEW22 17.82 1 P
X6BB15  7.90 1 S
X6BB15  4.70 1 P
# 2008  02  02   20    43    20.88    -25.9973    -67.8137    6.51     0.0     0.0     0.0    0.21   149
X6BB08  2.58 1 P
X6BB08  4.60 1 S
2BNS25 23.55 1 S
2BNS24 21.80 1 S
2BNS24 12.85 1 P
2BNS23 11.98 1 P
2BNS20  7.79 1 P
2BNS20 13.06 1 S
2BGALA 15.84 1 P
2BGALA 25.94 1 S
2BNS01 12.32 1 S
2BNS02  8.49 1 P
2BNS02 14.24 1 S
2BNS03  9.87 1 P
2BNS03 16.28 1 S
2BNS04 11.73 1 P
2BNS04 19.49 1 S
# 2008  02  02   22    5    59.48    -26.9399    -67.0523    10.82     0.0     0.0     0.0    0.08   150
X6NS10 11.18 1 P
X6NS06 15.58 1 S
X6NS06  9.34 1 P
X6NS05 17.66 1 S
X6NS05 10.42 1 P
X6EW10 13.36 1 S
X6EW09  6.08 1 P
2BNS04 11.31 1 P
2BEW01  4.45 1 P
2BEW01  7.46 1 S
2BEW02  5.51 1 P
2BEW02  9.26 1 S
2BEW03  5.73 1 P
X6BB11  7.82 1 S
X6BB11  4.50 1 P
# 2008  02  03   11    52    50.45    -27.4422    -66.9961    36.43     0.0     0.0     0.0    0.73   151
X6NS18 25.29 1 S
X6BB24 21.21 1 P
X6BB12  7.29 1 P
X6BB12 11.55 1 S
X6NS16 21.31 1 S
X6NS16 12.73 1 P
X6NS14 23.75 1 S
X6NS14 13.89 1 P
X6NS13 24.93 1 S
X6BB02 34.05 1 S
X6BB02 20.63 1 P
X6NS11 26.29 1 S
X6NS10 24.51 1 S
X6NS10 15.01 1 P
X6EW14 38.55 1 S
X6EW14 23.01 1 P
X6NS09 27.01 1 S
X6NS09 16.33 1 P
X6NS08 29.55 1 S
X6NS08 18.09 1 P
X6EW11 19.99 1 P
X6NS07 30.91 1 S
X6NS07 18.65 1 P
X6NS06 30.35 1 S
2BNS03 38.27 1 S
2BNS04 21.09 1 P
2BNS04 34.57 1 S
X6EW09 27.17 1 S
X6EW09 16.39 1 P
2BEW01 24.60 1 S
2BEW01 15.03 1 P
X6BB11  9.37 1 P
X6BB11 15.05 1 S
2BEW02 24.38 1 S
2BEW02 15.06 1 P
2BEW03 22.27 1 S
2BEW03 13.57 1 P
2BEW04 27.23 1 S
2BEW06 33.23 1 S
2BEW08 40.22 1 S
X6BB15 13.37 1 P
X6BB15 21.73 1 S
X6BB14 16.39 1 P
X6BB14 27.17 1 S
X6BB13 10.69 1 P
X6BB13 17.35 1 S
# 2008  02  03   18    19    31.93    -27.3223    -66.588    7.630000000000001     0.0     0.0     0.0    0.33   152
X6BB13  6.33 1 P
X6BB13 11.11 1 S
X6NS18 20.65 1 P
X6BB12 10.41 1 P
X6BB24 27.39 1 P
X6NS16 32.39 1 S
X6NS16 18.35 1 P
X6NS14 19.47 1 P
X6BB01 27.47 1 P
X6NS13 20.61 1 P
X6NS10 19.15 1 P
X6EW16 31.57 1 P
X6EW15 30.37 1 P
X6NS09 19.73 1 P
X6NS08 20.93 1 P
X6EW13 25.87 1 P
X6EW12 23.75 1 P
X6EW11 23.51 1 P
X6BB11 13.41 1 S
X6BB11  7.71 1 P
X6NS07 20.61 1 P
X6NS07 36.23 1 S
X6NS06 19.65 1 P
X6NS06 33.77 1 S
X6BB08 34.83 1 P
X6NS05 20.77 1 P
X6EW09 16.27 1 P
X6EW09 28.57 1 S
X6EW10 18.03 1 P
X6EW10 30.97 1 S
2BNS04 21.26 1 P
2BEW01 13.27 1 P
2BNS20 29.24 1 P
2BNS21 30.48 1 P
2BNS22 31.76 1 P
2BEW02 11.66 1 P
2BNS24 34.63 1 P
2BEW03  9.55 1 P
2BNS25 35.77 1 P
2BEW04 10.46 1 P
2BEW05 11.53 1 P
2BEW05 19.80 1 S
2BEW06 12.32 1 P
2BEW07 13.00 1 P
2BEW07 22.56 1 S
2BEW08 15.86 1 P
2BEW22 17.23 1 P
X6BB15  7.43 1 S
X6BB15  4.19 1 P
# 2008  02  04   16    13    37.22    -27.3228    -66.5876    11.41     0.0     0.0     0.0    0.34   153
X6NS18 20.54 1 P
X6NS18 36.54 1 S
X6NS17 19.16 1 P
X6BB24 27.30 1 P
X6BB12 10.76 1 P
X6NS16 31.50 1 S
X6NS16 18.36 1 P
X6NS14 19.66 1 P
X6BB01 27.64 1 P
X6BB02 26.60 1 P
X6BB02 45.24 1 S
X6NS11 19.34 1 P
X6NS10 19.90 1 P
X6NS09 19.80 1 P
X6NS09 33.98 1 S
X6NS08 21.08 1 P
X6EW12 40.88 1 S
X6EW12 23.92 1 P
X6BB11 13.36 1 S
X6BB11  7.78 1 P
X6NS07 35.12 1 S
X6NS07 20.72 1 P
X6NS06 33.32 1 S
X6NS06 19.76 1 P
X6NS05 20.92 1 P
X6EW09 16.42 1 P
X6EW09 28.92 1 S
X6EW10 18.12 1 P
X6EW10 31.32 1 S
2BNS04 21.34 1 P
2BNS03 23.37 1 P
2BNS02 25.97 1 P
2BEW01 13.40 1 P
2BNS20 29.34 1 P
2BNS22 31.85 1 P
2BEW02 11.81 1 P
2BNS23 33.71 1 P
2BNS24 34.78 1 P
2BEW03  9.73 1 P
2BGALA 29.13 1 P
2BEW04 10.65 1 P
2BEW05 11.71 1 P
2BEW06 12.49 1 P
2BEW07 13.18 1 P
2BEW08 16.09 1 P
2BEW22 17.41 1 P
X6BB15  4.26 1 P
X6BB15  7.48 1 S
X6BB13  6.20 1 P
X6BB13 11.58 1 S
# 2008  02  05   01    0    44.55    -26.618    -67.5271    12.19     0.0     0.0     0.0    0.21   154
X6NS07  2.55 1 P
X6NS07  4.13 1 S
X6NS10  8.77 1 P
X6NS10 15.21 1 S
X6NS09  6.67 1 P
X6NS09 11.27 1 S
X6NS08  4.59 1 P
X6NS08  8.71 1 S
X6EW11  3.87 1 P
X6EW12  5.27 1 P
X6EW12  8.79 1 S
X6EW15 11.99 1 P
X6EW15 20.27 1 S
X6EW14  9.19 1 P
X6EW14 15.63 1 S
X6EW13  6.95 1 P
X6EW13 11.75 1 S
X6BB09 18.89 1 S
X6BB09 10.99 1 P
X6BB08 23.57 1 S
X6BB08 14.07 1 P
2BNS19 11.43 1 P
2BNS20 21.91 1 S
2BNS20 13.80 1 P
2BNS02  8.84 1 P
2BNS03  6.99 1 P
2BNS03 11.31 1 S
2BGALA 18.21 1 P
2BNS04  9.22 1 S
2BNS04  5.65 1 P
X6NS05  6.15 1 S
X6NS05  3.83 1 P
X6EW10  5.23 1 P
X6EW10  8.71 1 S
X6NS06  4.29 1 S
X6NS06  2.69 1 P
2BEW04 30.95 1 S
2BEW02 20.42 1 S
2BEW02 12.44 1 P
X6EW09  6.69 1 P
X6EW09 11.11 1 S
2BEW01 16.46 1 S
2BEW01  9.97 1 P
2BEW03 23.65 1 S
2BEW03 14.23 1 P
# 2008  02  05   21    6    45.73    -27.4606    -66.5381    16.28     0.0     0.0     0.0    0.15   155
X6BB13  4.51 1 P
X6BB13  7.53 1 S
X6NS18 20.57 1 P
X6NS18 34.91 1 S
X6BB24 27.53 1 P
X6BB24 46.45 1 S
X6NS16 19.07 1 P
X6NS16 32.39 1 S
X6BB12 11.09 1 P
X6BB12 18.53 1 S
X6BB01 47.37 1 S
X6NS10 21.15 1 P
X6NS10 35.21 1 S
X6NS09 37.09 1 S
X6EW12 43.69 1 S
X6NS07 39.23 1 S
X6BB11 17.77 1 S
X6BB11 10.57 1 P
X6NS06 22.49 1 P
X6NS06 37.69 1 S
2BNS04 24.14 1 P
2BNS03 26.16 1 P
2BEW01 16.28 1 P
2BEW01 27.43 1 S
2BEW02 14.75 1 P
2BEW02 24.80 1 S
2BEW03 12.66 1 P
2BEW03 21.18 1 S
2BGALA 31.90 1 P
2BEW04 22.27 1 S
2BEW04 13.29 1 P
2BEW05 23.04 1 S
2BEW05 13.88 1 P
2BEW06 14.09 1 P
X6BB15  4.77 1 P
X6BB15  7.97 1 S
2BEW07 24.17 1 S
2BEW08 27.75 1 S
2BEW08 16.58 1 P
# 2008  02  06   03    30    10.55    -26.9613    -67.0163    11.389999999999999     0.0     0.0     0.0    0.21   156
X6NS11 13.39 1 P
X6NS11 21.39 1 S
X6NS10 11.79 1 P
X6NS10 19.59 1 S
X6NS09 11.49 1 P
X6NS09 19.13 1 S
X6EW14 30.47 1 S
X6NS08 19.83 1 S
X6EW12 14.69 1 P
X6EW12 24.07 1 S
X6NS07 18.75 1 S
X6NS07 11.11 1 P
X6NS06 16.87 1 S
X6NS06 10.15 1 P
X6NS05 18.77 1 S
X6NS05 11.19 1 P
X6EW10  8.67 1 P
X6EW10 14.49 1 S
X6EW09  6.87 1 P
X6EW09 11.59 1 S
2BNS04 11.95 1 P
2BNS03 14.05 1 P
2BNS02 16.55 1 P
2BNS20 20.52 1 P
2BEW01  4.85 1 P
2BEW01  8.19 1 S
2BEW02  5.57 1 P
2BEW02  9.19 1 S
2BEW03  5.48 1 P
2BEW03  9.02 1 S
2BEW04  9.99 1 P
2BEW04 16.70 1 S
X6BB15 22.79 1 S
X6BB11  6.71 1 S
X6BB11  3.95 1 P
