# 2008  02  16   18    23    19.27    -27.3381    -66.5678    10.94     0.0     0.0     0.0    0.63   196
X6BB13  6.03 1 P
X6NS18 21.29 1 P
X6NS17 19.85 1 P
X6BB24 27.11 1 P
X6BB12 10.15 1 P
X6BB12 18.73 1 S
X6NS16 18.69 1 P
X6NS15 18.39 1 P
X6NS14 20.13 1 P
X6BB01 47.31 1 S
X6BB01 27.43 1 P
X6NS13 20.95 1 P
X6BB02 26.55 1 P
X6NS11 19.67 1 P
X6EW20 39.21 1 P
X6EW18 36.15 1 P
X6EW19 37.11 1 P
X6EW17 34.95 1 P
X6NS10 19.73 1 P
X6EW16 32.05 1 P
X6EW15 30.13 1 P
X6NS09 20.29 1 P
X6NS09 34.29 1 S
X6EW14 28.61 1 P
X6NS08 21.65 1 P
X6BB11  7.55 1 P
X6BB11 14.65 1 S
X6EW13 28.09 1 P
X6EW12 24.53 1 P
X6NS07 36.05 1 S
X6NS07 20.47 1 P
X6NS06 19.51 1 P
X6NS05 21.61 1 P
X6NS05 36.95 1 S
X6BB08 34.87 1 P
X6EW10 32.35 1 S
2BNS04 21.15 1 P
2BEW01 13.20 1 P
2BNS02 25.73 1 P
2BEW03  9.51 1 P
2BGALA 28.82 1 P
2BEW05 20.15 1 S
2BEW05 11.52 1 P
2BEW06 21.96 1 S
2BEW06 12.31 1 P
2BEW07 13.01 1 P
2BEW08 15.81 1 P
X6BB15  4.11 1 P
X6BB15  7.29 1 S
# 2008  02  17   11    52    53.07    -26.6987    -67.6144    7.92     0.0     0.0     0.0    0.25   198
X6NS08  2.35 1 P
X6NS08  4.67 1 S
X6NS09  4.47 1 P
X6NS09  7.73 1 S
X6NS10  6.75 1 P
X6NS10 11.67 1 S
X6NS11  9.13 1 P
X6NS11 15.05 1 S
X6EW15 10.27 1 P
X6EW14 12.77 1 S
X6EW14  7.39 1 P
X6EW12  6.93 1 S
X6EW12  3.45 1 P
X6EW13  9.15 1 S
X6EW13  5.31 1 P
X6BB09 16.75 1 S
X6BB09  9.63 1 P
X6EW11  4.51 1 S
X6EW11  2.19 1 P
2BNS03  8.41 1 P
2BNS04  7.33 1 P
X6NS05  5.63 1 P
X6NS05  9.11 1 S
X6NS06  3.79 1 P
X6NS06  6.19 1 S
X6EW10 11.17 1 S
X6EW10  6.67 1 P
X6NS07  2.03 1 P
X6NS07  3.39 1 S
2BEW01 11.04 1 P
# 2008  02  17   18    28    52.82    -25.828    -67.3314    7.380000000000001     0.0     0.0     0.0    0.5   199
2BNS03 18.34 1 S
2BNS02 13.53 1 S
2BNS02  7.33 1 P
2BNS19  4.33 1 P
2BNS19  7.17 1 S
2BNS20  2.52 1 P
2BNS20  4.06 1 S
2BNS21  1.65 1 P
2BNS21  2.63 1 S
2BNS26  8.81 1 P
2BNS24  5.21 1 P
2BNS25 11.48 1 S
2BNS25  6.49 1 P
2BNS22  2.41 1 P
2BNS22  3.93 1 S
2BNS23  3.95 1 P
2BNS23  6.59 1 S
2BGALA  6.95 1 P
2BGALA 11.55 1 S
# 2008  02  18   17    54    55.19    -25.929    -67.7669    9.41     0.0     0.0     0.0    0.27   200
X6BB08  3.83 1 P
X6BB08  6.83 1 S
2BNS25 21.29 1 S
2BNS24 19.19 1 S
2BNS23 17.93 1 S
2BNS22 15.98 1 S
2BNS22  9.57 1 P
2BNS19 11.75 1 S
2BNS19  7.29 1 P
2BNS01 11.99 1 S
2BNS02  8.66 1 P
2BNS03 16.91 1 S
2BNS03 10.34 1 P
2BNS04 19.62 1 S
2BNS04 12.27 1 P
# 2008  02  18   22    48    46.14    -26.916    -67.3524    10.13     0.0     0.0     0.0    0.63   201
X6NS16 14.08 1 P
X6NS14 12.80 1 P
X6NS13 10.24 1 P
X6NS13 19.98 1 S
X6NS11 12.60 1 S
X6NS10 11.02 1 S
X6NS10  6.66 1 P
X6BB02 23.04 1 S
X6BB02 13.80 1 P
X6NS09  9.60 1 S
X6NS09  5.70 1 P
X6EW14 13.98 1 P
X6NS08 10.74 1 S
X6NS08  6.40 1 P
X6EW13 11.12 1 P
X6EW13 18.44 1 S
X6EW12  9.36 1 P
X6EW12 15.08 1 S
X6BB09 15.60 1 P
X6BB09 26.18 1 S
X6EW11  8.06 1 P
X6EW11 13.34 1 S
X6NS07 10.46 1 S
X6NS07  6.40 1 P
X6BB10 12.20 1 P
X6BB10 20.06 1 S
X6NS06 10.74 1 S
X6NS06  6.24 1 P
X6NS05 13.88 1 S
X6NS05  8.04 1 P
2BNS02 14.06 1 P
2BNS02 23.55 1 S
2BNS03 11.56 1 P
2BNS04  9.58 1 P
2BNS04 16.37 1 S
X6EW10  6.84 1 P
X6EW10 11.64 1 S
2BEW01 12.92 1 S
2BEW01  7.83 1 P
2BEW02 16.47 1 S
2BEW02 10.00 1 P
2BEW04 25.54 1 S
2BEW04 15.39 1 P
2BEW03 17.82 1 S
2BEW03 10.86 1 P
X6BB15 31.84 1 S
X6BB11 14.78 1 S
X6BB11  6.24 1 P
X6BB13 32.36 1 S
X6BB13 19.04 1 P
X6BB12 13.10 1 P
# 2008  02  19   10    41    48.33    -26.9097    -67.3625    9.46     0.0     0.0     0.0    0.22   203
X6NS10  6.37 1 P
X6NS10 10.73 1 S
X6NS09  5.41 1 P
X6NS09  9.28 1 S
X6NS08  6.37 1 P
X6NS08 10.44 1 S
X6EW12  9.33 1 P
X6EW12 14.94 1 S
X6EW11  7.88 1 P
X6EW11 13.05 1 S
X6NS07  6.08 1 P
X6NS07 10.21 1 S
X6BB10 12.02 1 P
X6NS06  5.92 1 P
X6NS06 10.44 1 S
X6NS05  7.69 1 P
X6NS05 13.57 1 S
2BNS04 16.06 1 S
2BNS04  9.25 1 P
X6EW10  6.57 1 P
X6EW10 11.33 1 S
2BEW01 12.56 1 S
2BEW01  7.46 1 P
2BEW02 16.13 1 S
2BEW02  9.66 1 P
2BEW03 10.52 1 P
X6BB11  8.83 1 P
X6BB11 14.49 1 S
# 2008  02  19   14    13    6.45    -26.4005    -67.4374    14.879999999999999     0.0     0.0     0.0    0.48   204
X6NS05  3.33 1 P
X6NS05  5.49 1 S
X6NS06  4.79 1 P
X6NS06  7.79 1 S
X6NS09 10.87 1 P
X6NS09 19.07 1 S
X6NS07  6.21 1 P
X6NS07 10.61 1 S
X6NS08  8.79 1 P
X6NS08 15.65 1 S
X6EW11  8.01 1 P
X6EW11 13.15 1 S
X6EW12  8.55 1 P
X6EW12 14.01 1 S
X6EW13  9.91 1 P
X6EW13 16.29 1 S
X6EW14 12.01 1 P
X6EW14 20.41 1 S
X6EW15 14.79 1 P
X6EW15 24.65 1 S
X6BB09 13.03 1 P
X6BB09 21.41 1 S
X6BB10  5.73 1 P
X6BB10  9.77 1 S
2BNS01  6.96 1 P
2BNS01 11.17 1 S
2BNS02  5.34 1 P
2BNS02  8.28 1 S
2BNS20  7.64 1 P
2BNS20 15.21 1 S
2BNS03  3.46 1 P
2BNS03  5.49 1 S
2BNS22 13.14 1 P
2BGALA 14.63 1 P
2BGALA 23.87 1 S
2BNS04  4.94 1 S
2BEW02 12.72 1 P
2BEW02 20.51 1 S
2BEW01 10.66 1 P
2BEW01 17.56 1 S
X6EW10  5.43 1 P
X6EW10  8.73 1 S
# 2008  02  19   14    54    4.51    -26.4036    -67.4277    13.74     0.0     0.0     0.0    0.23   205
X6NS07  6.09 1 P
X6BB10  9.51 1 S
X6BB10  5.51 1 P
2BNS01  6.76 1 P
2BNS02  8.07 1 S
2BNS02  5.15 1 P
2BNS20 15.03 1 S
2BNS20  9.29 1 P
2BNS03  5.26 1 S
2BNS03  3.27 1 P
2BNS04  4.71 1 S
2BNS04  3.00 1 P
2BEW01 10.36 1 P
2BEW01 17.34 1 S
X6EW10  8.59 1 S
X6EW10  5.23 1 P
X6NS05  5.15 1 S
X6NS05  3.11 1 P
X6NS06  7.63 1 S
X6NS06  4.59 1 P
# 2008  02  19   17    41    44.0    -26.6035    -67.7068    7.48     0.0     0.0     0.0    0.09   206
X6EW11  2.46 1 P
X6EW11  4.06 1 S
X6EW12  2.70 1 P
X6EW12  4.66 1 S
X6EW13  3.90 1 P
X6EW13  6.68 1 S
X6BB10  4.78 1 P
X6BB10  7.96 1 S
2BNS03 13.48 1 S
2BNS04  7.51 1 P
2BNS04 12.25 1 S
X6NS07  3.46 1 P
X6NS07  5.94 1 S
X6NS08  4.06 1 P
X6NS08  7.66 1 S
# 2008  02  19   18    50    26.58    -26.9072    -67.3609    12.06     0.0     0.0     0.0    0.29   207
X6NS16 13.96 1 P
X6NS15 12.10 1 P
X6NS14 12.52 1 P
X6NS14 21.92 1 S
X6BB24 22.02 1 P
X6BB24 36.78 1 S
X6NS13 19.86 1 S
X6BB01 29.90 1 S
X6NS11 12.48 1 S
X6NS11  7.38 1 P
X6NS10 10.92 1 S
X6NS10  6.58 1 P
X6NS09  9.46 1 S
X6NS09  5.60 1 P
X6EW15 24.90 1 S
X6EW14 22.18 1 S
X6NS08 10.66 1 S
X6NS08  6.36 1 P
X6EW13 18.32 1 S
X6EW13 11.00 1 P
X6EW12 14.94 1 S
X6EW12  9.08 1 P
X6BB09 26.08 1 S
X6BB09 15.62 1 P
X6EW11 13.20 1 S
X6EW11  7.94 1 P
X6NS07 10.34 1 S
X6NS07  6.32 1 P
X6BB10 20.02 1 S
X6BB10 12.12 1 P
X6BB08 33.58 1 S
X6NS06 10.58 1 S
X6NS06  6.14 1 P
X6NS05 13.72 1 S
X6NS05  7.94 1 P
2BNS02 13.95 1 P
2BNS01 15.74 1 P
2BNS03 19.40 1 S
2BNS03 11.34 1 P
2BNS04 16.30 1 S
2BNS04  9.45 1 P
X6EW10 11.58 1 S
X6EW10  6.76 1 P
2BGALA 21.82 1 P
2BEW01  7.73 1 P
2BEW01 12.80 1 S
2BEW02  9.92 1 P
2BEW02 16.36 1 S
2BEW04 15.29 1 P
2BEW04 25.47 1 S
2BEW03 10.76 1 P
2BEW03 17.70 1 S
2BEW06 21.50 1 P
X6BB11  8.88 1 P
X6BB11 14.68 1 S
X6BB12 13.08 1 P
# 2008  02  19   22    39    36.0    -26.6431    -66.3004    23.880000000000003     0.0     0.0     0.0    0.21   208
2BEW05  5.07 1 P
2BEW05  8.31 1 S
X6BB15 13.98 1 P
X6BB15 23.52 1 S
2BEW04  6.73 1 P
2BEW04 11.24 1 S
2BEW03  9.90 1 P
2BEW03 16.48 1 S
2BEW02 10.64 1 P
2BEW02 17.05 1 S
2BEW01 21.90 1 S
2BNS04 30.93 1 S
2BNS03 33.01 1 S
2BNS03 19.98 1 P
2BGALA 32.46 1 S
2BEW08 11.17 1 P
2BEW08 18.59 1 S
2BEW06  6.48 1 P
2BEW06 10.68 1 S
# 2008  02  20   03    20    43.02    -26.7557    -66.9157    10.73     0.0     0.0     0.0    0.21   209
X6BB11  7.32 1 P
X6BB11 12.56 1 S
X6NS11 26.24 1 S
X6NS10 24.00 1 S
X6NS10 14.62 1 P
X6NS09 22.28 1 S
X6NS08 23.22 1 S
2BEW01  4.27 1 S
2BEW01  2.57 1 P
X6NS07 19.36 1 S
X6NS07 11.40 1 P
X6NS06 16.12 1 S
X6NS06  9.64 1 P
X6EW10 11.88 1 S
X6EW10  7.10 1 P
X6NS05 16.64 1 S
X6NS05  9.84 1 P
X6BB10 26.68 1 S
X6BB10 15.64 1 P
2BNS04 17.03 1 S
2BNS04  9.90 1 P
2BNS03 19.75 1 S
2BNS03 11.84 1 P
2BNS02 23.72 1 S
2BNS02 14.28 1 P
2BNS19 27.37 1 S
2BNS20 28.90 1 S
2BNS20 17.63 1 P
2BGALA 17.89 1 P
2BEW02  3.94 1 S
2BEW02  2.41 1 P
2BEW06 22.98 1 S
2BEW06 14.00 1 P
2BEW08 33.06 1 S
2BEW03  3.88 1 P
2BEW03  6.67 1 S
X6BB15 25.20 1 S
# 2008  02  20   13    22    28.44    -26.9567    -68.0187    9.67     0.0     0.0     0.0    0.25   210
X6BB02  3.54 1 P
X6BB02  6.18 1 S
X6EW17  8.26 1 P
X6EW16  6.16 1 P
X6EW15  6.10 1 P
X6EW15  9.62 1 S
X6BB09  9.06 1 P
X6BB09 15.74 1 S
X6EW14  5.42 1 P
X6EW14  9.34 1 S
X6EW13  7.30 1 P
X6EW12 12.54 1 S
X6EW12  7.28 1 P
X6EW11 15.28 1 S
X6NS08  7.70 1 P
X6NS08 13.22 1 S
X6NS09  6.74 1 P
X6NS09 11.70 1 S
# 2008  02  20   13    43    16.73    -26.6005    -67.7055    7.529999999999999     0.0     0.0     0.0    0.25   211
X6EW11  2.43 1 P
X6EW11  4.09 1 S
X6EW12  2.73 1 P
X6EW12  4.65 1 S
X6EW14  6.21 1 P
X6EW14 10.69 1 S
X6EW13  3.89 1 P
X6EW13  6.77 1 S
X6BB10  4.85 1 P
X6BB10  8.03 1 S
2BNS02  9.46 1 P
2BNS02 16.02 1 S
2BNS03  8.29 1 P
2BNS03 13.56 1 S
2BNS04  7.57 1 P
2BNS04 12.28 1 S
X6NS07  3.53 1 P
X6NS07  6.01 1 S
X6NS08  4.05 1 P
X6NS08  7.71 1 S
# 2008  02  21   02    13    55.76    -26.893    -66.9622    10.02     0.0     0.0     0.0    0.24   213
X6BB11  5.02 1 P
X6BB11  8.50 1 S
X6NS11 13.64 1 P
X6NS06 10.14 1 P
X6NS05 11.24 1 P
X6NS05 18.30 1 S
X6EW10 13.42 1 S
2BNS04 18.77 1 S
2BNS04 11.32 1 P
2BNS03 22.29 1 S
2BNS03 13.25 1 P
2BEW01  6.10 1 S
2BEW01  3.64 1 P
2BEW02  6.47 1 S
2BEW02  3.91 1 P
2BEW03  6.73 1 S
2BEW03  4.07 1 P
2BEW05 19.81 1 S
2BEW06 14.55 1 P
# 2008  02  21   04    25    23.46    -26.6006    -67.7051    7.800000000000001     0.0     0.0     0.0    0.19   214
X6EW11  2.52 1 P
X6EW11  4.12 1 S
X6EW12  2.77 1 P
X6EW12  4.65 1 S
X6EW14  6.25 1 P
X6EW14 10.72 1 S
X6EW13  3.96 1 P
X6EW13  6.76 1 S
X6BB10  4.84 1 P
2BNS02  9.57 1 P
2BNS03 13.54 1 S
2BNS04 12.29 1 S
2BNS04  7.55 1 P
X6NS07  3.56 1 P
X6NS07  6.00 1 S
X6NS08  4.16 1 P
X6NS08  7.72 1 S
# 2008  02  21   05    30    54.22    -25.7297    -67.1244    10.81     0.0     0.0     0.0    0.17   215
2BNS02 11.00 1 P
2BNS02 18.06 1 S
2BNS01  9.33 1 P
2BNS01 15.04 1 S
2BNS19  8.14 1 P
2BNS19 13.35 1 S
2BNS20  6.36 1 P
2BNS20 10.28 1 S
2BNS21  4.40 1 P
2BNS21  6.89 1 S
2BNS22  3.54 1 P
2BNS22  5.61 1 S
2BNS23  3.06 1 P
2BNS23  4.79 1 S
2BNS24  3.98 1 P
2BNS24  6.32 1 S
2BNS25  4.73 1 P
2BNS25  7.84 1 S
2BNS26  6.73 1 P
2BNS26 11.06 1 S
2BGALA  4.58 1 P
2BGALA  7.46 1 S
# 2008  02  21   16    58    43.08    -25.7257    -67.1201    5.92     0.0     0.0     0.0    0.21   217
2BNS20  9.84 1 S
2BNS21  3.95 1 P
2BNS21  6.58 1 S
2BNS22  3.08 1 P
2BNS22  5.12 1 S
2BNS23  2.53 1 P
2BNS23  4.29 1 S
2BNS24  3.48 1 P
2BNS24  5.86 1 S
2BNS25  4.25 1 P
2BNS25  7.22 1 S
2BNS26  6.84 1 P
2BNS26 11.02 1 S
2BGALA  4.11 1 P
2BGALA  7.14 1 S
# 2008  02  21   18    33    59.42    -27.072    -67.0501    5.42     0.0     0.0     0.0    0.22   218
X6BB12  9.44 1 P
X6BB12 16.16 1 S
X6NS18 18.68 1 P
X6NS18 31.70 1 S
X6NS17 16.32 1 P
X6NS17 26.86 1 S
X6NS16 24.02 1 S
X6NS15 21.60 1 S
X6BB24 23.28 1 P
X6BB24 38.90 1 S
X6NS14 13.90 1 P
X6NS14 23.84 1 S
X6NS13 14.12 1 P
X6NS13 23.60 1 S
X6BB01 20.70 1 P
X6BB01 34.80 1 S
X6NS11 11.42 1 P
X6NS11 19.24 1 S
X6BB02 18.00 1 P
X6BB02 30.84 1 S
X6NS10 11.08 1 P
X6NS10 18.66 1 S
X6NS09 11.18 1 P
X6NS09 18.84 1 S
X6EW15 20.72 1 P
X6EW15 34.72 1 S
X6EW14 18.20 1 P
X6EW14 30.74 1 S
X6NS08 12.24 1 P
X6NS08 20.60 1 S
X6EW13 16.94 1 P
X6EW13 28.40 1 S
X6BB09 36.34 1 S
X6EW12 14.96 1 P
X6EW12 24.98 1 S
X6EW11 13.84 1 P
X6EW11 23.30 1 S
X6NS07 12.06 1 P
X6NS07 20.10 1 S
X6BB10 17.84 1 P
X6BB10 29.40 1 S
X6NS06 11.28 1 P
X6NS06 18.84 1 S
X6NS05 12.68 1 P
X6NS05 21.44 1 S
2BNS03 26.46 1 S
2BNS03 15.60 1 P
X6EW10 10.24 1 P
X6EW10 17.26 1 S
2BNS04 22.72 1 S
2BNS04 13.60 1 P
2BNS02 18.24 1 P
2BNS19 34.87 1 S
2BNS20 22.38 1 P
2BNS22 25.18 1 P
2BNS23 26.80 1 P
2BNS24 28.25 1 P
2BNS25 29.35 1 P
2BGALA 23.93 1 P
2BEW01 11.71 1 S
2BEW01  6.83 1 P
2BEW02 12.28 1 S
2BEW02  7.31 1 P
2BEW03 11.32 1 S
2BEW03  6.73 1 P
2BEW05 23.88 1 S
2BEW05 14.17 1 P
2BEW06 28.06 1 S
2BEW06 16.57 1 P
2BEW07 30.36 1 S
2BEW07 18.06 1 P
2BEW08 36.98 1 S
2BEW08 22.05 1 P
X6BB15 21.56 1 S
X6BB15 12.88 1 P
X6BB11  4.34 1 S
X6BB11  2.38 1 P
X6BB13 22.72 1 S
X6BB13 13.56 1 P
# 2008  02  21   18    44    34.92    -27.0097    -66.4622    20.66     0.0     0.0     0.0    0.09   219
X6BB11  9.46 1 P
X6BB11 15.98 1 S
2BEW03  7.00 1 P
2BEW03 11.52 1 S
2BEW01 11.29 1 P
2BEW01 18.91 1 S
2BEW02  8.87 1 P
2BEW02 14.68 1 S
2BEW05  6.32 1 P
2BEW05 10.43 1 S
2BEW06  7.52 1 P
2BEW06 12.44 1 S
2BEW07 14.41 1 S
2BEW08 12.29 1 P
X6BB15  7.62 1 P
X6BB15 12.42 1 S
# 2008  02  22   07    6    52.72    -26.7087    -67.6347    4.84     0.0     0.0     0.0    0.3   220
X6NS08  1.78 1 P
X6NS09  4.02 1 P
X6NS09  7.26 1 S
X6EW14  7.18 1 P
X6EW12  3.14 1 P
X6EW11  1.98 1 P
X6BB10  7.08 1 P
2BNS02 10.44 1 P
2BNS03  8.75 1 P
2BNS04  7.66 1 P
X6NS05  5.88 1 P
X6NS06  6.68 1 S
X6NS06  4.06 1 P
X6EW10 11.66 1 S
X6EW10  7.10 1 P
X6NS07  3.70 1 S
X6NS07  2.18 1 P
2BEW01 18.80 1 S
2BEW01 11.29 1 P
# 2008  02  22   14    57    9.64    -27.5968    -67.0093    2.2     0.0     0.0     0.0    0.49   221
X6BB24 19.30 1 P
X6NS14 12.90 1 P
X6NS14 22.74 1 S
X6EW15 44.80 1 S
X6NS10 15.52 1 P
X6NS10 26.02 1 S
X6BB12  3.26 1 P
X6EW14 26.10 1 P
X6NS09 16.90 1 P
X6NS09 29.72 1 S
X6EW12 36.88 1 S
X6NS08 19.36 1 P
X6EW11 36.92 1 S
X6NS06 34.54 1 S
2BNS03 25.77 1 P
2BNS02 27.95 1 P
2BNS04 22.85 1 P
2BEW01 16.67 1 P
X6BB11 10.14 1 P
X6BB11 17.62 1 S
2BEW02 16.29 1 P
2BEW03 25.56 1 S
2BEW03 14.88 1 P
X6BB15 20.78 1 S
X6BB15 12.34 1 P
X6BB13 12.88 1 S
X6BB13  7.26 1 P
# 2008  02  22   18    7    19.1    -27.1664    -66.244    3.0100000000000002     0.0     0.0     0.0    0.17   222
X6BB15  4.14 1 P
X6BB15  6.96 1 S
X6BB13 11.04 1 P
X6BB13 19.02 1 S
X6BB11 12.72 1 P
X6BB11 21.28 1 S
2BEW01 15.73 1 P
2BEW01 26.00 1 S
X6EW10 20.80 1 P
X6EW10 34.68 1 S
2BEW03 10.97 1 P
2BEW03 18.24 1 S
2BNS04 23.68 1 P
2BNS03 25.60 1 P
2BNS02 46.31 1 S
2BEW05 12.53 1 S
2BEW05  7.60 1 P
2BEW07 11.70 1 S
2BEW07  6.77 1 P
2BEW22 17.91 1 S
# 2008  02  22   23    18    57.62    -26.1943    -67.9188    2.2     0.0     0.0     0.0    0.42   223
X6BB02 18.04 1 P
X6BB02 31.16 1 S
X6EW14 10.60 1 P
X6EW15 12.08 1 P
X6EW15 20.72 1 S
X6EW16 25.24 1 S
X6BB09  7.80 1 P
X6BB09 13.56 1 S
X6EW18 18.58 1 P
X6EW19 19.00 1 P
X6EW20 20.84 1 P
X6BB22 23.72 1 P
X6BB08  3.80 1 P
X6BB08  6.44 1 S
2BNS26 19.54 1 P
2BNS25 30.17 1 S
2BNS25 18.37 1 P
2BNS24 29.15 1 S
2BNS24 17.05 1 P
2BNS23 16.12 1 P
2BNS22 14.50 1 P
2BNS22 24.23 1 S
2BNS21 13.24 1 P
2BNS21 22.14 1 S
2BNS20 11.16 1 P
2BNS20 18.55 1 S
2BGALA 18.80 1 P
2BNS19 16.30 1 S
2BNS19  9.72 1 P
2BNS01 15.23 1 S
2BNS01  9.14 1 P
2BNS02 15.27 1 S
2BNS02  9.33 1 P
2BNS03 17.04 1 S
2BNS03  9.96 1 P
2BNS04 18.77 1 S
2BNS04 11.36 1 P
2BEW02 21.55 1 P
2BEW03 23.77 1 P
2BEW01 32.96 1 S
2BEW01 19.41 1 P
X6EW10 12.20 1 P
X6NS05 18.98 1 S
X6NS05 11.22 1 P
X6BB10  5.56 1 P
X6BB10  9.34 1 S
X6NS06 20.04 1 S
X6NS06 11.94 1 P
X6NS07 19.42 1 S
X6NS07 11.56 1 P
X6EW11 10.28 1 P
X6EW11 18.98 1 S
X6NS08 21.86 1 S
X6NS08 12.90 1 P
X6NS09 25.80 1 S
X6NS09 15.40 1 P
X6NS10 29.76 1 S
X6EW12 17.92 1 S
X6EW12 10.48 1 P
X6NS11 31.08 1 S
X6EW13  9.64 1 P
X6EW13 16.58 1 S
# 2008  02  23   08    42    34.4    -26.0149    -67.8013    2.2     0.0     0.0     0.0    0.3   224
X6EW12 13.90 1 P
X6EW12 23.22 1 S
X6EW14 14.46 1 P
X6BB08  4.14 1 S
X6BB08  2.22 1 P
2BNS25 14.27 1 P
2BNS24 13.15 1 P
2BNS23 20.43 1 S
2BNS23 12.26 1 P
2BNS22 10.90 1 P
2BGALA 15.67 1 P
2BGALA 26.24 1 S
2BNS20  7.84 1 P
2BNS20 13.37 1 S
2BNS19  7.11 1 P
2BNS19 12.42 1 S
2BNS01  6.96 1 P
2BNS01 11.93 1 S
2BNS02  7.99 1 P
2BNS02 13.58 1 S
2BNS04 11.16 1 P
2BNS04 18.33 1 S
# 2008  02  23   10    7    18.88    -25.9651    -66.9926    9.2     0.0     0.0     0.0    0.14   225
X6NS05 12.70 1 P
2BNS04 17.52 1 S
2BNS04 10.60 1 P
2BNS02 15.81 1 S
2BNS02  9.52 1 P
2BNS20 11.46 1 S
2BNS21 10.05 1 S
2BNS22 10.88 1 S
2BNS22  6.69 1 P
2BNS23 12.33 1 S
2BNS23  7.49 1 P
2BNS24 14.18 1 S
2BNS24  8.66 1 P
2BNS25 15.68 1 S
2BNS25  9.50 1 P
2BNS26 11.60 1 P
2BGALA  3.19 1 P
2BGALA  5.44 1 S
2BEW02 15.50 1 P
2BEW02 25.60 1 S
# 2008  02  23   10    16    50.41    -25.9625    -66.9953    8.41     0.0     0.0     0.0    0.2   226
2BEW01 15.43 1 P
X6NS05 12.61 1 P
2BNS04 17.36 1 S
2BNS04 10.50 1 P
2BNS02 15.70 1 S
2BNS02  9.58 1 P
2BNS20 11.25 1 S
2BNS21  9.96 1 S
2BNS21  6.30 1 P
2BNS22 10.71 1 S
2BNS22  6.55 1 P
2BNS23 12.24 1 S
2BNS23  7.36 1 P
2BNS24 14.01 1 S
2BNS24  8.55 1 P
2BNS25 15.53 1 S
2BNS25  9.38 1 P
2BNS26 11.47 1 P
2BGALA  3.06 1 P
2BGALA  5.29 1 S
2BEW02 15.35 1 P
# 2008  02  23   10    21    53.3    -27.2863    -67.0367    23.66     0.0     0.0     0.0    0.19   228
X6BB02 19.16 1 P
X6BB02 31.72 1 S
X6NS10 12.36 1 P
X6NS09 22.80 1 S
X6NS09 13.40 1 P
X6EW12 29.64 1 S
X6EW12 17.56 1 P
X6NS08 25.24 1 S
X6NS08 15.00 1 P
X6NS06 25.00 1 S
X6NS06 15.00 1 P
X6NS05 27.68 1 S
X6NS05 16.60 1 P
2BNS02 22.35 1 P
2BNS04 29.62 1 S
2BNS04 17.70 1 P
2BEW01 11.35 1 P
2BEW01 19.19 1 S
2BEW02 11.48 1 P
2BEW02 19.20 1 S
X6BB11  9.64 1 S
X6BB11  5.76 1 P
2BEW03 10.34 1 P
2BEW03 17.32 1 S
2BEW05 27.36 1 S
2BEW06 30.32 1 S
X6BB13 18.02 1 S
X6BB13 10.76 1 P
# 2008  02  24   00    18    35.32    -26.9135    -67.3684    13.129999999999999     0.0     0.0     0.0    0.2   230
X6NS11  7.86 1 P
X6NS11 12.50 1 S
X6NS10  6.72 1 P
X6NS10 10.94 1 S
X6NS08 10.74 1 S
X6EW12 15.16 1 S
X6NS07 10.50 1 S
X6NS07  6.34 1 P
X6NS06 10.66 1 S
X6NS06  6.18 1 P
X6NS05 13.82 1 S
X6NS05  7.94 1 P
2BNS04  9.51 1 P
2BNS04 16.31 1 S
2BEW01  7.78 1 P
2BEW01 12.84 1 S
2BEW02 10.00 1 P
2BEW02 16.40 1 S
2BEW03 10.78 1 P
2BEW03 17.81 1 S
# 2008  02  24   00    44    1.61    -26.4808    -67.9463    2.58     0.0     0.0     0.0    0.25   231
X6EW14  4.93 1 P
X6EW14  8.73 1 S
X6EW15  7.55 1 P
X6EW15 11.77 1 S
X6BB09  3.65 1 P
X6BB09  6.47 1 S
X6BB10  5.09 1 P
X6BB10  8.61 1 S
2BNS02 11.19 1 P
2BNS02 18.51 1 S
2BNS03 10.64 1 P
2BNS03 17.55 1 S
2BNS04 10.82 1 P
2BNS04 18.12 1 S
X6EW12  5.41 1 P
X6EW12  8.93 1 S
X6EW13  3.93 1 P
X6EW13  6.93 1 S
# 2008  02  24   08    21    57.56    -27.03    -68.0266    7.92     0.0     0.0     0.0    0.38   232
X6BB24 15.34 1 P
X6BB24 26.76 1 S
X6BB01  7.92 1 P
X6BB01 14.64 1 S
X6BB02  2.14 1 P
X6BB02  3.66 1 S
X6EW20 13.60 1 P
X6EW18 10.14 1 P
X6EW19 20.98 1 S
X6EW19 12.26 1 P
X6EW17  8.52 1 P
X6EW17 14.88 1 S
X6EW16  6.66 1 P
X6EW16 11.26 1 S
X6EW15  6.88 1 P
X6EW15 11.52 1 S
X6BB09 10.34 1 P
X6BB09 17.78 1 S
X6EW14  6.64 1 P
X6EW13 16.36 1 S
X6EW13  8.72 1 P
X6BB10 24.98 1 S
X6BB10 13.94 1 P
2BNS02 19.21 1 P
X6EW12  8.54 1 P
X6EW11 10.18 1 P
X6EW11 16.98 1 S
2BNS04 16.37 1 P
2BNS04 27.99 1 S
X6NS05 24.70 1 S
X6NS07 10.80 1 P
X6NS07 18.54 1 S
X6NS06 12.90 1 P
X6NS06 21.54 1 S
X6NS08  8.34 1 P
X6NS08 14.50 1 S
X6EW10 26.58 1 S
X6EW10 15.28 1 P
2BEW01 18.37 1 P
X6NS09  6.98 1 P
X6NS09 12.12 1 S
X6NS10  5.62 1 P
X6NS10 10.38 1 S
X6NS11  6.62 1 P
X6NS15 11.80 1 P
X6NS13 13.82 1 S
X6NS13  8.10 1 P
X6NS14 18.96 1 S
X6NS14 10.48 1 P
X6NS16 13.04 1 P
X6NS16 23.72 1 S
# 2008  02  24   14    11    47.51    -26.2994    -67.8978    2.2     0.0     0.0     0.0    0.24   233
X6EW14  8.83 1 P
X6EW14 15.45 1 S
X6EW15 10.39 1 P
X6BB09 10.87 1 S
X6BB09  6.27 1 P
X6BB08 10.11 1 S
X6BB08  5.91 1 P
2BNS25 19.39 1 P
2BNS24 18.05 1 P
2BNS23 17.08 1 P
2BNS22 15.34 1 P
2BNS20 19.82 1 S
2BGALA 19.17 1 P
2BGALA 31.75 1 S
2BNS02  9.06 1 P
2BNS02 15.32 1 S
2BNS03  9.17 1 P
2BNS03 15.23 1 S
2BNS04 10.16 1 P
2BNS04 16.81 1 S
2BEW02 20.12 1 P
X6NS05  9.71 1 P
X6NS05 16.59 1 S
X6EW10 21.07 1 S
X6EW10 12.71 1 P
2BEW01 17.75 1 P
X6BB10  6.69 1 S
X6BB10  3.97 1 P
X6NS06 10.07 1 P
X6NS06 16.83 1 S
X6NS07  9.51 1 P
X6NS07 15.99 1 S
X6EW11 14.51 1 S
X6EW11  9.35 1 P
X6NS08 10.63 1 P
X6NS09 12.87 1 P
X6NS09 21.63 1 S
X6EW12  8.15 1 P
X6EW13  7.43 1 P
X6EW13 12.67 1 S
# 2008  02  24   16    36    40.36    -27.3315    -66.5803    10.96     0.0     0.0     0.0    0.35   234
X6NS18 20.76 1 P
X6BB12 18.58 1 S
X6BB12 10.56 1 P
X6NS16 18.74 1 P
X6NS14 19.92 1 P
X6NS13 20.80 1 P
X6BB02 46.24 1 S
X6NS10 19.84 1 P
X6NS10 32.68 1 S
X6NS09 20.10 1 P
X6NS09 34.94 1 S
X6EW13 26.02 1 P
X6BB09 30.66 1 P
X6EW12 24.00 1 P
X6EW11 22.88 1 P
X6BB11 13.84 1 S
X6BB11  7.88 1 P
X6NS07 20.80 1 P
X6NS07 36.44 1 S
X6NS06 19.92 1 P
X6BB10 26.18 1 P
X6NS05 21.30 1 P
X6EW10 31.46 1 S
X6EW10 18.42 1 P
2BNS02 26.17 1 P
2BNS19 28.52 1 P
2BNS22 32.03 1 P
2BEW08 16.42 1 P
2BEW22 17.33 1 P
X6BB15  4.32 1 P
