# 2008  02  27   07    58    2.51    -26.4973    -67.2975    7.640000000000001     0.0     0.0     0.0    0.22   265
X6EW10  2.23 1 P
X6EW10  3.69 1 S
X6NS06  3.59 1 P
X6NS06  6.09 1 S
X6NS07  5.75 1 P
X6NS07 10.39 1 S
X6NS05  2.39 1 P
X6NS05  3.87 1 S
2BNS04  2.29 1 P
2BNS04  3.75 1 S
2BNS03  4.21 1 P
2BNS03  7.18 1 S
2BNS02  6.88 1 P
2BNS02 11.05 1 S
2BNS19  9.44 1 P
2BNS20 10.98 1 P
2BNS20 17.67 1 S
2BEW02 15.65 1 S
2BEW02  9.42 1 P
2BEW01 12.42 1 S
2BEW01  7.38 1 P
# 2008  02  27   08    5    29.56    -26.4989    -67.2948    7.380000000000001     0.0     0.0     0.0    0.22   266
X6EW10  2.22 1 P
X6EW10  3.68 1 S
X6NS08  8.40 1 P
X6NS06  6.08 1 S
X6NS06  3.58 1 P
X6NS07 10.42 1 S
X6NS07  5.74 1 P
X6NS05  3.86 1 S
X6NS05  2.38 1 P
X6BB10  7.94 1 P
2BNS04  2.27 1 P
2BNS04  3.74 1 S
2BNS03  4.22 1 P
2BNS03  7.17 1 S
2BNS02  6.86 1 P
2BNS02 10.97 1 S
2BNS01  8.48 1 P
2BNS01 14.22 1 S
2BNS19  9.44 1 P
2BNS20 10.97 1 P
2BNS20 17.70 1 S
2BNS23 15.89 1 P
2BGALA 14.43 1 P
2BEW02 15.47 1 S
2BEW02  9.39 1 P
2BEW03 11.63 1 P
2BEW01  7.28 1 P
2BEW01 12.43 1 S
# 2008  02  27   13    19    28.14    -26.8489    -67.2269    10.94     0.0     0.0     0.0    0.53   267
X6NS10 14.44 1 S
X6NS08 13.04 1 S
X6NS08  8.96 1 P
X6EW12 17.62 1 S
X6EW12 11.74 1 P
X6EW11 15.60 1 S
X6NS07 11.60 1 S
X6NS07  6.78 1 P
X6NS06  9.98 1 S
X6NS06  5.92 1 P
X6NS05 12.56 1 S
X6NS05  7.32 1 P
2BNS03 10.52 1 P
2BNS03 18.20 1 S
2BNS02 13.16 1 P
2BNS04  8.54 1 P
2BNS04 14.78 1 S
X6EW10  5.44 1 P
X6EW10  9.32 1 S
2BEW01  8.51 1 S
2BEW01  5.10 1 P
2BEW02  7.24 1 P
2BEW03 13.84 1 S
2BEW03  8.24 1 P
X6BB11  7.34 1 P
X6BB11 13.02 1 S
# 2008  02  27   17    46    37.8    -26.9175    -66.0292    10.58     0.0     0.0     0.0    0.2   268
X6BB15 17.20 1 S
X6BB13 28.86 1 S
2BEW07  2.27 1 P
2BEW07  3.81 1 S
X6BB11 16.80 1 P
X6BB11 27.98 1 S
2BEW03 12.72 1 P
2BEW03 21.34 1 S
2BEW01 17.36 1 P
2BEW01 28.85 1 S
X6NS06 24.96 1 P
X6EW10 36.94 1 S
X6EW10 22.42 1 P
X6NS05 41.30 1 S
X6NS05 24.96 1 P
2BEW05  9.30 1 S
2BEW05  5.63 1 P
2BNS03 43.20 1 S
2BNS03 26.07 1 P
2BNS02 28.38 1 P
2BEW06  2.92 1 P
2BEW06  4.84 1 S
2BGALA 43.66 1 S
2BEW22 10.36 1 S
2BEW22  6.25 1 P
2BEW08  7.79 1 S
2BEW08  4.69 1 P
# 2008  02  28   09    9    20.07    -26.5034    -67.3028    7.630000000000001     0.0     0.0     0.0    0.19   270
X6NS06  3.59 1 P
X6NS05  3.82 1 S
X6NS05  2.38 1 P
2BNS03  7.11 1 S
2BNS03  4.19 1 P
2BNS02 11.03 1 S
2BNS02  6.86 1 P
2BNS04  3.74 1 S
2BNS04  2.25 1 P
2BEW02 15.62 1 S
2BEW02  9.36 1 P
2BEW01 12.38 1 S
2BEW01  7.35 1 P
X6EW10  3.67 1 S
X6EW10  2.21 1 P
# 2008  02  28   12    26    31.53    -26.9919    -66.01    7.6     0.0     0.0     0.0    0.14   271
X6BB15 15.93 1 S
2BEW03 13.31 1 P
2BEW01 18.08 1 P
2BEW01 30.28 1 S
2BNS04 42.32 1 S
2BNS04 25.05 1 P
2BNS03 26.84 1 P
2BNS02 28.78 1 P
2BEW05 10.77 1 S
2BEW05  6.52 1 P
2BNS23 33.06 1 P
2BEW06  3.79 1 P
2BEW06  6.35 1 S
2BEW07  2.84 1 P
2BEW07  4.80 1 S
2BEW08  4.40 1 P
2BEW08  7.31 1 S
2BEW22  5.93 1 P
2BEW22  9.87 1 S
# 2008  02  28   12    30    0.87    -27.1121    -68.5462    2.48     0.0     0.0     0.0    0.25   272
X6EW20  6.07 1 P
X6EW20 10.37 1 S
X6EW19  5.75 1 P
X6EW19 10.89 1 S
X6EW18  4.69 1 P
X6EW17  9.67 1 S
X6EW17  5.65 1 P
X6BB09 24.67 1 S
X6BB09 14.63 1 P
X6EW16 12.71 1 S
X6EW16  7.57 1 P
X6EW15 17.27 1 S
X6EW15 10.31 1 P
X6EW12 16.53 1 P
X6NS08 17.25 1 P
X6NS08 29.15 1 S
X6NS09 16.15 1 P
X6NS09 27.39 1 S
X6NS10 14.95 1 P
X6NS10 25.23 1 S
X6BB02  7.79 1 P
X6BB02 13.15 1 S
X6BB01  9.35 1 P
X6BB01 16.91 1 S
X6BB24 16.07 1 P
X6BB24 27.15 1 S
# 2008  02  28   19    11    42.7    -26.7803    -67.0375    11.889999999999999     0.0     0.0     0.0    0.3   273
X6BB12 25.20 1 S
X6NS16 18.32 1 P
X6NS16 31.34 1 S
X6NS15 17.12 1 P
X6NS15 28.94 1 S
X6BB24 27.20 1 P
X6BB24 46.08 1 S
X6NS14 17.60 1 P
X6NS14 29.94 1 S
X6NS13 17.26 1 P
X6NS13 28.80 1 S
X6BB01 38.88 1 S
X6BB01 23.34 1 P
X6NS11 13.32 1 P
X6NS11 22.00 1 S
X6NS10 12.70 1 P
X6NS10 20.72 1 S
X6BB02 32.64 1 S
X6BB02 19.92 1 P
X6NS09 11.54 1 P
X6NS09 18.76 1 S
X6NS08 11.20 1 P
X6NS08 18.68 1 S
X6EW14 17.60 1 P
X6EW14 28.88 1 S
X6EW12 13.28 1 P
X6EW12 22.08 1 S
X6EW13 15.18 1 P
X6EW13 25.40 1 S
X6EW11 11.84 1 P
X6EW11 21.46 1 S
X6BB09 32.68 1 S
X6BB09 19.52 1 P
X6NS07  9.56 1 P
X6NS07 16.00 1 S
X6NS06  7.96 1 P
X6NS06 13.32 1 S
X6BB10 24.00 1 S
X6BB10 14.20 1 P
X6NS05  8.46 1 P
X6NS05 14.18 1 S
X6BB08 35.90 1 S
X6BB08 21.68 1 P
X6EW10  5.82 1 P
X6EW10  9.60 1 S
2BNS04 14.84 1 S
2BNS04  8.93 1 P
2BNS03 18.19 1 S
2BNS03 10.94 1 P
2BNS02 21.99 1 S
2BNS02 13.41 1 P
2BNS21 18.21 1 P
2BEW01  2.46 1 P
2BEW01  4.13 1 S
2BGALA 18.42 1 P
2BGALA 31.32 1 S
2BEW02  4.14 1 P
2BEW02  6.87 1 S
2BEW05 13.06 1 P
2BEW05 21.62 1 S
2BEW06 15.94 1 P
2BEW06 26.43 1 S
2BEW07 17.78 1 P
2BEW07 29.52 1 S
2BEW08 21.85 1 P
2BEW08 36.26 1 S
2BEW03  5.56 1 P
2BEW03  9.19 1 S
X6BB15 15.84 1 P
X6BB15 26.38 1 S
X6BB13 30.52 1 S
X6BB11  7.26 1 P
X6BB11 12.24 1 S
# 2008  02  28   19    29    35.18    -26.5231    -67.5523    12.33     0.0     0.0     0.0    0.26   274
X6NS07  3.68 1 P
X6NS07  6.24 1 S
X6EW12  9.36 1 S
X6BB10  7.76 1 S
X6BB10  4.70 1 P
2BNS02 11.83 1 S
2BNS02  7.23 1 P
2BNS03  8.98 1 S
2BNS03  5.68 1 P
2BNS04  7.84 1 S
2BNS04  4.94 1 P
X6NS05  3.48 1 P
X6NS05  5.68 1 S
X6EW10  9.50 1 S
X6EW10  5.76 1 P
X6NS06  3.48 1 P
X6NS06  5.58 1 S
# 2008  02  28   20    5    8.6    -26.7799    -67.0416    11.41     0.0     0.0     0.0    0.34   275
X6BB12 15.11 1 P
X6BB12 25.05 1 S
X6NS18 23.35 1 P
X6NS18 40.04 1 S
X6NS17 34.76 1 S
X6NS16 31.33 1 S
X6NS16 18.30 1 P
X6NS15 28.87 1 S
X6NS15 16.87 1 P
X6NS14 29.78 1 S
X6NS14 17.51 1 P
X6BB24 45.90 1 S
X6BB24 27.05 1 P
X6NS13 28.78 1 S
X6NS13 17.21 1 P
X6BB01 38.77 1 S
X6BB01 23.28 1 P
X6NS11 22.01 1 S
X6NS11 13.22 1 P
X6NS10 20.69 1 S
X6NS10 12.45 1 P
X6BB02 32.53 1 S
X6BB02 19.50 1 P
X6NS09 18.71 1 S
X6NS09 11.25 1 P
X6NS08 18.66 1 S
X6NS08 11.22 1 P
X6EW14 28.82 1 S
X6EW14 17.50 1 P
X6EW12 22.10 1 S
X6EW12 13.30 1 P
X6EW13 25.33 1 S
X6EW13 15.17 1 P
X6NS07 15.98 1 S
X6NS07  9.53 1 P
X6BB09 32.69 1 S
X6BB09 19.69 1 P
X6NS06 13.25 1 S
X6NS06  7.93 1 P
X6BB10 23.96 1 S
X6BB10 14.17 1 P
X6NS05 14.01 1 S
X6NS05  8.42 1 P
X6EW10  9.56 1 S
X6EW10  5.83 1 P
X6BB08 21.67 1 P
2BNS04  8.91 1 P
2BNS04 14.77 1 S
2BNS03 10.92 1 P
2BNS03 18.35 1 S
2BNS02 13.37 1 P
2BNS02 21.96 1 S
2BNS19 26.21 1 S
2BNS22 19.62 1 P
2BNS23 21.35 1 P
2BGALA 18.39 1 P
2BGALA 31.35 1 S
2BEW01  4.09 1 S
2BEW01  2.43 1 P
2BEW02  6.83 1 S
2BEW02  4.11 1 P
2BEW05 21.55 1 S
2BEW05 13.00 1 P
2BEW06 26.39 1 S
2BEW06 15.93 1 P
2BEW07 29.50 1 S
2BEW07 17.76 1 P
2BEW08 36.23 1 S
2BEW08 22.03 1 P
2BEW03  9.14 1 S
2BEW03  5.53 1 P
X6BB15 26.37 1 S
X6BB15 15.77 1 P
X6BB13 19.69 1 P
X6BB11  7.21 1 P
X6BB11 12.19 1 S
# 2008  02  28   20    14    21.37    -26.7772    -67.0396    12.34     0.0     0.0     0.0    0.35   276
X6NS11 13.39 1 P
X6NS11 22.13 1 S
X6NS10 12.67 1 P
X6NS10 20.77 1 S
X6NS09 12.23 1 P
X6NS09 18.85 1 S
X6EW12 22.21 1 S
X6NS07  9.61 1 P
X6NS07 16.05 1 S
X6NS06  8.01 1 P
X6NS06 13.37 1 S
X6NS05  8.49 1 P
X6NS05 14.45 1 S
X6EW10  9.63 1 S
X6EW10  5.85 1 P
2BNS04 14.84 1 S
2BNS04  8.99 1 P
2BNS03 18.23 1 S
2BNS03 10.54 1 P
2BNS02 22.01 1 S
2BNS02 13.51 1 P
2BNS20 28.47 1 S
2BEW01  2.47 1 P
2BEW01  4.12 1 S
2BEW02  4.15 1 P
2BEW02  6.85 1 S
2BEW06 16.02 1 P
2BEW03  9.18 1 S
2BEW03  5.57 1 P
X6BB11 12.29 1 S
X6BB11  7.25 1 P
# 2008  02  29   11    26    0.31    -26.0907    -67.8703    7.15     0.0     0.0     0.0    0.33   277
X6EW13 11.38 1 P
X6EW13 19.77 1 S
X6EW14 12.89 1 P
X6EW14 22.50 1 S
X6EW15 14.15 1 P
X6EW15 23.75 1 S
X6BB09  9.70 1 P
X6BB09 16.80 1 S
X6BB08  2.63 1 P
X6BB08  4.47 1 S
2BGALA 17.12 1 P
2BGALA 28.36 1 S
X6EW10 14.55 1 P
X6NS05 11.54 1 P
X6NS05 19.41 1 S
X6NS06 12.73 1 P
X6NS06 21.22 1 S
X6NS07 12.41 1 P
X6BB10  6.46 1 P
X6BB10 10.73 1 S
X6NS08 14.07 1 P
X6EW12 12.10 1 P
X6EW12 20.98 1 S
# 2008  03  01   03    38    31.29    -26.0279    -67.2179    12.86     0.0     0.0     0.0    0.18   279
2BNS04  8.05 1 P
2BNS03 10.77 1 S
2BNS03  6.68 1 P
2BNS02  9.35 1 S
2BNS02  5.82 1 P
2BNS01  4.93 1 P
2BNS19  4.39 1 P
2BNS19  7.13 1 S
2BNS20  3.95 1 P
2BNS20  6.52 1 S
2BNS21  4.46 1 P
2BNS21  6.97 1 S
2BNS22  5.83 1 P
2BGALA  6.67 1 P
2BGALA 11.02 1 S
# 2008  03  01   05    49    57.16    -26.5422    -67.0562    13.23     0.0     0.0     0.0    0.23   280
X6NS09 12.86 1 P
X6NS09 21.74 1 S
X6NS08 11.78 1 P
X6NS07 15.84 1 S
X6NS07  9.42 1 P
X6EW10  7.36 1 S
X6EW10  4.52 1 P
X6EW11 20.28 1 S
X6EW11 11.62 1 P
X6EW12 22.12 1 S
X6EW12 13.14 1 P
X6NS06 12.06 1 S
X6NS06  7.36 1 P
X6EW15 33.42 1 S
X6EW15 19.94 1 P
X6EW14 28.86 1 S
X6EW14 17.14 1 P
X6EW13 24.90 1 S
X6EW13 14.78 1 P
X6BB09 31.90 1 S
X6BB09 18.74 1 P
X6NS05 10.94 1 S
X6NS05  6.62 1 P
X6BB10 12.24 1 P
2BNS04  5.94 1 P
2BNS04  9.81 1 S
X6BB08 31.20 1 S
2BNS03 12.66 1 S
2BNS03  7.64 1 P
2BNS02 16.30 1 S
2BNS02  9.86 1 P
2BNS01 18.68 1 S
2BNS01 11.39 1 P
2BNS19 19.44 1 S
2BNS19 11.98 1 P
2BNS20 21.24 1 S
2BNS20 13.07 1 P
2BNS21 22.89 1 S
2BNS21 14.10 1 P
2BNS22 15.42 1 P
2BGALA 14.08 1 P
2BGALA 24.40 1 S
2BEW05 14.11 1 P
2BEW05 23.25 1 S
2BEW02  5.91 1 P
2BEW02  9.72 1 S
2BEW03  8.20 1 P
2BEW03 13.60 1 S
X6BB15 33.06 1 S
X6BB15 19.44 1 P
2BEW01  4.69 1 P
2BEW01  8.00 1 S
X6BB11 19.74 1 S
X6BB11 11.74 1 P
# 2008  03  01   11    0    55.6    -26.721    -66.21    22.110000000000003     0.0     0.0     0.0    0.1   282
X6BB15 21.34 1 S
2BEW05  6.93 1 S
2BEW05  4.31 1 P
2BEW03 17.62 1 S
2BEW03 10.62 1 P
2BEW02 18.86 1 S
2BEW02 11.48 1 P
2BEW01 23.84 1 S
2BEW01 14.38 1 P
2BNS04 34.05 1 S
2BNS03 36.30 1 S
2BNS02 39.62 1 S
2BGALA 35.80 1 S
2BEW08 15.31 1 S
2BEW08  9.28 1 P
2BEW07 10.23 1 S
2BEW07  6.15 1 P
# 2008  03  02   10    9    9.86    -26.0693    -66.764    4.34     0.0     0.0     0.0    0.34   284
2BEW02 13.02 1 P
2BEW02 21.82 1 S
X6BB11 20.40 1 P
X6BB11 34.80 1 S
2BEW01 13.62 1 P
X6EW10 13.40 1 P
X6EW10 22.92 1 S
X6NS09 22.52 1 P
X6NS06 26.56 1 S
X6NS06 15.48 1 P
X6NS08 36.04 1 S
X6NS08 20.86 1 P
X6NS07 31.00 1 S
X6NS07 17.56 1 P
X6NS05 23.74 1 S
X6NS05 13.76 1 P
2BNS04 20.00 1 S
2BNS04 11.82 1 P
X6EW14 24.48 1 P
2BNS03 11.86 1 P
2BNS03 19.27 1 S
X6BB10 18.36 1 P
X6BB10 28.60 1 S
2BNS02 12.17 1 P
2BNS01 19.96 1 S
2BNS01 11.96 1 P
X6BB08 20.84 1 P
2BNS19 19.20 1 S
2BNS20 18.19 1 S
2BNS20 11.02 1 P
2BNS21 16.87 1 S
2BNS21 10.40 1 P
2BNS22 18.04 1 S
2BNS22 10.90 1 P
2BGALA  5.54 1 P
2BGALA  9.57 1 S
2BEW08 39.91 1 S
2BEW06 18.73 1 P
2BEW05 26.78 1 S
2BEW05 16.13 1 P
X6BB15 25.66 1 P
X6BB15 42.68 1 S
2BEW03 26.27 1 S
2BEW03 15.00 1 P
# 2008  03  03   16    9    7.07    -26.484    -67.6016    10.11     0.0     0.0     0.0    0.35   285
X6NS09  9.39 1 P
X6NS09 14.35 1 S
X6NS08  6.59 1 P
X6EW11  4.43 1 P
X6EW12  9.15 1 S
X6EW12  5.47 1 P
X6EW13 10.91 1 S
X6EW13  6.83 1 P
X6EW14 14.91 1 S
X6EW14  8.81 1 P
X6EW15 19.27 1 S
X6EW15 11.69 1 P
X6BB09  9.55 1 P
X6BB09 16.39 1 S
X6BB10  3.51 1 P
X6BB10  5.81 1 S
X6BB08 11.77 1 P
X6BB08 19.07 1 S
2BNS20 10.77 1 P
2BNS01  8.01 1 P
2BNS02 11.73 1 S
2BNS02  6.80 1 P
2BNS03  9.10 1 S
2BNS03  5.37 1 P
2BNS04  8.55 1 S
2BNS04  5.24 1 P
X6NS05  7.05 1 S
X6NS05  3.97 1 P
X6EW10  6.57 1 P
X6EW10 10.99 1 S
2BEW02 14.24 1 P
2BEW02 23.53 1 S
2BEW01 11.82 1 P
2BEW01 19.60 1 S
X6NS06  6.79 1 S
X6NS06  4.23 1 P
X6NS07  6.85 1 S
X6NS07  4.11 1 P
# 2008  03  03   16    46    5.07    -27.32    -66.5989    6.16     0.0     0.0     0.0    0.29   286
X6BB13  6.27 1 P
X6BB13 11.05 1 S
X6NS18 20.57 1 P
X6NS17 19.15 1 P
X6BB12 10.33 1 P
X6BB12 17.77 1 S
X6BB24 27.27 1 P
X6NS16 18.25 1 P
X6NS15 17.65 1 P
X6BB01 47.67 1 S
X6BB01 27.03 1 P
X6NS13 20.51 1 P
X6BB02 25.71 1 P
X6EW20 38.39 1 P
X6NS11 19.13 1 P
X6EW18 35.21 1 P
X6EW19 37.15 1 P
X6NS10 19.07 1 P
X6NS10 32.53 1 S
X6EW16 31.15 1 P
X6EW15 30.15 1 P
X6NS09 19.59 1 P
X6NS09 33.41 1 S
X6EW14 27.77 1 P
X6NS08 20.87 1 P
X6EW13 25.55 1 P
X6EW12 23.67 1 P
X6EW11 22.51 1 P
X6BB11 13.43 1 S
X6BB11  7.69 1 P
X6NS07 20.57 1 P
X6NS06 19.67 1 P
X6NS06 33.41 1 S
X6BB10 26.03 1 P
X6BB08 33.79 1 P
X6NS05 20.75 1 P
X6EW10 18.03 1 P
2BNS04 21.27 1 P
2BNS03 23.29 1 P
2BNS02 25.71 1 P
2BEW01 13.31 1 P
2BNS01 27.49 1 P
2BNS19 28.36 1 P
2BNS20 29.34 1 P
2BNS21 30.37 1 P
2BNS22 31.80 1 P
2BEW02 11.73 1 P
2BEW03  9.65 1 P
2BGALA 29.04 1 P
2BEW05 11.72 1 P
2BEW06 12.49 1 P
2BEW07 13.16 1 P
2BEW08 16.07 1 P
2BEW22 17.48 1 P
X6BB15  4.35 1 P
# 2008  03  04   12    6    14.18    -25.8345    -67.2907    14.85     0.0     0.0     0.0    0.54   288
2BNS04 11.03 1 P
X6NS05 12.96 1 P
X6NS05 23.72 1 S
X6NS06 14.90 1 P
X6NS06 26.64 1 S
2BNS03  9.40 1 P
X6NS07 16.24 1 P
X6NS07 30.18 1 S
X6NS10 24.20 1 P
2BNS02 13.75 1 S
2BNS02  7.86 1 P
X6NS09 37.72 1 S
X6NS09 20.84 1 P
X6NS08 18.48 1 P
X6BB24 39.94 1 P
X6EW11 17.06 1 P
X6EW11 32.30 1 S
2BNS01  9.62 1 S
2BNS01  6.13 1 P
X6EW12 18.18 1 P
X6EW12 32.94 1 S
2BNS19  7.95 1 S
2BNS19  5.12 1 P
X6BB02 47.12 1 S
X6BB02 27.70 1 P
X6EW13 18.82 1 P
X6EW13 32.56 1 S
X6BB10 22.58 1 S
X6BB10 12.80 1 P
X6EW14 20.92 1 P
X6EW14 36.18 1 S
2BNS20  5.33 1 S
2BNS20  3.61 1 P
X6EW16 26.20 1 P
2BNS21  2.85 1 P
2BNS21  4.42 1 S
X6BB09 20.34 1 P
X6EW18 30.76 1 P
X6EW19 31.96 1 P
X6BB08 21.26 1 S
X6BB08 12.90 1 P
2BNS22  5.75 1 S
2BNS22  3.76 1 P
2BGALA  7.22 1 P
2BGALA 11.60 1 S
2BEW07 50.55 1 S
2BEW07 29.94 1 P
2BEW06 28.00 1 P
2BEW05 25.28 1 P
X6BB15 55.90 1 S
2BEW03 21.46 1 P
2BEW03 36.15 1 S
2BEW02 19.08 1 P
X6BB13 62.36 1 S
X6BB13 36.16 1 P
2BEW01 18.11 1 P
X6BB11 42.32 1 S
X6BB11 25.28 1 P
X6EW10 14.40 1 P
# 2008  03  04   12    7    15.89    -25.8621    -67.3001    14.57     0.0     0.0     0.0    0.15   289
2BNS04 10.89 1 P
2BNS03  9.14 1 P
2BNS02  7.71 1 P
2BNS02 13.17 1 S
2BNS01  5.97 1 P
2BNS01  9.47 1 S
2BNS19  4.74 1 P
2BNS19  7.84 1 S
2BNS20  3.43 1 P
2BNS20  5.17 1 S
2BNS21  2.67 1 P
2BNS21  4.33 1 S
2BNS22  3.58 1 P
2BNS22  5.58 1 S
2BGALA  7.05 1 P
2BGALA 11.40 1 S
# 2008  03  04   12    18    43.37    -25.8629    -67.299    13.969999999999999     0.0     0.0     0.0    0.15   290
2BNS04 10.80 1 P
2BNS03 15.44 1 S
2BNS03  9.22 1 P
2BNS02  7.62 1 P
2BNS01  5.89 1 P
2BNS01  9.33 1 S
2BNS19  4.87 1 P
2BNS19  7.77 1 S
2BNS20  5.09 1 S
2BNS21  2.59 1 P
2BNS21  4.21 1 S
2BNS22  3.51 1 P
2BNS22  5.50 1 S
2BGALA  6.95 1 P
2BGALA 11.31 1 S
# 2008  03  04   12    24    48.85    -25.8549    -67.2762    13.219999999999999     0.0     0.0     0.0    0.64   291
2BNS04 10.77 1 P
X6NS18 38.41 1 P
X6NS17 35.13 1 P
X6NS16 32.85 1 P
X6NS16 58.09 1 S
X6NS15 31.01 1 P
X6NS15 54.69 1 S
X6NS05 12.69 1 P
X6NS05 23.39 1 S
X6NS06 14.65 1 P
X6NS06 27.25 1 S
2BNS03  9.14 1 P
X6NS14 30.87 1 P
X6NS13 29.45 1 P
X6NS11 24.93 1 P
X6NS07 29.71 1 S
X6NS07 15.99 1 P
X6NS10 40.85 1 S
X6NS10 22.71 1 P
X6NS09 36.81 1 S
X6NS09 20.41 1 P
X6NS08 34.25 1 S
X6NS08 18.17 1 P
X6BB24 68.11 1 S
X6BB24 39.11 1 P
2BNS02 13.04 1 S
2BNS02  7.62 1 P
X6EW11 31.85 1 S
X6EW11 16.73 1 P
X6BB01 33.13 1 P
X6EW12 32.05 1 S
X6EW12 17.83 1 P
X6BB02 46.81 1 S
X6BB02 27.19 1 P
2BNS01  5.86 1 P
2BNS01  9.50 1 S
X6EW13 18.41 1 P
2BNS19  7.76 1 S
2BNS19  4.85 1 P
X6BB10 12.49 1 P
X6BB10 22.13 1 S
X6EW14 35.91 1 S
X6EW14 20.61 1 P
X6EW15 23.19 1 P
X6EW16 45.05 1 S
X6EW16 25.93 1 P
X6EW17 49.39 1 S
X6EW17 28.43 1 P
X6BB03 47.15 1 P
X6EW18 30.37 1 P
X6BB09 20.03 1 P
X6BB09 35.07 1 S
X6EW19 31.65 1 P
2BNS20  5.18 1 S
2BNS20  3.35 1 P
X6EW20 55.65 1 S
X6EW20 33.59 1 P
X6BB08 20.83 1 S
X6BB08 12.65 1 P
X6BB22 58.99 1 S
X6BB22 35.13 1 P
X6BB23 64.97 1 S
X6BB23 38.85 1 P
2BNS21  4.06 1 S
2BNS21  2.57 1 P
2BNS22  5.53 1 S
2BNS22  3.55 1 P
2BGALA  6.95 1 P
2BGALA 11.27 1 S
2BEW24 68.40 1 S
2BEW24 40.68 1 P
2BEW22 34.80 1 P
2BEW08 33.15 1 P
2BEW07 29.65 1 P
2BEW06 27.62 1 P
2BEW05 24.86 1 P
X6BB15 55.01 1 S
X6BB15 32.37 1 P
2BEW03 21.17 1 P
2BEW02 18.78 1 P
X6BB13 35.85 1 P
2BEW01 17.85 1 P
X6BB11 24.95 1 P
X6BB11 42.17 1 S
X6BB12 31.85 1 P
X6EW10 14.07 1 P
# 2008  03  04   12    37    8.63    -25.8681    -67.2977    12.959999999999999     0.0     0.0     0.0    0.17   292
2BNS04 10.65 1 P
2BNS04 18.14 1 S
2BNS03  9.04 1 P
2BNS02 12.66 1 S
2BNS02  7.45 1 P
2BNS01  9.11 1 S
2BNS01  5.73 1 P
2BNS19  4.73 1 P
2BNS19  7.50 1 S
2BNS20  3.16 1 P
2BNS20  4.87 1 S
2BNS21  2.43 1 P
2BNS21  3.78 1 S
2BNS22  3.39 1 P
2BNS22  5.35 1 S
2BGALA  6.91 1 P
2BGALA 11.26 1 S
# 2008  03  04   12    38    25.64    -25.8608    -67.2992    13.94     0.0     0.0     0.0    0.16   293
2BNS04 10.81 1 P
2BNS04 18.36 1 S
2BNS03  9.31 1 P
2BNS02 13.06 1 S
2BNS02  7.61 1 P
2BNS01  5.90 1 P
2BNS19  4.89 1 P
2BNS19  7.74 1 S
2BNS20  5.06 1 S
2BNS21  2.59 1 P
2BNS21  4.16 1 S
2BNS22  3.50 1 P
2BNS22  5.49 1 S
2BGALA  6.96 1 P
2BGALA 11.33 1 S
# 2008  03  04   12    48    10.28    -25.8616    -67.307    12.959999999999999     0.0     0.0     0.0    0.21   294
2BNS04 10.70 1 P
2BNS04 18.79 1 S
2BNS03  9.18 1 P
2BNS02 12.80 1 S
2BNS02  7.48 1 P
2BNS01  9.12 1 S
2BNS01  5.74 1 P
2BNS19  4.72 1 P
2BNS19  7.34 1 S
2BNS20  3.18 1 P
2BNS20  4.83 1 S
2BNS21  2.43 1 P
2BNS21  3.77 1 S
2BNS22  3.42 1 P
2BNS22  5.37 1 S
2BGALA  6.98 1 P
2BGALA 11.42 1 S
# 2008  03  04   12    49    54.64    -25.8668    -67.2938    13.4     0.0     0.0     0.0    0.17   295
2BNS04 10.70 1 P
2BNS03 15.35 1 S
2BNS03  9.01 1 P
2BNS02 12.85 1 S
2BNS02  7.52 1 P
2BNS01  9.24 1 S
2BNS01  5.79 1 P
2BNS19  4.77 1 P
2BNS19  7.65 1 S
2BNS20  3.26 1 P
2BNS20  4.99 1 S
2BNS21  2.51 1 P
2BNS21  3.85 1 S
2BNS22  3.46 1 P
2BNS22  5.45 1 S
2BGALA  6.87 1 P
2BGALA 11.17 1 S
# 2008  03  04   13    3    12.71    -25.8583    -67.2836    11.62     0.0     0.0     0.0    0.6   296
2BNS04 10.61 1 P
X6NS18 38.47 1 P
X6NS18 67.53 1 S
X6NS05 12.53 1 P
X6NS05 22.77 1 S
X6NS17 36.01 1 P
X6NS16 32.67 1 P
X6NS15 30.85 1 P
X6NS06 26.89 1 S
X6NS06 14.47 1 P
2BNS03  8.96 1 P
X6NS14 54.55 1 S
X6NS14 30.71 1 P
X6NS07 28.79 1 S
X6NS07 15.81 1 P
X6NS13 51.69 1 S
X6NS13 29.71 1 P
X6NS11 25.79 1 P
X6NS10 22.63 1 P
X6NS10 40.67 1 S
2BNS02  7.45 1 P
2BNS02 12.67 1 S
X6NS09 20.27 1 P
X6NS09 36.55 1 S
X6NS08 17.99 1 P
X6BB24 67.89 1 S
X6BB24 39.19 1 P
X6EW11 31.19 1 S
X6EW11 16.59 1 P
2BNS01  5.67 1 P
X6EW12 30.89 1 S
X6EW12 17.73 1 P
2BNS19  7.26 1 S
2BNS19  4.65 1 P
X6BB02 46.29 1 S
X6BB02 27.09 1 P
X6EW13 32.19 1 S
X6EW13 18.35 1 P
X6BB10 21.61 1 S
X6BB10 12.31 1 P
X6EW14 35.51 1 S
X6EW14 20.51 1 P
2BNS20  4.85 1 S
2BNS20  3.11 1 P
X6EW15 23.07 1 P
X6EW16 25.89 1 P
X6EW17 49.15 1 S
X6EW17 28.47 1 P
2BNS21  4.06 1 S
2BNS21  2.37 1 P
X6BB09 34.35 1 S
X6BB09 19.93 1 P
X6EW18 51.99 1 S
X6EW18 30.35 1 P
X6BB03 47.09 1 P
X6EW19 31.59 1 P
X6EW20 54.99 1 S
X6EW20 33.11 1 P
X6BB08 12.39 1 P
X6BB08 20.49 1 S
X6BB22 34.95 1 P
X6BB23 38.99 1 P
X6BB23 64.37 1 S
2BNS22  3.37 1 P
2BNS22  5.34 1 S
2BGALA  6.91 1 P
2BGALA 11.34 1 S
2BEW22 34.64 1 P
2BEW08 33.08 1 P
2BEW07 29.57 1 P
2BEW06 27.55 1 P
2BEW05 24.79 1 P
X6BB15 55.37 1 S
X6BB15 32.27 1 P
2BEW03 21.07 1 P
2BEW02 18.67 1 P
X6BB13 61.47 1 S
X6BB13 35.71 1 P
2BEW01 17.71 1 P
X6BB11 41.97 1 S
X6BB11 24.79 1 P
X6BB12 56.57 1 S
X6BB12 31.67 1 P
X6EW10 13.91 1 P
X6EW10 23.93 1 S
# 2008  03  04   13    10    15.64    -25.9385    -67.2523    5.390000000000001     0.0     0.0     0.0    0.72   297
2BNS04  9.74 1 P
2BNS03  9.39 1 S
2BNS03  8.20 1 P
2BNS02  6.72 1 P
2BNS01  5.04 1 P
2BNS01  8.27 1 S
2BNS19  4.11 1 P
2BNS20  2.66 1 P
2BNS20  4.32 1 S
2BNS21  2.14 1 P
2BNS21  3.46 1 S
2BNS22  3.30 1 P
2BNS22  5.58 1 S
2BGALA  6.24 1 P
2BGALA 10.58 1 S
# 2008  03  04   16    21    58.8    -25.8628    -67.304    12.969999999999999     0.0     0.0     0.0    0.2   298
2BNS04 10.72 1 P
2BNS03  9.11 1 P
2BNS02  7.47 1 P
2BNS02 13.33 1 S
2BNS01  5.73 1 P
2BNS01  9.10 1 S
2BNS19  4.71 1 P
2BNS19  7.40 1 S
2BNS20  3.16 1 P
2BNS20  4.79 1 S
2BNS21  2.48 1 P
2BNS21  3.72 1 S
2BNS22  3.38 1 P
2BNS22  5.34 1 S
2BGALA  7.00 1 P
2BGALA 11.36 1 S
# 2008  03  04   16    50    21.99    -26.7695    -68.1423    2.2     0.0     0.0     0.0    0.36   299
X6EW16  2.53 1 P
X6EW16  6.31 1 S
X6EW18 14.83 1 S
X6EW15  1.75 1 P
X6BB09  5.43 1 P
X6BB09 10.39 1 S
X6BB10 11.25 1 P
X6EW13  5.83 1 P
X6EW13  9.83 1 S
X6EW14  3.11 1 P
X6EW14  4.97 1 S
X6EW12  7.09 1 P
X6EW12 11.89 1 S
X6NS09  9.33 1 P
X6NS09 15.79 1 S
X6BB02 11.51 1 S
X6BB02  6.87 1 P
